{"type":"Topology","objects":{"nyc_zcta":{"type":"GeometryCollection","datasource":"http://catalog.opendata.city/dataset/nyc-zip-code-tabulation-areas","geometries":[{"type":"Polygon","properties":{"OBJECTID":1,"postalCode":"11372","PO_NAME":"Jackson Heights","STATE":"NY","borough":"Queens","ST_FIPS":"36","CTY_FIPS":"081","BLDGpostal":0,"@id":"http://nyc.pediacities.com/Resource/PostalCode/11372","longitude":-73.883573184,"latitude":40.751662187},"arcs":[[0,1,2,3,4]]},{"type":"Polygon","properties":{"OBJECTID":2,"postalCode":"11004","PO_NAME":"Glen Oaks","STATE":"NY","borough":"Queens","ST_FIPS":"36","CTY_FIPS":"081","BLDGpostal":0,"@id":"http://nyc.pediacities.com/Resource/PostalCode/11004","longitude":-73.711608312,"latitude":40.745365835},"arcs":[[5,6,7,8]]},{"type":"Polygon","properties":{"OBJECTID":3,"postalCode":"11040","PO_NAME":"New Hyde Park","STATE":"NY","borough":"Queens","ST_FIPS":"36","CTY_FIPS":"081","BLDGpostal":0,"@id":"http://nyc.pediacities.com/Resource/PostalCode/11040","longitude":-73.70344312,"latitude":40.748713868},"arcs":[[-6,9,10,11]]},{"type":"Polygon","properties":{"OBJECTID":4,"postalCode":"11426","PO_NAME":"Bellerose","STATE":"NY","borough":"Queens","ST_FIPS":"36","CTY_FIPS":"081","BLDGpostal":0,"@id":"http://nyc.pediacities.com/Resource/PostalCode/11426","longitude":-73.724003716,"latitude":40.736533753},"arcs":[[-8,12,13,14,15,16,17,18]]},{"type":"Polygon","properties":{"OBJECTID":5,"postalCode":"11365","PO_NAME":"Fresh Meadows","STATE":"NY","borough":"Queens","ST_FIPS":"36","CTY_FIPS":"081","BLDGpostal":0,"@id":"http://nyc.pediacities.com/Resource/PostalCode/11365","longitude":-73.794625509,"latitude":40.739903223},"arcs":[[19,20,21,22,23]]},{"type":"Polygon","properties":{"OBJECTID":6,"postalCode":"11373","PO_NAME":"Elmhurst","STATE":"NY","borough":"Queens","ST_FIPS":"36","CTY_FIPS":"081","BLDGpostal":0,"@id":"http://nyc.pediacities.com/Resource/PostalCode/11373","longitude":-73.878422803,"latitude":40.738851022},"arcs":[[24,25,-1,26,27,28]]},{"type":"Polygon","properties":{"OBJECTID":7,"postalCode":"11001","PO_NAME":"Floral Park","STATE":"NY","borough":"Queens","ST_FIPS":"36","CTY_FIPS":"081","BLDGpostal":0,"@id":"http://nyc.pediacities.com/Resource/PostalCode/11001","longitude":-73.706874596,"latitude":40.73354382},"arcs":[[-12,29,-13,-7]]},{"type":"Polygon","properties":{"OBJECTID":8,"postalCode":"11375","PO_NAME":"Forest Hills","STATE":"NY","borough":"Queens","ST_FIPS":"36","CTY_FIPS":"081","BLDGpostal":0,"@id":"http://nyc.pediacities.com/Resource/PostalCode/11375","longitude":-73.84627849,"latitude":40.720681851},"arcs":[[30,31,32,33,34]]},{"type":"Polygon","properties":{"OBJECTID":9,"postalCode":"11427","PO_NAME":"Queens Village","STATE":"NY","borough":"Queens","ST_FIPS":"36","CTY_FIPS":"081","BLDGpostal":0,"@id":"http://nyc.pediacities.com/Resource/PostalCode/11427","longitude":-73.750637007,"latitude":40.729201241},"arcs":[[-16,35,36,37]]},{"type":"Polygon","properties":{"OBJECTID":10,"postalCode":"11374","PO_NAME":"Rego Park","STATE":"NY","borough":"Queens","ST_FIPS":"36","CTY_FIPS":"081","BLDGpostal":0,"@id":"http://nyc.pediacities.com/Resource/PostalCode/11374","longitude":-73.861449716,"latitude":40.726415604},"arcs":[[38,-35,39,40,-28]]},{"type":"Polygon","properties":{"OBJECTID":11,"postalCode":"11366","PO_NAME":"Fresh Meadows","STATE":"NY","borough":"Queens","ST_FIPS":"36","CTY_FIPS":"081","BLDGpostal":0,"@id":"http://nyc.pediacities.com/Resource/PostalCode/11366","longitude":-73.792378185,"latitude":40.728144003},"arcs":[[41,42,43,-24,44]]},{"type":"Polygon","properties":{"OBJECTID":12,"postalCode":"11423","PO_NAME":"Hollis","STATE":"NY","borough":"Queens","ST_FIPS":"36","CTY_FIPS":"081","BLDGpostal":0,"@id":"http://nyc.pediacities.com/Resource/PostalCode/11423","longitude":-73.768597336,"latitude":40.717150346},"arcs":[[-37,45,46,47,48,49,-42]]},{"type":"Polygon","properties":{"OBJECTID":13,"postalCode":"11428","PO_NAME":"Queens Village","STATE":"NY","borough":"Queens","ST_FIPS":"36","CTY_FIPS":"081","BLDGpostal":0,"@id":"http://nyc.pediacities.com/Resource/PostalCode/11428","longitude":-73.74163981,"latitude":40.721361153},"arcs":[[50,51,-46,-36,-15]]},{"type":"Polygon","properties":{"OBJECTID":14,"postalCode":"11432","PO_NAME":"Jamaica","STATE":"NY","borough":"Queens","ST_FIPS":"36","CTY_FIPS":"081","BLDGpostal":0,"@id":"http://nyc.pediacities.com/Resource/PostalCode/11432","longitude":-73.79305626,"latitude":40.715761395},"arcs":[[-43,-50,52,53,54]]},{"type":"Polygon","properties":{"OBJECTID":15,"postalCode":"11379","PO_NAME":"Middle Village","STATE":"NY","borough":"Queens","ST_FIPS":"36","CTY_FIPS":"081","BLDGpostal":0,"@id":"http://nyc.pediacities.com/Resource/PostalCode/11379","longitude":-73.879391145,"latitude":40.716821259},"arcs":[[55,56,-29,-41]]},{"type":"Polygon","properties":{"OBJECTID":16,"postalCode":"11429","PO_NAME":"Queens Village","STATE":"NY","borough":"Queens","ST_FIPS":"36","CTY_FIPS":"081","BLDGpostal":0,"@id":"http://nyc.pediacities.com/Resource/PostalCode/11429","longitude":-73.7381513,"latitude":40.710037826},"arcs":[[57,58,59,-47,-52]]},{"type":"Polygon","properties":{"OBJECTID":17,"postalCode":"11435","PO_NAME":"Jamaica","STATE":"NY","borough":"Queens","ST_FIPS":"36","CTY_FIPS":"081","BLDGpostal":0,"@id":"http://nyc.pediacities.com/Resource/PostalCode/11435","longitude":-73.809820983,"latitude":40.701255537},"arcs":[[60,-54,61,62,63,64,65,66]]},{"type":"Polygon","properties":{"OBJECTID":18,"postalCode":"11415","PO_NAME":"Kew Gardens","STATE":"NY","borough":"Queens","ST_FIPS":"36","CTY_FIPS":"081","BLDGpostal":0,"@id":"http://nyc.pediacities.com/Resource/PostalCode/11415","longitude":-73.828558147,"latitude":40.708323518},"arcs":[[-67,67,68,-33]]},{"type":"Polygon","properties":{"OBJECTID":19,"postalCode":"11418","PO_NAME":"Richmond Hill","STATE":"NY","borough":"Queens","ST_FIPS":"36","CTY_FIPS":"081","BLDGpostal":0,"@id":"http://nyc.pediacities.com/Resource/PostalCode/11418","longitude":-73.832219881,"latitude":40.69826925},"arcs":[[-68,-66,69,70,71,72]]},{"type":"Polygon","properties":{"OBJECTID":20,"postalCode":"11433","PO_NAME":"Jamaica","STATE":"NY","borough":"Queens","ST_FIPS":"36","CTY_FIPS":"081","BLDGpostal":0,"@id":"http://nyc.pediacities.com/Resource/PostalCode/11433","longitude":-73.787174504,"latitude":40.698289257},"arcs":[[-49,73,74,-62,-53]]},{"type":"Polygon","properties":{"OBJECTID":21,"postalCode":"11451","PO_NAME":"Jamaica","STATE":"NY","borough":"Queens","ST_FIPS":"36","CTY_FIPS":"081","BLDGpostal":0,"@id":"http://nyc.pediacities.com/Resource/PostalCode/11451","longitude":-73.799319805,"latitude":40.700901852},"arcs":[[75]]},{"type":"Polygon","properties":{"OBJECTID":22,"postalCode":"11221","PO_NAME":"Brooklyn","STATE":"NY","borough":"Brooklyn","ST_FIPS":"36","CTY_FIPS":"047","BLDGpostal":0,"@id":"http://nyc.pediacities.com/Resource/PostalCode/11221","longitude":-73.927784902,"latitude":40.691299511},"arcs":[[76,77,78,79,80]]},{"type":"Polygon","properties":{"OBJECTID":23,"postalCode":"11421","PO_NAME":"Woodhaven","STATE":"NY","borough":"Queens","ST_FIPS":"36","CTY_FIPS":"081","BLDGpostal":0,"@id":"http://nyc.pediacities.com/Resource/PostalCode/11421","longitude":-73.857147197,"latitude":40.691521634},"arcs":[[-72,81,82,83]]},{"type":"Polygon","properties":{"OBJECTID":24,"postalCode":"11419","PO_NAME":"South Richmond Hill","STATE":"NY","borough":"Queens","ST_FIPS":"36","CTY_FIPS":"081","BLDGpostal":0,"@id":"http://nyc.pediacities.com/Resource/PostalCode/11419","longitude":-73.822925432,"latitude":40.688652257},"arcs":[[-65,84,85,86,-70]]},{"type":"Polygon","properties":{"OBJECTID":25,"postalCode":"11434","PO_NAME":"Jamaica","STATE":"NY","borough":"Queens","ST_FIPS":"36","CTY_FIPS":"081","BLDGpostal":0,"@id":"http://nyc.pediacities.com/Resource/PostalCode/11434","longitude":-73.775369844,"latitude":40.67694053},"arcs":[[87,88,89,90,91,92,-75]]},{"type":"Polygon","properties":{"OBJECTID":26,"postalCode":"11216","PO_NAME":"Brooklyn","STATE":"NY","borough":"Brooklyn","ST_FIPS":"36","CTY_FIPS":"047","BLDGpostal":0,"@id":"http://nyc.pediacities.com/Resource/PostalCode/11216","longitude":-73.949316422,"latitude":40.680627999},"arcs":[[-77,93,94,95,96,97,98]]},{"type":"Polygon","properties":{"OBJECTID":27,"postalCode":"11416","PO_NAME":"Ozone Park","STATE":"NY","borough":"Queens","ST_FIPS":"36","CTY_FIPS":"081","BLDGpostal":0,"@id":"http://nyc.pediacities.com/Resource/PostalCode/11416","longitude":-73.84952345,"latitude":40.684617301},"arcs":[[-71,-87,99,100,-82]]},{"type":"Polygon","properties":{"OBJECTID":28,"postalCode":"11233","PO_NAME":"Brooklyn","STATE":"NY","borough":"Brooklyn","ST_FIPS":"36","CTY_FIPS":"047","BLDGpostal":0,"@id":"http://nyc.pediacities.com/Resource/PostalCode/11233","longitude":-73.919794736,"latitude":40.67808511},"arcs":[[-81,101,102,103,-94]]},{"type":"Polygon","properties":{"OBJECTID":29,"postalCode":"11436","PO_NAME":"Jamaica","STATE":"NY","borough":"Queens","ST_FIPS":"36","CTY_FIPS":"081","BLDGpostal":0,"@id":"http://nyc.pediacities.com/Resource/PostalCode/11436","longitude":-73.796495754,"latitude":40.675874358},"arcs":[[-63,-93,104,105]]},{"type":"Polygon","properties":{"OBJECTID":30,"postalCode":"11213","PO_NAME":"Brooklyn","STATE":"NY","borough":"Brooklyn","ST_FIPS":"36","CTY_FIPS":"047","BLDGpostal":0,"@id":"http://nyc.pediacities.com/Resource/PostalCode/11213","longitude":-73.936326244,"latitude":40.671159129},"arcs":[[-104,106,107,108,-95]]},{"type":"Polygon","properties":{"OBJECTID":31,"postalCode":"11212","PO_NAME":"Brooklyn","STATE":"NY","borough":"Brooklyn","ST_FIPS":"36","CTY_FIPS":"047","BLDGpostal":0,"@id":"http://nyc.pediacities.com/Resource/PostalCode/11212","longitude":-73.913063383,"latitude":40.662846325},"arcs":[[109,110,-107,-103,111]]},{"type":"Polygon","properties":{"OBJECTID":32,"postalCode":"11225","PO_NAME":"Brooklyn","STATE":"NY","borough":"Brooklyn","ST_FIPS":"36","CTY_FIPS":"047","BLDGpostal":0,"@id":"http://nyc.pediacities.com/Resource/PostalCode/11225","longitude":-73.95397068,"latitude":40.663109691},"arcs":[[-96,-109,112,113,114,115]]},{"type":"Polygon","properties":{"OBJECTID":33,"postalCode":"11218","PO_NAME":"Brooklyn","STATE":"NY","borough":"Brooklyn","ST_FIPS":"36","CTY_FIPS":"047","BLDGpostal":0,"@id":"http://nyc.pediacities.com/Resource/PostalCode/11218","longitude":-73.976446486,"latitude":40.643317772},"arcs":[[116,117,118,119,120,121]]},{"type":"Polygon","properties":{"OBJECTID":34,"postalCode":"11226","PO_NAME":"Brooklyn","STATE":"NY","borough":"Brooklyn","ST_FIPS":"36","CTY_FIPS":"047","BLDGpostal":0,"@id":"http://nyc.pediacities.com/Resource/PostalCode/11226","longitude":-73.957071776,"latitude":40.646471689},"arcs":[[-114,122,123,124,-117,125]]},{"type":"Polygon","properties":{"OBJECTID":35,"postalCode":"11219","PO_NAME":"Brooklyn","STATE":"NY","borough":"Brooklyn","ST_FIPS":"36","CTY_FIPS":"047","BLDGpostal":0,"@id":"http://nyc.pediacities.com/Resource/PostalCode/11219","longitude":-73.996674409,"latitude":40.632774464},"arcs":[[-120,126,127,128,129]]},{"type":"Polygon","properties":{"OBJECTID":36,"postalCode":"11210","PO_NAME":"Brooklyn","STATE":"NY","borough":"Brooklyn","ST_FIPS":"36","CTY_FIPS":"047","BLDGpostal":0,"@id":"http://nyc.pediacities.com/Resource/PostalCode/11210","longitude":-73.946562629,"latitude":40.627536873},"arcs":[[-124,130,131,132,133]]},{"type":"Polygon","properties":{"OBJECTID":37,"postalCode":"11230","PO_NAME":"Brooklyn","STATE":"NY","borough":"Brooklyn","ST_FIPS":"36","CTY_FIPS":"047","BLDGpostal":0,"@id":"http://nyc.pediacities.com/Resource/PostalCode/11230","longitude":-73.965688473,"latitude":40.622069423},"arcs":[[-125,-134,134,135,136,-118]]},{"type":"Polygon","properties":{"OBJECTID":38,"postalCode":"11204","PO_NAME":"Brooklyn","STATE":"NY","borough":"Brooklyn","ST_FIPS":"36","CTY_FIPS":"047","BLDGpostal":0,"@id":"http://nyc.pediacities.com/Resource/PostalCode/11204","longitude":-73.984861945,"latitude":40.61899788},"arcs":[[-127,-119,-137,137,138,139]]},{"type":"Polygon","properties":{"OBJECTID":39,"postalCode":"10471","PO_NAME":"Bronx","STATE":"NY","borough":"Bronx","ST_FIPS":"36","CTY_FIPS":"005","BLDGpostal":0,"@id":"http://nyc.pediacities.com/Resource/PostalCode/10471","longitude":-73.897609266,"latitude":40.898383712},"arcs":[[140,141,142,143]]},{"type":"Polygon","properties":{"OBJECTID":40,"postalCode":"10470","PO_NAME":"Bronx","STATE":"NY","borough":"Bronx","ST_FIPS":"36","CTY_FIPS":"005","BLDGpostal":0,"@id":"http://nyc.pediacities.com/Resource/PostalCode/10470","longitude":-73.864402681,"latitude":40.901099976},"arcs":[[144,145,-141,146]]},{"type":"Polygon","properties":{"OBJECTID":41,"postalCode":"10466","PO_NAME":"Bronx","STATE":"NY","borough":"Bronx","ST_FIPS":"36","CTY_FIPS":"005","BLDGpostal":0,"@id":"http://nyc.pediacities.com/Resource/PostalCode/10466","longitude":-73.846662493,"latitude":40.890946786},"arcs":[[147,148,149,150,-145]]},{"type":"Polygon","properties":{"OBJECTID":42,"postalCode":"10467","PO_NAME":"Bronx","STATE":"NY","borough":"Bronx","ST_FIPS":"36","CTY_FIPS":"005","BLDGpostal":0,"@id":"http://nyc.pediacities.com/Resource/PostalCode/10467","longitude":-73.87049517,"latitude":40.878277084},"arcs":[[-146,-151,151,152,153,154,155,-142]]},{"type":"Polygon","properties":{"OBJECTID":43,"postalCode":"10463","PO_NAME":"Bronx","STATE":"NY","borough":"Bronx","ST_FIPS":"36","CTY_FIPS":"005","BLDGpostal":0,"@id":"http://nyc.pediacities.com/Resource/PostalCode/10463","longitude":-73.907704482,"latitude":40.881845296},"arcs":[[-143,-156,156,157,158]]},{"type":"Polygon","properties":{"OBJECTID":44,"postalCode":"10475","PO_NAME":"Bronx","STATE":"NY","borough":"Bronx","ST_FIPS":"36","CTY_FIPS":"005","BLDGpostal":0,"@id":"http://nyc.pediacities.com/Resource/PostalCode/10475","longitude":-73.826822965,"latitude":40.874731158},"arcs":[[159,160,161,162,163,-149]]},{"type":"Polygon","properties":{"OBJECTID":45,"postalCode":"10464","PO_NAME":"Bronx","STATE":"NY","borough":"Bronx","ST_FIPS":"36","CTY_FIPS":"005","BLDGpostal":0,"@id":"http://nyc.pediacities.com/Resource/PostalCode/10464","longitude":-73.804429852,"latitude":40.872343252},"arcs":[[164,-161]]},{"type":"Polygon","properties":{"OBJECTID":46,"postalCode":"10469","PO_NAME":"Bronx","STATE":"NY","borough":"Bronx","ST_FIPS":"36","CTY_FIPS":"005","BLDGpostal":0,"@id":"http://nyc.pediacities.com/Resource/PostalCode/10469","longitude":-73.846592694,"latitude":40.868241483},"arcs":[[-150,-164,165,-152]]},{"type":"Polygon","properties":{"OBJECTID":47,"postalCode":"10468","PO_NAME":"Bronx","STATE":"NY","borough":"Bronx","ST_FIPS":"36","CTY_FIPS":"005","BLDGpostal":0,"@id":"http://nyc.pediacities.com/Resource/PostalCode/10468","longitude":-73.898905627,"latitude":40.869746954},"arcs":[[-155,166,167,168,169,-157]]},{"type":"Polygon","properties":{"OBJECTID":48,"postalCode":"10463","PO_NAME":"Bronx","STATE":"NY","borough":"Manhattan","ST_FIPS":"36","CTY_FIPS":"061","BLDGpostal":0,"@id":"http://nyc.pediacities.com/Resource/PostalCode/10463","longitude":-73.910551171,"latitude":40.875865228},"arcs":[[-158,-170,170]]},{"type":"Polygon","properties":{"OBJECTID":49,"postalCode":"10458","PO_NAME":"Bronx","STATE":"NY","borough":"Bronx","ST_FIPS":"36","CTY_FIPS":"005","BLDGpostal":0,"@id":"http://nyc.pediacities.com/Resource/PostalCode/10458","longitude":-73.886048938,"latitude":40.862966714},"arcs":[[-154,171,172,173,-167]]},{"type":"Polygon","properties":{"OBJECTID":50,"postalCode":"10034","PO_NAME":"New York","STATE":"NY","borough":"Manhattan","ST_FIPS":"36","CTY_FIPS":"061","BLDGpostal":0,"@id":"http://nyc.pediacities.com/Resource/PostalCode/10034","longitude":-73.921729463,"latitude":40.868892768},"arcs":[[174,175,176]]},{"type":"Polygon","properties":{"OBJECTID":51,"postalCode":"10033","PO_NAME":"New York","STATE":"NY","borough":"Manhattan","ST_FIPS":"36","CTY_FIPS":"061","BLDGpostal":0,"@id":"http://nyc.pediacities.com/Resource/PostalCode/10033","longitude":-73.936275138,"latitude":40.85108904},"arcs":[[-176,177,178,179,180]]},{"type":"Polygon","properties":{"OBJECTID":52,"postalCode":"10462","PO_NAME":"Bronx","STATE":"NY","borough":"Bronx","ST_FIPS":"36","CTY_FIPS":"005","BLDGpostal":0,"@id":"http://nyc.pediacities.com/Resource/PostalCode/10462","longitude":-73.861255093,"latitude":40.844471711},"arcs":[[181,182,183,184,185,-172,-153,186]]},{"type":"Polygon","properties":{"OBJECTID":53,"postalCode":"10040","PO_NAME":"New York","STATE":"NY","borough":"Manhattan","ST_FIPS":"36","CTY_FIPS":"061","BLDGpostal":0,"@id":"http://nyc.pediacities.com/Resource/PostalCode/10040","longitude":-73.929116359,"latitude":40.858116321},"arcs":[[-175,187,-178]]},{"type":"Polygon","properties":{"OBJECTID":54,"postalCode":"10453","PO_NAME":"Bronx","STATE":"NY","borough":"Bronx","ST_FIPS":"36","CTY_FIPS":"005","BLDGpostal":0,"@id":"http://nyc.pediacities.com/Resource/PostalCode/10453","longitude":-73.913451976,"latitude":40.85259015},"arcs":[[188,189,190,-168]]},{"type":"Polygon","properties":{"OBJECTID":55,"postalCode":"10465","PO_NAME":"Bronx","STATE":"NY","borough":"Bronx","ST_FIPS":"36","CTY_FIPS":"005","BLDGpostal":0,"@id":"http://nyc.pediacities.com/Resource/PostalCode/10465","longitude":-73.822533494,"latitude":40.827578063},"arcs":[[191,-163,192,-182]]},{"type":"Polygon","properties":{"OBJECTID":56,"postalCode":"10464","PO_NAME":"Bronx","STATE":"NY","borough":"Bronx","ST_FIPS":"36","CTY_FIPS":"005","BLDGpostal":0,"@id":"http://nyc.pediacities.com/Resource/PostalCode/10464","longitude":-73.769889004,"latitude":40.853736211},"arcs":[[193]]},{"type":"Polygon","properties":{"OBJECTID":57,"postalCode":"10464","PO_NAME":"Bronx","STATE":"NY","borough":"Bronx","ST_FIPS":"36","CTY_FIPS":"005","BLDGpostal":0,"@id":"http://nyc.pediacities.com/Resource/PostalCode/10464","longitude":-73.786644803,"latitude":40.846883117},"arcs":[[194]]},{"type":"Polygon","properties":{"OBJECTID":58,"postalCode":"10461","PO_NAME":"Bronx","STATE":"NY","borough":"Bronx","ST_FIPS":"36","CTY_FIPS":"005","BLDGpostal":0,"@id":"http://nyc.pediacities.com/Resource/PostalCode/10461","longitude":-73.840808994,"latitude":40.847003819},"arcs":[[-187,-166,-192]]},{"type":"Polygon","properties":{"OBJECTID":59,"postalCode":"10457","PO_NAME":"Bronx","STATE":"NY","borough":"Bronx","ST_FIPS":"36","CTY_FIPS":"005","BLDGpostal":0,"@id":"http://nyc.pediacities.com/Resource/PostalCode/10457","longitude":-73.898357345,"latitude":40.845764116},"arcs":[[-174,195,196,197,-189]]},{"type":"Polygon","properties":{"OBJECTID":60,"postalCode":"10460","PO_NAME":"Bronx","STATE":"NY","borough":"Bronx","ST_FIPS":"36","CTY_FIPS":"005","BLDGpostal":0,"@id":"http://nyc.pediacities.com/Resource/PostalCode/10460","longitude":-73.879581061,"latitude":40.841919784},"arcs":[[-186,198,199,200,201,-196,-173]]},{"type":"Polygon","properties":{"OBJECTID":61,"postalCode":"10032","PO_NAME":"New York","STATE":"NY","borough":"Manhattan","ST_FIPS":"36","CTY_FIPS":"061","BLDGpostal":0,"@id":"http://nyc.pediacities.com/Resource/PostalCode/10032","longitude":-73.9417706,"latitude":40.838950562},"arcs":[[-180,202,203,204,205]]},{"type":"Polygon","properties":{"OBJECTID":62,"postalCode":"10452","PO_NAME":"Bronx","STATE":"NY","borough":"Bronx","ST_FIPS":"36","CTY_FIPS":"005","BLDGpostal":0,"@id":"http://nyc.pediacities.com/Resource/PostalCode/10452","longitude":-73.923414489,"latitude":40.837728948},"arcs":[[-190,-198,206,207,208]]},{"type":"Polygon","properties":{"OBJECTID":63,"postalCode":"10456","PO_NAME":"Bronx","STATE":"NY","borough":"Bronx","ST_FIPS":"36","CTY_FIPS":"005","BLDGpostal":0,"@id":"http://nyc.pediacities.com/Resource/PostalCode/10456","longitude":-73.907802849,"latitude":40.830165573},"arcs":[[-197,-202,209,210,211,212,213,-207]]},{"type":"Polygon","properties":{"OBJECTID":64,"postalCode":"10472","PO_NAME":"Bronx","STATE":"NY","borough":"Bronx","ST_FIPS":"36","CTY_FIPS":"005","BLDGpostal":0,"@id":"http://nyc.pediacities.com/Resource/PostalCode/10472","longitude":-73.86997654,"latitude":40.829673494},"arcs":[[-199,-185,214,215]]},{"type":"Polygon","properties":{"OBJECTID":65,"postalCode":"10031","PO_NAME":"New York","STATE":"NY","borough":"Manhattan","ST_FIPS":"36","CTY_FIPS":"061","BLDGpostal":0,"@id":"http://nyc.pediacities.com/Resource/PostalCode/10031","longitude":-73.950042823,"latitude":40.824912945},"arcs":[[216,217,218,219,-205]]},{"type":"Polygon","properties":{"OBJECTID":66,"postalCode":"10039","PO_NAME":"New York","STATE":"NY","borough":"Manhattan","ST_FIPS":"36","CTY_FIPS":"061","BLDGpostal":0,"@id":"http://nyc.pediacities.com/Resource/PostalCode/10039","longitude":-73.937668935,"latitude":40.826695074},"arcs":[[220,221,222,-217,-204]]},{"type":"Polygon","properties":{"OBJECTID":67,"postalCode":"10459","PO_NAME":"Bronx","STATE":"NY","borough":"Bronx","ST_FIPS":"36","CTY_FIPS":"005","BLDGpostal":0,"@id":"http://nyc.pediacities.com/Resource/PostalCode/10459","longitude":-73.893161003,"latitude":40.825667213},"arcs":[[-201,223,224,225,-210]]},{"type":"Polygon","properties":{"OBJECTID":68,"postalCode":"10451","PO_NAME":"Bronx","STATE":"NY","borough":"Bronx","ST_FIPS":"36","CTY_FIPS":"005","BLDGpostal":0,"@id":"http://nyc.pediacities.com/Resource/PostalCode/10451","longitude":-73.923737984,"latitude":40.820779278},"arcs":[[-208,-214,226,-212,227,228,229]]},{"type":"Polygon","properties":{"OBJECTID":69,"postalCode":"10473","PO_NAME":"Bronx","STATE":"NY","borough":"Bronx","ST_FIPS":"36","CTY_FIPS":"005","BLDGpostal":0,"@id":"http://nyc.pediacities.com/Resource/PostalCode/10473","longitude":-73.858538547,"latitude":40.81801061},"arcs":[[-184,230,-215]]},{"type":"Polygon","properties":{"OBJECTID":70,"postalCode":"10030","PO_NAME":"New York","STATE":"NY","borough":"Manhattan","ST_FIPS":"36","CTY_FIPS":"061","BLDGpostal":0,"@id":"http://nyc.pediacities.com/Resource/PostalCode/10030","longitude":-73.94278816,"latitude":40.81839353},"arcs":[[231,232,-218,-223]]},{"type":"Polygon","properties":{"OBJECTID":71,"postalCode":"10027","PO_NAME":"New York","STATE":"NY","borough":"Manhattan","ST_FIPS":"36","CTY_FIPS":"061","BLDGpostal":0,"@id":"http://nyc.pediacities.com/Resource/PostalCode/10027","longitude":-73.952803161,"latitude":40.811546722},"arcs":[[233,234,235,236,-219,-233,237,238,239,240]]},{"type":"Polygon","properties":{"OBJECTID":72,"postalCode":"10474","PO_NAME":"Bronx","STATE":"NY","borough":"Bronx","ST_FIPS":"36","CTY_FIPS":"005","BLDGpostal":0,"@id":"http://nyc.pediacities.com/Resource/PostalCode/10474","longitude":-73.883878883,"latitude":40.810540933},"arcs":[[-225,241,242]]},{"type":"Polygon","properties":{"OBJECTID":73,"postalCode":"10455","PO_NAME":"Bronx","STATE":"NY","borough":"Bronx","ST_FIPS":"36","CTY_FIPS":"005","BLDGpostal":0,"@id":"http://nyc.pediacities.com/Resource/PostalCode/10455","longitude":-73.907510094,"latitude":40.814559251},"arcs":[[-226,-243,243,244,-228,-211]]},{"type":"Polygon","properties":{"OBJECTID":74,"postalCode":"10037","PO_NAME":"New York","STATE":"NY","borough":"Manhattan","ST_FIPS":"36","CTY_FIPS":"061","BLDGpostal":0,"@id":"http://nyc.pediacities.com/Resource/PostalCode/10037","longitude":-73.937174026,"latitude":40.813433592},"arcs":[[245,246,-238,-232,-222]]},{"type":"Polygon","properties":{"OBJECTID":75,"postalCode":"10024","PO_NAME":"New York","STATE":"NY","borough":"Manhattan","ST_FIPS":"36","CTY_FIPS":"061","BLDGpostal":0,"@id":"http://nyc.pediacities.com/Resource/PostalCode/10024","longitude":-73.974453693,"latitude":40.79267611},"arcs":[[247,248,249,250,-236,251,-234]]},{"type":"Polygon","properties":{"OBJECTID":76,"postalCode":"10454","PO_NAME":"Bronx","STATE":"NY","borough":"Bronx","ST_FIPS":"36","CTY_FIPS":"005","BLDGpostal":0,"@id":"http://nyc.pediacities.com/Resource/PostalCode/10454","longitude":-73.91628014,"latitude":40.805839508},"arcs":[[-229,-245,252]]},{"type":"Polygon","properties":{"OBJECTID":77,"postalCode":"10026","PO_NAME":"New York","STATE":"NY","borough":"Manhattan","ST_FIPS":"36","CTY_FIPS":"061","BLDGpostal":0,"@id":"http://nyc.pediacities.com/Resource/PostalCode/10026","longitude":-73.953374506,"latitude":40.803054265},"arcs":[[253,254,255,256,-240]]},{"type":"Polygon","properties":{"OBJECTID":78,"postalCode":"10035","PO_NAME":"New York","STATE":"NY","borough":"Manhattan","ST_FIPS":"36","CTY_FIPS":"061","BLDGpostal":0,"@id":"http://nyc.pediacities.com/Resource/PostalCode/10035","longitude":-73.936325718,"latitude":40.801728276},"arcs":[[257,258,-254,-239,-247]]},{"type":"Polygon","properties":{"OBJECTID":79,"postalCode":"10025","PO_NAME":"New York","STATE":"NY","borough":"Manhattan","ST_FIPS":"36","CTY_FIPS":"061","BLDGpostal":0,"@id":"http://nyc.pediacities.com/Resource/PostalCode/10025","longitude":-73.967199714,"latitude":40.798030802},"arcs":[[-257,259,-248,-241]]},{"type":"Polygon","properties":{"OBJECTID":80,"postalCode":"10035","PO_NAME":"New York","STATE":"NY","borough":"Manhattan","ST_FIPS":"36","CTY_FIPS":"061","BLDGpostal":0,"@id":"http://nyc.pediacities.com/Resource/PostalCode/10035","longitude":-73.924592973,"latitude":40.791001144},"arcs":[[260]]},{"type":"Polygon","properties":{"OBJECTID":81,"postalCode":"11357","PO_NAME":"Whitestone","STATE":"NY","borough":"Queens","ST_FIPS":"36","CTY_FIPS":"081","BLDGpostal":0,"@id":"http://nyc.pediacities.com/Resource/PostalCode/11357","longitude":-73.811227071,"latitude":40.786372345},"arcs":[[261,262,263,264,265,266]]},{"type":"Polygon","properties":{"OBJECTID":82,"postalCode":"10029","PO_NAME":"New York","STATE":"NY","borough":"Manhattan","ST_FIPS":"36","CTY_FIPS":"061","BLDGpostal":0,"@id":"http://nyc.pediacities.com/Resource/PostalCode/10029","longitude":-73.944124647,"latitude":40.791595447},"arcs":[[-259,267,268,269,-255]]},{"type":"Polygon","properties":{"OBJECTID":83,"postalCode":"00083","PO_NAME":"Central Park","STATE":"NY","borough":"Manhattan","ST_FIPS":"36","CTY_FIPS":"061","BLDGpostal":0,"@id":"http://nyc.pediacities.com/Resource/PostalCode/00083","longitude":-73.965573133,"latitude":40.782447428},"arcs":[[-270,270,271,272,273,274,275,276,277,-249,-260,-256]]},{"type":"Polygon","properties":{"OBJECTID":84,"postalCode":"11356","PO_NAME":"College Point","STATE":"NY","borough":"Queens","ST_FIPS":"36","CTY_FIPS":"081","BLDGpostal":0,"@id":"http://nyc.pediacities.com/Resource/PostalCode/11356","longitude":-73.84169695,"latitude":40.784997265},"arcs":[[-266,278,279]]},{"type":"Polygon","properties":{"OBJECTID":85,"postalCode":"11359","PO_NAME":"Bayside","STATE":"NY","borough":"Queens","ST_FIPS":"36","CTY_FIPS":"081","BLDGpostal":0,"@id":"http://nyc.pediacities.com/Resource/PostalCode/11359","longitude":-73.776720125,"latitude":40.791741886},"arcs":[[280,281]]},{"type":"Polygon","properties":{"OBJECTID":86,"postalCode":"11360","PO_NAME":"Bayside","STATE":"NY","borough":"Queens","ST_FIPS":"36","CTY_FIPS":"081","BLDGpostal":0,"@id":"http://nyc.pediacities.com/Resource/PostalCode/11360","longitude":-73.782185775,"latitude":40.780665152},"arcs":[[-281,282,283,284,285,-262,286]]},{"type":"Polygon","properties":{"OBJECTID":87,"postalCode":"11105","PO_NAME":"Astoria","STATE":"NY","borough":"Queens","ST_FIPS":"36","CTY_FIPS":"081","BLDGpostal":0,"@id":"http://nyc.pediacities.com/Resource/PostalCode/11105","longitude":-73.907247361,"latitude":40.779108436},"arcs":[[287,288,289,290,291]]},{"type":"Polygon","properties":{"OBJECTID":88,"postalCode":"10128","PO_NAME":"New York","STATE":"NY","borough":"Manhattan","ST_FIPS":"36","CTY_FIPS":"061","BLDGpostal":0,"@id":"http://nyc.pediacities.com/Resource/PostalCode/10128","longitude":-73.950587826,"latitude":40.781769858},"arcs":[[292,293,-271,-269]]},{"type":"Polygon","properties":{"OBJECTID":89,"postalCode":"11371","PO_NAME":"Flushing","STATE":"NY","borough":"Queens","ST_FIPS":"36","CTY_FIPS":"081","BLDGpostal":0,"@id":"http://nyc.pediacities.com/Resource/PostalCode/11371","longitude":-73.873399228,"latitude":40.774440964},"arcs":[[294,295,296,297]]},{"type":"Polygon","properties":{"OBJECTID":90,"postalCode":"10023","PO_NAME":"New York","STATE":"NY","borough":"Manhattan","ST_FIPS":"36","CTY_FIPS":"061","BLDGpostal":0,"@id":"http://nyc.pediacities.com/Resource/PostalCode/10023","longitude":-73.982975921,"latitude":40.776153157},"arcs":[[298,299,-250,-278,300,301]]},{"type":"Polygon","properties":{"OBJECTID":91,"postalCode":"11363","PO_NAME":"Little Neck","STATE":"NY","borough":"Queens","ST_FIPS":"36","CTY_FIPS":"081","BLDGpostal":0,"@id":"http://nyc.pediacities.com/Resource/PostalCode/11363","longitude":-73.746046862,"latitude":40.772363836},"arcs":[[302,303,304]]},{"type":"Polygon","properties":{"OBJECTID":92,"postalCode":"10028","PO_NAME":"New York","STATE":"NY","borough":"Manhattan","ST_FIPS":"36","CTY_FIPS":"061","BLDGpostal":0,"@id":"http://nyc.pediacities.com/Resource/PostalCode/10028","longitude":-73.952964583,"latitude":40.77654354},"arcs":[[-294,305,306,-272]]},{"type":"Polygon","properties":{"OBJECTID":93,"postalCode":"11354","PO_NAME":"Flushing","STATE":"NY","borough":"Queens","ST_FIPS":"36","CTY_FIPS":"081","BLDGpostal":0,"@id":"http://nyc.pediacities.com/Resource/PostalCode/11354","longitude":-73.827086821,"latitude":40.768620518},"arcs":[[-279,-265,307,308,309,310]]},{"type":"Polygon","properties":{"OBJECTID":94,"postalCode":"11102","PO_NAME":"Astoria","STATE":"NY","borough":"Queens","ST_FIPS":"36","CTY_FIPS":"081","BLDGpostal":0,"@id":"http://nyc.pediacities.com/Resource/PostalCode/11102","longitude":-73.926484446,"latitude":40.771576198},"arcs":[[-291,311,312,313,314]]},{"type":"Polygon","properties":{"OBJECTID":95,"postalCode":"11370","PO_NAME":"East Elmhurst","STATE":"NY","borough":"Queens","ST_FIPS":"36","CTY_FIPS":"081","BLDGpostal":0,"@id":"http://nyc.pediacities.com/Resource/PostalCode/11370","longitude":-73.891066875,"latitude":40.76374933},"arcs":[[-297,315,-3,316,317,-288,318]]},{"type":"Polygon","properties":{"OBJECTID":96,"postalCode":"10021","PO_NAME":"New York","STATE":"NY","borough":"Manhattan","ST_FIPS":"36","CTY_FIPS":"061","BLDGpostal":0,"@id":"http://nyc.pediacities.com/Resource/PostalCode/10021","longitude":-73.958821754,"latitude":40.769870696},"arcs":[[319,320,-274,321]]},{"type":"Polygon","properties":{"OBJECTID":97,"postalCode":"11361","PO_NAME":"Bayside","STATE":"NY","borough":"Queens","ST_FIPS":"36","CTY_FIPS":"081","BLDGpostal":0,"@id":"http://nyc.pediacities.com/Resource/PostalCode/11361","longitude":-73.772288806,"latitude":40.764222657},"arcs":[[322,-304,323,324,325,-284]]},{"type":"Polygon","properties":{"OBJECTID":98,"postalCode":"11358","PO_NAME":"Flushing","STATE":"NY","borough":"Queens","ST_FIPS":"36","CTY_FIPS":"081","BLDGpostal":0,"@id":"http://nyc.pediacities.com/Resource/PostalCode/11358","longitude":-73.796291205,"latitude":40.760415417},"arcs":[[-264,326,-285,-326,-22,327,-308]]},{"type":"Polygon","properties":{"OBJECTID":99,"postalCode":"11362","PO_NAME":"Little Neck","STATE":"NY","borough":"Queens","ST_FIPS":"36","CTY_FIPS":"081","BLDGpostal":0,"@id":"http://nyc.pediacities.com/Resource/PostalCode/11362","longitude":-73.734017292,"latitude":40.759081912},"arcs":[[-303,328,329,-18,330,-324]]},{"type":"Polygon","properties":{"OBJECTID":100,"postalCode":"10044","PO_NAME":"New York","STATE":"NY","borough":"Manhattan","ST_FIPS":"36","CTY_FIPS":"061","BLDGpostal":0,"@id":"http://nyc.pediacities.com/Resource/PostalCode/10044","longitude":-73.94993738,"latitude":40.761925967},"arcs":[[331]]},{"type":"Polygon","properties":{"OBJECTID":101,"postalCode":"11369","PO_NAME":"East Elmhurst","STATE":"NY","borough":"Queens","ST_FIPS":"36","CTY_FIPS":"081","BLDGpostal":0,"@id":"http://nyc.pediacities.com/Resource/PostalCode/11369","longitude":-73.872331494,"latitude":40.763333499},"arcs":[[-296,332,-4,-316]]},{"type":"Polygon","properties":{"OBJECTID":102,"postalCode":"11103","PO_NAME":"Astoria","STATE":"NY","borough":"Queens","ST_FIPS":"36","CTY_FIPS":"081","BLDGpostal":0,"@id":"http://nyc.pediacities.com/Resource/PostalCode/11103","longitude":-73.91327229,"latitude":40.762881121},"arcs":[[333,-289,-318,334,335,336,-313]]},{"type":"Polygon","properties":{"OBJECTID":103,"postalCode":"11106","PO_NAME":"Astoria","STATE":"NY","borough":"Queens","ST_FIPS":"36","CTY_FIPS":"081","BLDGpostal":0,"@id":"http://nyc.pediacities.com/Resource/PostalCode/11106","longitude":-73.931693114,"latitude":40.761709591},"arcs":[[-314,-337,337,338]]},{"type":"Polygon","properties":{"OBJECTID":104,"postalCode":"11368","PO_NAME":"Corona","STATE":"NY","borough":"Queens","ST_FIPS":"36","CTY_FIPS":"081","BLDGpostal":0,"@id":"http://nyc.pediacities.com/Resource/PostalCode/11368","longitude":-73.853122004,"latitude":40.749611718},"arcs":[[-310,339,340,-31,-39,-27,-5,-333,-295,341]]},{"type":"Polygon","properties":{"OBJECTID":105,"postalCode":"11377","PO_NAME":"Woodside","STATE":"NY","borough":"Queens","ST_FIPS":"36","CTY_FIPS":"081","BLDGpostal":0,"@id":"http://nyc.pediacities.com/Resource/PostalCode/11377","longitude":-73.905041598,"latitude":40.744904636},"arcs":[[-317,-2,-26,342,343,344,-335]]},{"type":"Polygon","properties":{"OBJECTID":106,"postalCode":"10036","PO_NAME":"New York","STATE":"NY","borough":"Manhattan","ST_FIPS":"36","CTY_FIPS":"061","BLDGpostal":0,"@id":"http://nyc.pediacities.com/Resource/PostalCode/10036","longitude":-73.989822704,"latitude":40.759354289},"arcs":[[345,346,347,348,349]]},{"type":"Polygon","properties":{"OBJECTID":107,"postalCode":"11355","PO_NAME":"Flushing","STATE":"NY","borough":"Queens","ST_FIPS":"36","CTY_FIPS":"081","BLDGpostal":0,"@id":"http://nyc.pediacities.com/Resource/PostalCode/11355","longitude":-73.821341456,"latitude":40.751237403},"arcs":[[-309,-328,-21,350,-340]]},{"type":"Polygon","properties":{"OBJECTID":108,"postalCode":"11101","PO_NAME":"Long Island City","STATE":"NY","borough":"Queens","ST_FIPS":"36","CTY_FIPS":"081","BLDGpostal":0,"@id":"http://nyc.pediacities.com/Resource/PostalCode/11101","longitude":-73.938481911,"latitude":40.745916899},"arcs":[[-336,-345,351,352,353,354,355,-338]]},{"type":"Polygon","properties":{"OBJECTID":109,"postalCode":"11364","PO_NAME":"Oakland Gardens","STATE":"NY","borough":"Queens","ST_FIPS":"36","CTY_FIPS":"081","BLDGpostal":0,"@id":"http://nyc.pediacities.com/Resource/PostalCode/11364","longitude":-73.757762536,"latitude":40.745885623},"arcs":[[-325,-331,-17,-38,-45,-23]]},{"type":"Polygon","properties":{"OBJECTID":110,"postalCode":"10018","PO_NAME":"New York","STATE":"NY","borough":"Manhattan","ST_FIPS":"36","CTY_FIPS":"061","BLDGpostal":0,"@id":"http://nyc.pediacities.com/Resource/PostalCode/10018","longitude":-73.992836152,"latitude":40.755260294},"arcs":[[-348,356,357,358,359,360,361]]},{"type":"Polygon","properties":{"OBJECTID":111,"postalCode":"10020","PO_NAME":"New York","STATE":"NY","borough":"Manhattan","ST_FIPS":"36","CTY_FIPS":"061","BLDGpostal":0,"@id":"http://nyc.pediacities.com/Resource/PostalCode/10020","longitude":-73.979256087,"latitude":40.758873595},"arcs":[[362,363,-346,364,365]]},{"type":"Polygon","properties":{"OBJECTID":112,"postalCode":"11005","PO_NAME":"Floral Park","STATE":"NY","borough":"Queens","ST_FIPS":"36","CTY_FIPS":"081","BLDGpostal":0,"@id":"http://nyc.pediacities.com/Resource/PostalCode/11005","longitude":-73.712880149,"latitude":40.755497055},"arcs":[[366,-10,-9,-19,-330]]},{"type":"Polygon","properties":{"OBJECTID":113,"postalCode":"10017","PO_NAME":"New York","STATE":"NY","borough":"Manhattan","ST_FIPS":"36","CTY_FIPS":"061","BLDGpostal":0,"@id":"http://nyc.pediacities.com/Resource/PostalCode/10017","longitude":-73.973163555,"latitude":40.752376913},"arcs":[[367,368,369,-357,-347,-364]]},{"type":"Polygon","properties":{"OBJECTID":114,"postalCode":"10001","PO_NAME":"New York","STATE":"NY","borough":"Manhattan","ST_FIPS":"36","CTY_FIPS":"061","BLDGpostal":0,"@id":"http://nyc.pediacities.com/Resource/PostalCode/10001","longitude":-73.99693713,"latitude":40.750214666},"arcs":[[370,-359,371,372,373]]},{"type":"Polygon","properties":{"OBJECTID":115,"postalCode":"10011","PO_NAME":"New York","STATE":"NY","borough":"Manhattan","ST_FIPS":"36","CTY_FIPS":"061","BLDGpostal":0,"@id":"http://nyc.pediacities.com/Resource/PostalCode/10011","longitude":-74.000363665,"latitude":40.741346482},"arcs":[[374,375,376,377,378,-374]]},{"type":"Polygon","properties":{"OBJECTID":116,"postalCode":"10016","PO_NAME":"New York","STATE":"NY","borough":"Manhattan","ST_FIPS":"36","CTY_FIPS":"061","BLDGpostal":0,"@id":"http://nyc.pediacities.com/Resource/PostalCode/10016","longitude":-73.978230289,"latitude":40.744913172},"arcs":[[-370,379,380,-372,-358]]},{"type":"Polygon","properties":{"OBJECTID":117,"postalCode":"11104","PO_NAME":"Sunnyside","STATE":"NY","borough":"Queens","ST_FIPS":"36","CTY_FIPS":"081","BLDGpostal":0,"@id":"http://nyc.pediacities.com/Resource/PostalCode/11104","longitude":-73.920768905,"latitude":40.744596446},"arcs":[[-344,381,-352]]},{"type":"Polygon","properties":{"OBJECTID":118,"postalCode":"11109","PO_NAME":"Long Island City","STATE":"NY","borough":"Queens","ST_FIPS":"36","CTY_FIPS":"081","BLDGpostal":0,"@id":"http://nyc.pediacities.com/Resource/PostalCode/11109","longitude":-73.957627607,"latitude":40.744464436},"arcs":[[-355,382]]},{"type":"Polygon","properties":{"OBJECTID":119,"postalCode":"10010","PO_NAME":"New York","STATE":"NY","borough":"Manhattan","ST_FIPS":"36","CTY_FIPS":"061","BLDGpostal":0,"@id":"http://nyc.pediacities.com/Resource/PostalCode/10010","longitude":-73.982923024,"latitude":40.739096942},"arcs":[[-381,383,384,385,386,-375,-373]]},{"type":"Polygon","properties":{"OBJECTID":120,"postalCode":"11367","PO_NAME":"Flushing","STATE":"NY","borough":"Queens","ST_FIPS":"36","CTY_FIPS":"081","BLDGpostal":0,"@id":"http://nyc.pediacities.com/Resource/PostalCode/11367","longitude":-73.826342068,"latitude":40.730359203},"arcs":[[-351,-20,-44,-55,-61,-32,-341]]},{"type":"Polygon","properties":{"OBJECTID":121,"postalCode":"10014","PO_NAME":"New York","STATE":"NY","borough":"Manhattan","ST_FIPS":"36","CTY_FIPS":"061","BLDGpostal":0,"@id":"http://nyc.pediacities.com/Resource/PostalCode/10014","longitude":-74.006590671,"latitude":40.733847145},"arcs":[[387,388,389,-378]]},{"type":"Polygon","properties":{"OBJECTID":122,"postalCode":"10003","PO_NAME":"New York","STATE":"NY","borough":"Manhattan","ST_FIPS":"36","CTY_FIPS":"061","BLDGpostal":0,"@id":"http://nyc.pediacities.com/Resource/PostalCode/10003","longitude":-73.988840734,"latitude":40.731929262},"arcs":[[390,391,392,-376,-387]]},{"type":"Polygon","properties":{"OBJECTID":123,"postalCode":"11222","PO_NAME":"Brooklyn","STATE":"NY","borough":"Brooklyn","ST_FIPS":"36","CTY_FIPS":"047","BLDGpostal":0,"@id":"http://nyc.pediacities.com/Resource/PostalCode/11222","longitude":-73.94766116,"latitude":40.728345778},"arcs":[[393,394]]},{"type":"Polygon","properties":{"OBJECTID":124,"postalCode":"10002","PO_NAME":"New York","STATE":"NY","borough":"Manhattan","ST_FIPS":"36","CTY_FIPS":"061","BLDGpostal":0,"@id":"http://nyc.pediacities.com/Resource/PostalCode/10002","longitude":-73.985687881,"latitude":40.716161383},"arcs":[[395,396,397,398,-392,399,-385]]},{"type":"Polygon","properties":{"OBJECTID":125,"postalCode":"11378","PO_NAME":"Maspeth","STATE":"NY","borough":"Queens","ST_FIPS":"36","CTY_FIPS":"081","BLDGpostal":0,"@id":"http://nyc.pediacities.com/Resource/PostalCode/11378","longitude":-73.907278017,"latitude":40.723776509},"arcs":[[-343,-25,-57,400,401,402,-353,-382]]},{"type":"Polygon","properties":{"OBJECTID":126,"postalCode":"10009","PO_NAME":"New York","STATE":"NY","borough":"Manhattan","ST_FIPS":"36","CTY_FIPS":"061","BLDGpostal":0,"@id":"http://nyc.pediacities.com/Resource/PostalCode/10009","longitude":-73.979132667,"latitude":40.726538282},"arcs":[[-400,-391,-386]]},{"type":"Polygon","properties":{"OBJECTID":127,"postalCode":"10012","PO_NAME":"New York","STATE":"NY","borough":"Manhattan","ST_FIPS":"36","CTY_FIPS":"061","BLDGpostal":0,"@id":"http://nyc.pediacities.com/Resource/PostalCode/10012","longitude":-73.997934059,"latitude":40.725544802},"arcs":[[-393,-399,403,-388,-377]]},{"type":"Polygon","properties":{"OBJECTID":128,"postalCode":"10013","PO_NAME":"New York","STATE":"NY","borough":"Manhattan","ST_FIPS":"36","CTY_FIPS":"061","BLDGpostal":0,"@id":"http://nyc.pediacities.com/Resource/PostalCode/10013","longitude":-74.004944254,"latitude":40.720238516},"arcs":[[-398,404,405,406,407,-389,-404]]},{"type":"Polygon","properties":{"OBJECTID":129,"postalCode":"11211","PO_NAME":"Brooklyn","STATE":"NY","borough":"Brooklyn","ST_FIPS":"36","CTY_FIPS":"047","BLDGpostal":0,"@id":"http://nyc.pediacities.com/Resource/PostalCode/11211","longitude":-73.95118702,"latitude":40.713723611},"arcs":[[408,-402,409,410,411,412,413,-394]]},{"type":"Polygon","properties":{"OBJECTID":130,"postalCode":"10007","PO_NAME":"New York","STATE":"NY","borough":"Manhattan","ST_FIPS":"36","CTY_FIPS":"061","BLDGpostal":0,"@id":"http://nyc.pediacities.com/Resource/PostalCode/10007","longitude":-74.007552341,"latitude":40.713999948},"arcs":[[414,-406,415,416,417,418]]},{"type":"Polygon","properties":{"OBJECTID":131,"postalCode":"11237","PO_NAME":"Brooklyn","STATE":"NY","borough":"Brooklyn","ST_FIPS":"36","CTY_FIPS":"047","BLDGpostal":0,"@id":"http://nyc.pediacities.com/Resource/PostalCode/11237","longitude":-73.920818599,"latitude":40.703959875},"arcs":[[419,420,-79,421,-410]]},{"type":"Polygon","properties":{"OBJECTID":132,"postalCode":"11385","PO_NAME":"Ridgewood","STATE":"NY","borough":"Queens","ST_FIPS":"36","CTY_FIPS":"081","BLDGpostal":0,"@id":"http://nyc.pediacities.com/Resource/PostalCode/11385","longitude":-73.883184481,"latitude":40.701186928},"arcs":[[-401,-56,-40,-34,-69,-73,-84,422,423,-420]]},{"type":"Polygon","properties":{"OBJECTID":133,"postalCode":"10038","PO_NAME":"New York","STATE":"NY","borough":"Manhattan","ST_FIPS":"36","CTY_FIPS":"061","BLDGpostal":0,"@id":"http://nyc.pediacities.com/Resource/PostalCode/10038","longitude":-74.003008257,"latitude":40.709677151},"arcs":[[424,425,426,-416,-405,-397,427]]},{"type":"Polygon","properties":{"OBJECTID":134,"postalCode":"11206","PO_NAME":"Brooklyn","STATE":"NY","borough":"Brooklyn","ST_FIPS":"36","CTY_FIPS":"047","BLDGpostal":0,"@id":"http://nyc.pediacities.com/Resource/PostalCode/11206","longitude":-73.942414738,"latitude":40.701988639},"arcs":[[-78,-99,428,-411,-422]]},{"type":"Polygon","properties":{"OBJECTID":135,"postalCode":"10006","PO_NAME":"New York","STATE":"NY","borough":"Manhattan","ST_FIPS":"36","CTY_FIPS":"061","BLDGpostal":0,"@id":"http://nyc.pediacities.com/Resource/PostalCode/10006","longitude":-74.013387269,"latitude":40.708215391},"arcs":[[-417,-427,429,430,431,432,433]]},{"type":"Polygon","properties":{"OBJECTID":136,"postalCode":"11412","PO_NAME":"Saint Albans","STATE":"NY","borough":"Queens","ST_FIPS":"36","CTY_FIPS":"081","BLDGpostal":0,"@id":"http://nyc.pediacities.com/Resource/PostalCode/11412","longitude":-73.758720943,"latitude":40.697834411},"arcs":[[-60,434,435,-90,436,-88,-74,-48]]},{"type":"Polygon","properties":{"OBJECTID":137,"postalCode":"10005","PO_NAME":"New York","STATE":"NY","borough":"Manhattan","ST_FIPS":"36","CTY_FIPS":"061","BLDGpostal":0,"@id":"http://nyc.pediacities.com/Resource/PostalCode/10005","longitude":-74.008629643,"latitude":40.706127974},"arcs":[[437,-430,-426]]},{"type":"Polygon","properties":{"OBJECTID":138,"postalCode":"11251","PO_NAME":"Brooklyn","STATE":"NY","borough":"Brooklyn","ST_FIPS":"36","CTY_FIPS":"047","BLDGpostal":0,"@id":"http://nyc.pediacities.com/Resource/PostalCode/11251","longitude":-73.971622699,"latitude":40.701277097},"arcs":[[-413,438,439,440]]},{"type":"Polygon","properties":{"OBJECTID":139,"postalCode":"10004","PO_NAME":"New York","STATE":"NY","borough":"Manhattan","ST_FIPS":"36","CTY_FIPS":"061","BLDGpostal":0,"@id":"http://nyc.pediacities.com/Resource/PostalCode/10004","longitude":-74.012831803,"latitude":40.703473828},"arcs":[[-425,441,442,-431,-438]]},{"type":"Polygon","properties":{"OBJECTID":140,"postalCode":"11411","PO_NAME":"Cambria Heights","STATE":"NY","borough":"Queens","ST_FIPS":"36","CTY_FIPS":"081","BLDGpostal":0,"@id":"http://nyc.pediacities.com/Resource/PostalCode/11411","longitude":-73.734965269,"latitude":40.69450897},"arcs":[[443,444,445,-435,-59]]},{"type":"Polygon","properties":{"OBJECTID":141,"postalCode":"11201","PO_NAME":"Brooklyn","STATE":"NY","borough":"Brooklyn","ST_FIPS":"36","CTY_FIPS":"047","BLDGpostal":0,"@id":"http://nyc.pediacities.com/Resource/PostalCode/11201","longitude":-73.989384247,"latitude":40.694855912},"arcs":[[-440,446,447,448,449]]},{"type":"Polygon","properties":{"OBJECTID":142,"postalCode":"10004","PO_NAME":"New York","STATE":"NY","borough":"Manhattan","ST_FIPS":"36","CTY_FIPS":"061","BLDGpostal":0,"@id":"http://nyc.pediacities.com/Resource/PostalCode/10004","longitude":-74.040784202,"latitude":40.698756823},"arcs":[[450]]},{"type":"Polygon","properties":{"OBJECTID":143,"postalCode":"11205","PO_NAME":"Brooklyn","STATE":"NY","borough":"Brooklyn","ST_FIPS":"36","CTY_FIPS":"047","BLDGpostal":0,"@id":"http://nyc.pediacities.com/Resource/PostalCode/11205","longitude":-73.963943052,"latitude":40.693501747},"arcs":[[-98,451,452,-447,-439,-412,-429]]},{"type":"Polygon","properties":{"OBJECTID":144,"postalCode":"11208","PO_NAME":"Brooklyn","STATE":"NY","borough":"Brooklyn","ST_FIPS":"36","CTY_FIPS":"047","BLDGpostal":0,"@id":"http://nyc.pediacities.com/Resource/PostalCode/11208","longitude":-73.872252211,"latitude":40.673799132},"arcs":[[-101,453,454,455,456,457,-423,-83]]},{"type":"Polygon","properties":{"OBJECTID":145,"postalCode":"11207","PO_NAME":"Brooklyn","STATE":"NY","borough":"Brooklyn","ST_FIPS":"36","CTY_FIPS":"047","BLDGpostal":0,"@id":"http://nyc.pediacities.com/Resource/PostalCode/11207","longitude":-73.894456312,"latitude":40.670879736},"arcs":[[-424,-458,458,459,-112,-102,-80,-421]]},{"type":"Polygon","properties":{"OBJECTID":146,"postalCode":"10004","PO_NAME":"New York","STATE":"NY","borough":"Manhattan","ST_FIPS":"36","CTY_FIPS":"061","BLDGpostal":0,"@id":"http://nyc.pediacities.com/Resource/PostalCode/10004","longitude":-74.019035764,"latitude":40.688818327},"arcs":[[460]]},{"type":"Polygon","properties":{"OBJECTID":147,"postalCode":"10004","PO_NAME":"New York","STATE":"NY","borough":"Manhattan","ST_FIPS":"36","CTY_FIPS":"061","BLDGpostal":0,"@id":"http://nyc.pediacities.com/Resource/PostalCode/10004","longitude":-74.045269166,"latitude":40.689869814},"arcs":[[461]]},{"type":"Polygon","properties":{"OBJECTID":148,"postalCode":"11413","PO_NAME":"Springfield Gardens","STATE":"NY","borough":"Queens","ST_FIPS":"36","CTY_FIPS":"081","BLDGpostal":0,"@id":"http://nyc.pediacities.com/Resource/PostalCode/11413","longitude":-73.75079091,"latitude":40.669484512},"arcs":[[462,463,-91,-436,-446]]},{"type":"Polygon","properties":{"OBJECTID":149,"postalCode":"11217","PO_NAME":"Brooklyn","STATE":"NY","borough":"Brooklyn","ST_FIPS":"36","CTY_FIPS":"047","BLDGpostal":0,"@id":"http://nyc.pediacities.com/Resource/PostalCode/11217","longitude":-73.979559117,"latitude":40.682300891},"arcs":[[-453,464,465,466,-448]]},{"type":"Polygon","properties":{"OBJECTID":150,"postalCode":"11238","PO_NAME":"Brooklyn","STATE":"NY","borough":"Brooklyn","ST_FIPS":"36","CTY_FIPS":"047","BLDGpostal":0,"@id":"http://nyc.pediacities.com/Resource/PostalCode/11238","longitude":-73.963831206,"latitude":40.678862063},"arcs":[[-116,467,-465,-452,-97]]},{"type":"Polygon","properties":{"OBJECTID":151,"postalCode":"11231","PO_NAME":"Brooklyn","STATE":"NY","borough":"Brooklyn","ST_FIPS":"36","CTY_FIPS":"047","BLDGpostal":0,"@id":"http://nyc.pediacities.com/Resource/PostalCode/11231","longitude":-74.004390221,"latitude":40.677866818},"arcs":[[-467,468,469,-449]]},{"type":"Polygon","properties":{"OBJECTID":152,"postalCode":"11422","PO_NAME":"Rosedale","STATE":"NY","borough":"Queens","ST_FIPS":"36","CTY_FIPS":"081","BLDGpostal":0,"@id":"http://nyc.pediacities.com/Resource/PostalCode/11422","longitude":-73.735210655,"latitude":40.662254157},"arcs":[[-463,-445,470]]},{"type":"Polygon","properties":{"OBJECTID":153,"postalCode":"11420","PO_NAME":"South Ozone Park","STATE":"NY","borough":"Queens","ST_FIPS":"36","CTY_FIPS":"081","BLDGpostal":0,"@id":"http://nyc.pediacities.com/Resource/PostalCode/11420","longitude":-73.817199868,"latitude":40.672998701},"arcs":[[-64,-106,471,472,473,-85]]},{"type":"Polygon","properties":{"OBJECTID":154,"postalCode":"11417","PO_NAME":"Ozone Park","STATE":"NY","borough":"Queens","ST_FIPS":"36","CTY_FIPS":"081","BLDGpostal":0,"@id":"http://nyc.pediacities.com/Resource/PostalCode/11417","longitude":-73.844442061,"latitude":40.676364906},"arcs":[[-86,-474,474,-454,-100]]},{"type":"Polygon","properties":{"OBJECTID":155,"postalCode":"11215","PO_NAME":"Brooklyn","STATE":"NY","borough":"Brooklyn","ST_FIPS":"36","CTY_FIPS":"047","BLDGpostal":0,"@id":"http://nyc.pediacities.com/Resource/PostalCode/11215","longitude":-73.979805232,"latitude":40.665595853},"arcs":[[-466,-468,-115,-126,-122,475,476,-469]]},{"type":"Polygon","properties":{"OBJECTID":156,"postalCode":"11414","PO_NAME":"Howard Beach","STATE":"NY","borough":"Queens","ST_FIPS":"36","CTY_FIPS":"081","BLDGpostal":0,"@id":"http://nyc.pediacities.com/Resource/PostalCode/11414","longitude":-73.844983804,"latitude":40.658257315},"arcs":[[-473,477,478,-455,-475]]},{"type":"Polygon","properties":{"OBJECTID":157,"postalCode":"11231","PO_NAME":"Brooklyn","STATE":"NY","borough":"Brooklyn","ST_FIPS":"36","CTY_FIPS":"047","BLDGpostal":0,"@id":"http://nyc.pediacities.com/Resource/PostalCode/11231","longitude":-74.017719447,"latitude":40.668277845},"arcs":[[479]]},{"type":"Polygon","properties":{"OBJECTID":158,"postalCode":"11232","PO_NAME":"Brooklyn","STATE":"NY","borough":"Brooklyn","ST_FIPS":"36","CTY_FIPS":"047","BLDGpostal":0,"@id":"http://nyc.pediacities.com/Resource/PostalCode/11232","longitude":-73.999912578,"latitude":40.654429377},"arcs":[[-476,-121,-130,480,481]]},{"type":"Polygon","properties":{"OBJECTID":159,"postalCode":"11430","PO_NAME":"Jamaica","STATE":"NY","borough":"Queens","ST_FIPS":"36","CTY_FIPS":"081","BLDGpostal":0,"@id":"http://nyc.pediacities.com/Resource/PostalCode/11430","longitude":-73.786193556,"latitude":40.647070342},"arcs":[[-92,-464,482,-478,-472,-105]]},{"type":"Polygon","properties":{"OBJECTID":160,"postalCode":"11203","PO_NAME":"Brooklyn","STATE":"NY","borough":"Brooklyn","ST_FIPS":"36","CTY_FIPS":"047","BLDGpostal":0,"@id":"http://nyc.pediacities.com/Resource/PostalCode/11203","longitude":-73.934275558,"latitude":40.649655658},"arcs":[[-108,-111,483,484,-131,-123,-113]]},{"type":"Polygon","properties":{"OBJECTID":161,"postalCode":"11239","PO_NAME":"Brooklyn","STATE":"NY","borough":"Brooklyn","ST_FIPS":"36","CTY_FIPS":"047","BLDGpostal":0,"@id":"http://nyc.pediacities.com/Resource/PostalCode/11239","longitude":-73.872210658,"latitude":40.648111934},"arcs":[[485,486,-459,-457]]},{"type":"Polygon","properties":{"OBJECTID":162,"postalCode":"11236","PO_NAME":"Brooklyn","STATE":"NY","borough":"Brooklyn","ST_FIPS":"36","CTY_FIPS":"047","BLDGpostal":0,"@id":"http://nyc.pediacities.com/Resource/PostalCode/11236","longitude":-73.90132598,"latitude":40.640006123},"arcs":[[-487,487,488,-484,-110,-460]]},{"type":"Polygon","properties":{"OBJECTID":163,"postalCode":"11220","PO_NAME":"Brooklyn","STATE":"NY","borough":"Brooklyn","ST_FIPS":"36","CTY_FIPS":"047","BLDGpostal":0,"@id":"http://nyc.pediacities.com/Resource/PostalCode/11220","longitude":-74.016733282,"latitude":40.641180501},"arcs":[[-481,-129,489,490,491]]},{"type":"Polygon","properties":{"OBJECTID":164,"postalCode":"10301","PO_NAME":"Staten Island","STATE":"NY","borough":"Staten Island","ST_FIPS":"36","CTY_FIPS":"085","BLDGpostal":0,"@id":"http://nyc.pediacities.com/Resource/PostalCode/10301","longitude":-74.096063528,"latitude":40.62609199},"arcs":[[492,493,494,495]]},{"type":"Polygon","properties":{"OBJECTID":165,"postalCode":"10310","PO_NAME":"Staten Island","STATE":"NY","borough":"Staten Island","ST_FIPS":"36","CTY_FIPS":"085","BLDGpostal":0,"@id":"http://nyc.pediacities.com/Resource/PostalCode/10310","longitude":-74.115659381,"latitude":40.633364427},"arcs":[[-496,496,497,498,499]]},{"type":"Polygon","properties":{"OBJECTID":166,"postalCode":"10303","PO_NAME":"Staten Island","STATE":"NY","borough":"Staten Island","ST_FIPS":"36","CTY_FIPS":"085","BLDGpostal":0,"@id":"http://nyc.pediacities.com/Resource/PostalCode/10303","longitude":-74.168011103,"latitude":40.632559413},"arcs":[[500,501,502]]},{"type":"Polygon","properties":{"OBJECTID":167,"postalCode":"11234","PO_NAME":"Brooklyn","STATE":"NY","borough":"Brooklyn","ST_FIPS":"36","CTY_FIPS":"047","BLDGpostal":0,"@id":"http://nyc.pediacities.com/Resource/PostalCode/11234","longitude":-73.910756586,"latitude":40.606826925},"arcs":[[-485,-489,503,504,505,-132]]},{"type":"Polygon","properties":{"OBJECTID":168,"postalCode":"10302","PO_NAME":"Staten Island","STATE":"NY","borough":"Staten Island","ST_FIPS":"36","CTY_FIPS":"085","BLDGpostal":0,"@id":"http://nyc.pediacities.com/Resource/PostalCode/10302","longitude":-74.138048825,"latitude":40.63079613},"arcs":[[506,-499,507,508,-501]]},{"type":"Polygon","properties":{"OBJECTID":169,"postalCode":"11693","PO_NAME":"Far Rockaway","STATE":"NY","borough":"Queens","ST_FIPS":"36","CTY_FIPS":"081","BLDGpostal":0,"@id":"http://nyc.pediacities.com/Resource/PostalCode/11693","longitude":-73.824969592,"latitude":40.617908659},"arcs":[[509]]},{"type":"Polygon","properties":{"OBJECTID":170,"postalCode":"11209","PO_NAME":"Brooklyn","STATE":"NY","borough":"Brooklyn","ST_FIPS":"36","CTY_FIPS":"047","BLDGpostal":0,"@id":"http://nyc.pediacities.com/Resource/PostalCode/11209","longitude":-74.03046197,"latitude":40.622486134},"arcs":[[-491,510,511,512]]},{"type":"Polygon","properties":{"OBJECTID":171,"postalCode":"10304","PO_NAME":"Staten Island","STATE":"NY","borough":"Staten Island","ST_FIPS":"36","CTY_FIPS":"085","BLDGpostal":0,"@id":"http://nyc.pediacities.com/Resource/PostalCode/10304","longitude":-74.094081791,"latitude":40.605353715},"arcs":[[513,514,515,516,517,-494]]},{"type":"Polygon","properties":{"OBJECTID":172,"postalCode":"10314","PO_NAME":"Staten Island","STATE":"NY","borough":"Staten Island","ST_FIPS":"36","CTY_FIPS":"085","BLDGpostal":0,"@id":"http://nyc.pediacities.com/Resource/PostalCode/10314","longitude":-74.164442509,"latitude":40.596044342},"arcs":[[-518,518,519,520,521,522,523,-502,-509,524,-497,-495]]},{"type":"Polygon","properties":{"OBJECTID":173,"postalCode":"11693","PO_NAME":"Far Rockaway","STATE":"NY","borough":"Brooklyn","ST_FIPS":"36","CTY_FIPS":"047","BLDGpostal":0,"@id":"http://nyc.pediacities.com/Resource/PostalCode/11693","longitude":-73.840038796,"latitude":40.630062184},"arcs":[[525]]},{"type":"Polygon","properties":{"OBJECTID":174,"postalCode":"11228","PO_NAME":"Brooklyn","STATE":"NY","borough":"Brooklyn","ST_FIPS":"36","CTY_FIPS":"047","BLDGpostal":0,"@id":"http://nyc.pediacities.com/Resource/PostalCode/11228","longitude":-74.01342841,"latitude":40.616367883},"arcs":[[-490,-128,-140,526,-511]]},{"type":"Polygon","properties":{"OBJECTID":175,"postalCode":"11096","PO_NAME":"Inwood","STATE":"NY","borough":"Queens","ST_FIPS":"36","CTY_FIPS":"081","BLDGpostal":0,"@id":"http://nyc.pediacities.com/Resource/PostalCode/11096","longitude":-73.768204645,"latitude":40.617515185},"arcs":[[527]]},{"type":"Polygon","properties":{"OBJECTID":176,"postalCode":"10305","PO_NAME":"Staten Island","STATE":"NY","borough":"Staten Island","ST_FIPS":"36","CTY_FIPS":"085","BLDGpostal":0,"@id":"http://nyc.pediacities.com/Resource/PostalCode/10305","longitude":-74.07544589,"latitude":40.59508032},"arcs":[[528,529,-515]]},{"type":"Polygon","properties":{"OBJECTID":177,"postalCode":"11229","PO_NAME":"Brooklyn","STATE":"NY","borough":"Brooklyn","ST_FIPS":"36","CTY_FIPS":"047","BLDGpostal":0,"@id":"http://nyc.pediacities.com/Resource/PostalCode/11229","longitude":-73.944305716,"latitude":40.601122633},"arcs":[[-506,530,531,-135,-133]]},{"type":"Polygon","properties":{"OBJECTID":178,"postalCode":"11214","PO_NAME":"Brooklyn","STATE":"NY","borough":"Brooklyn","ST_FIPS":"36","CTY_FIPS":"047","BLDGpostal":0,"@id":"http://nyc.pediacities.com/Resource/PostalCode/11214","longitude":-73.996256067,"latitude":40.598730177},"arcs":[[532,533,534,-512,-527,-139]]},{"type":"Polygon","properties":{"OBJECTID":179,"postalCode":"11691","PO_NAME":"Far Rockaway","STATE":"NY","borough":"Queens","ST_FIPS":"36","CTY_FIPS":"081","BLDGpostal":0,"@id":"http://nyc.pediacities.com/Resource/PostalCode/11691","longitude":-73.761922768,"latitude":40.600740186},"arcs":[[535,536,537,538]]},{"type":"Polygon","properties":{"OBJECTID":180,"postalCode":"11096","PO_NAME":"Inwood","STATE":"NY","borough":"Queens","ST_FIPS":"36","CTY_FIPS":"081","BLDGpostal":0,"@id":"http://nyc.pediacities.com/Resource/PostalCode/11096","longitude":-73.748007055,"latitude":40.611677184},"arcs":[[539,-539]]},{"type":"Polygon","properties":{"OBJECTID":181,"postalCode":"11223","PO_NAME":"Brooklyn","STATE":"NY","borough":"Brooklyn","ST_FIPS":"36","CTY_FIPS":"047","BLDGpostal":0,"@id":"http://nyc.pediacities.com/Resource/PostalCode/11223","longitude":-73.973334679,"latitude":40.596996266},"arcs":[[-136,-532,540,541,-533,-138]]},{"type":"Polygon","properties":{"OBJECTID":182,"postalCode":"11693","PO_NAME":"Far Rockaway","STATE":"NY","borough":"Queens","ST_FIPS":"36","CTY_FIPS":"081","BLDGpostal":0,"@id":"http://nyc.pediacities.com/Resource/PostalCode/11693","longitude":-73.832602669,"latitude":40.607086046},"arcs":[[542]]},{"type":"Polygon","properties":{"OBJECTID":183,"postalCode":"11692","PO_NAME":"Arverne","STATE":"NY","borough":"Queens","ST_FIPS":"36","CTY_FIPS":"081","BLDGpostal":0,"@id":"http://nyc.pediacities.com/Resource/PostalCode/11692","longitude":-73.795582664,"latitude":40.593239499},"arcs":[[-537,543,544,545]]},{"type":"Polygon","properties":{"OBJECTID":184,"postalCode":"11235","PO_NAME":"Brooklyn","STATE":"NY","borough":"Brooklyn","ST_FIPS":"36","CTY_FIPS":"047","BLDGpostal":0,"@id":"http://nyc.pediacities.com/Resource/PostalCode/11235","longitude":-73.945880923,"latitude":40.584101301},"arcs":[[-531,-505,546,547,-541]]},{"type":"Polygon","properties":{"OBJECTID":185,"postalCode":"11693","PO_NAME":"Far Rockaway","STATE":"NY","borough":"Queens","ST_FIPS":"36","CTY_FIPS":"081","BLDGpostal":0,"@id":"http://nyc.pediacities.com/Resource/PostalCode/11693","longitude":-73.811560384,"latitude":40.587224789},"arcs":[[-545,548,549,550]]},{"type":"Polygon","properties":{"OBJECTID":186,"postalCode":"10306","PO_NAME":"Staten Island","STATE":"NY","borough":"Staten Island","ST_FIPS":"36","CTY_FIPS":"085","BLDGpostal":0,"@id":"http://nyc.pediacities.com/Resource/PostalCode/10306","longitude":-74.119980239,"latitude":40.565053657},"arcs":[[-530,551,552,-520,553,-516]]},{"type":"Polygon","properties":{"OBJECTID":187,"postalCode":"11694","PO_NAME":"Rockaway Park","STATE":"NY","borough":"Queens","ST_FIPS":"36","CTY_FIPS":"081","BLDGpostal":0,"@id":"http://nyc.pediacities.com/Resource/PostalCode/11694","longitude":-73.851775891,"latitude":40.575177437},"arcs":[[-550,554,555,556]]},{"type":"Polygon","properties":{"OBJECTID":188,"postalCode":"11224","PO_NAME":"Brooklyn","STATE":"NY","borough":"Brooklyn","ST_FIPS":"36","CTY_FIPS":"047","BLDGpostal":0,"@id":"http://nyc.pediacities.com/Resource/PostalCode/11224","longitude":-73.987976265,"latitude":40.576583724},"arcs":[[-548,557,-534,-542]]},{"type":"Polygon","properties":{"OBJECTID":189,"postalCode":"10308","PO_NAME":"Staten Island","STATE":"NY","borough":"Staten Island","ST_FIPS":"36","CTY_FIPS":"085","BLDGpostal":0,"@id":"http://nyc.pediacities.com/Resource/PostalCode/10308","longitude":-74.151255163,"latitude":40.553004391},"arcs":[[-521,-553,558,559]]},{"type":"Polygon","properties":{"OBJECTID":190,"postalCode":"11697","PO_NAME":"Breezy Point","STATE":"NY","borough":"Queens","ST_FIPS":"36","CTY_FIPS":"081","BLDGpostal":0,"@id":"http://nyc.pediacities.com/Resource/PostalCode/11697","longitude":-73.91365641,"latitude":40.557434913},"arcs":[[-556,560]]},{"type":"Polygon","properties":{"OBJECTID":191,"postalCode":"10312","PO_NAME":"Staten Island","STATE":"NY","borough":"Staten Island","ST_FIPS":"36","CTY_FIPS":"085","BLDGpostal":0,"@id":"http://nyc.pediacities.com/Resource/PostalCode/10312","longitude":-74.178935941,"latitude":40.542516424},"arcs":[[-522,-560,561,562]]},{"type":"Polygon","properties":{"OBJECTID":192,"postalCode":"10309","PO_NAME":"Staten Island","STATE":"NY","borough":"Staten Island","ST_FIPS":"36","CTY_FIPS":"085","BLDGpostal":0,"@id":"http://nyc.pediacities.com/Resource/PostalCode/10309","longitude":-74.218247018,"latitude":40.53139244},"arcs":[[-523,-563,563,564,565]]},{"type":"Polygon","properties":{"OBJECTID":193,"postalCode":"10307","PO_NAME":"Staten Island","STATE":"NY","borough":"Staten Island","ST_FIPS":"36","CTY_FIPS":"085","BLDGpostal":0,"@id":"http://nyc.pediacities.com/Resource/PostalCode/10307","longitude":-74.242235061,"latitude":40.507964095},"arcs":[[-565,566]]},{"type":"Polygon","properties":{"OBJECTID":194,"postalCode":"10280","PO_NAME":"New York","STATE":"NY","borough":"Manhattan","ST_FIPS":"36","CTY_FIPS":"061","BLDGpostal":0,"@id":"http://nyc.pediacities.com/Resource/PostalCode/10280","longitude":-74.017183896,"latitude":40.708146664},"arcs":[[567,-432,-443,568]]},{"type":"Polygon","properties":{"OBJECTID":195,"postalCode":"10048","PO_NAME":"New York","STATE":"NY","borough":"Manhattan","ST_FIPS":"36","CTY_FIPS":"061","BLDGpostal":0,"@id":"http://nyc.pediacities.com/Resource/PostalCode/10048","longitude":-74.012465414,"latitude":40.711661471},"arcs":[[569,-418,-434]]},{"type":"Polygon","properties":{"OBJECTID":196,"postalCode":"10279","PO_NAME":"New York","STATE":"NY","borough":"Manhattan","ST_FIPS":"36","CTY_FIPS":"061","BLDGpostal":1,"@id":"http://nyc.pediacities.com/Resource/PostalCode/10279","longitude":-74.008351855,"latitude":40.712467206},"arcs":[[570]]},{"type":"Polygon","properties":{"OBJECTID":197,"postalCode":"10165","PO_NAME":"New York","STATE":"NY","borough":"Manhattan","ST_FIPS":"36","CTY_FIPS":"061","BLDGpostal":1,"@id":"http://nyc.pediacities.com/Resource/PostalCode/10165","longitude":-73.978827617,"latitude":40.752138307},"arcs":[[571]]},{"type":"Polygon","properties":{"OBJECTID":198,"postalCode":"10168","PO_NAME":"New York","STATE":"NY","borough":"Manhattan","ST_FIPS":"36","CTY_FIPS":"061","BLDGpostal":1,"@id":"http://nyc.pediacities.com/Resource/PostalCode/10168","longitude":-73.97667485,"latitude":40.751212899},"arcs":[[572]]},{"type":"Polygon","properties":{"OBJECTID":199,"postalCode":"10055","PO_NAME":"New York","STATE":"NY","borough":"Manhattan","ST_FIPS":"36","CTY_FIPS":"061","BLDGpostal":1,"@id":"http://nyc.pediacities.com/Resource/PostalCode/10055","longitude":-73.973665181,"latitude":40.759121949},"arcs":[[573]]},{"type":"Polygon","properties":{"OBJECTID":200,"postalCode":"10105","PO_NAME":"New York","STATE":"NY","borough":"Manhattan","ST_FIPS":"36","CTY_FIPS":"061","BLDGpostal":1,"@id":"http://nyc.pediacities.com/Resource/PostalCode/10105","longitude":-73.979053255,"latitude":40.763000566},"arcs":[[574]]},{"type":"Polygon","properties":{"OBJECTID":201,"postalCode":"10118","PO_NAME":"New York","STATE":"NY","borough":"Manhattan","ST_FIPS":"36","CTY_FIPS":"061","BLDGpostal":1,"@id":"http://nyc.pediacities.com/Resource/PostalCode/10118","longitude":-73.985724081,"latitude":40.748453807},"arcs":[[575]]},{"type":"Polygon","properties":{"OBJECTID":202,"postalCode":"10176","PO_NAME":"New York","STATE":"NY","borough":"Manhattan","ST_FIPS":"36","CTY_FIPS":"061","BLDGpostal":1,"@id":"http://nyc.pediacities.com/Resource/PostalCode/10176","longitude":-73.978864584,"latitude":40.755406096},"arcs":[[576]]},{"type":"Polygon","properties":{"OBJECTID":203,"postalCode":"10162","PO_NAME":"New York","STATE":"NY","borough":"Manhattan","ST_FIPS":"36","CTY_FIPS":"061","BLDGpostal":1,"@id":"http://nyc.pediacities.com/Resource/PostalCode/10162","longitude":-73.951314855,"latitude":40.769628871},"arcs":[[577]]},{"type":"Polygon","properties":{"OBJECTID":204,"postalCode":"10019","PO_NAME":"New York","STATE":"NY","borough":"Manhattan","ST_FIPS":"36","CTY_FIPS":"061","BLDGpostal":0,"@id":"http://nyc.pediacities.com/Resource/PostalCode/10019","longitude":-73.986474685,"latitude":40.765399682},"arcs":[[-301,-277,578,579,-365,-350,580,-361,581]]},{"type":"Polygon","properties":{"OBJECTID":205,"postalCode":"10111","PO_NAME":"New York","STATE":"NY","borough":"Manhattan","ST_FIPS":"36","CTY_FIPS":"061","BLDGpostal":0,"@id":"http://nyc.pediacities.com/Resource/PostalCode/10111","longitude":-73.977596002,"latitude":40.759114107},"arcs":[[-580,582,-366]]},{"type":"Polygon","properties":{"OBJECTID":206,"postalCode":"10170","PO_NAME":"New York","STATE":"NY","borough":"Manhattan","ST_FIPS":"36","CTY_FIPS":"061","BLDGpostal":1,"@id":"http://nyc.pediacities.com/Resource/PostalCode/10170","longitude":-73.975876766,"latitude":40.752671396},"arcs":[[583]]},{"type":"Polygon","properties":{"OBJECTID":207,"postalCode":"10112","PO_NAME":"New York","STATE":"NY","borough":"Manhattan","ST_FIPS":"36","CTY_FIPS":"061","BLDGpostal":1,"@id":"http://nyc.pediacities.com/Resource/PostalCode/10112","longitude":-73.972419619,"latitude":40.757071163},"arcs":[[584]]},{"type":"Polygon","properties":{"OBJECTID":208,"postalCode":"10122","PO_NAME":"New York","STATE":"NY","borough":"Manhattan","ST_FIPS":"36","CTY_FIPS":"061","BLDGpostal":1,"@id":"http://nyc.pediacities.com/Resource/PostalCode/10122","longitude":-73.99170336,"latitude":40.751871197},"arcs":[[585]]},{"type":"Polygon","properties":{"OBJECTID":209,"postalCode":"10107","PO_NAME":"New York","STATE":"NY","borough":"Manhattan","ST_FIPS":"36","CTY_FIPS":"061","BLDGpostal":1,"@id":"http://nyc.pediacities.com/Resource/PostalCode/10107","longitude":-73.982531295,"latitude":40.766276719},"arcs":[[586]]},{"type":"Polygon","properties":{"OBJECTID":210,"postalCode":"10103","PO_NAME":"New York","STATE":"NY","borough":"Manhattan","ST_FIPS":"36","CTY_FIPS":"061","BLDGpostal":1,"@id":"http://nyc.pediacities.com/Resource/PostalCode/10103","longitude":-73.976710619,"latitude":40.760372994},"arcs":[[587]]},{"type":"Polygon","properties":{"OBJECTID":211,"postalCode":"10153","PO_NAME":"New York","STATE":"NY","borough":"Manhattan","ST_FIPS":"36","CTY_FIPS":"061","BLDGpostal":1,"@id":"http://nyc.pediacities.com/Resource/PostalCode/10153","longitude":-73.972441468,"latitude":40.763625412},"arcs":[[588]]},{"type":"Polygon","properties":{"OBJECTID":212,"postalCode":"10174","PO_NAME":"New York","STATE":"NY","borough":"Manhattan","ST_FIPS":"36","CTY_FIPS":"061","BLDGpostal":1,"@id":"http://nyc.pediacities.com/Resource/PostalCode/10174","longitude":-73.975322607,"latitude":40.751605734},"arcs":[[589]]},{"type":"Polygon","properties":{"OBJECTID":213,"postalCode":"10166","PO_NAME":"New York","STATE":"NY","borough":"Manhattan","ST_FIPS":"36","CTY_FIPS":"061","BLDGpostal":1,"@id":"http://nyc.pediacities.com/Resource/PostalCode/10166","longitude":-73.976653685,"latitude":40.753519531},"arcs":[[590]]},{"type":"Polygon","properties":{"OBJECTID":214,"postalCode":"10169","PO_NAME":"New York","STATE":"NY","borough":"Manhattan","ST_FIPS":"36","CTY_FIPS":"061","BLDGpostal":1,"@id":"http://nyc.pediacities.com/Resource/PostalCode/10169","longitude":-73.976105451,"latitude":40.754392422},"arcs":[[591]]},{"type":"Polygon","properties":{"OBJECTID":215,"postalCode":"10167","PO_NAME":"New York","STATE":"NY","borough":"Manhattan","ST_FIPS":"36","CTY_FIPS":"061","BLDGpostal":1,"@id":"http://nyc.pediacities.com/Resource/PostalCode/10167","longitude":-73.97471773,"latitude":40.75462589},"arcs":[[592]]},{"type":"Polygon","properties":{"OBJECTID":216,"postalCode":"10177","PO_NAME":"New York","STATE":"NY","borough":"Manhattan","ST_FIPS":"36","CTY_FIPS":"061","BLDGpostal":1,"@id":"http://nyc.pediacities.com/Resource/PostalCode/10177","longitude":-73.97597769,"latitude":40.755156424},"arcs":[[593]]},{"type":"Polygon","properties":{"OBJECTID":217,"postalCode":"10172","PO_NAME":"New York","STATE":"NY","borough":"Manhattan","ST_FIPS":"36","CTY_FIPS":"061","BLDGpostal":1,"@id":"http://nyc.pediacities.com/Resource/PostalCode/10172","longitude":-73.974280658,"latitude":40.755232827},"arcs":[[594]]},{"type":"Polygon","properties":{"OBJECTID":218,"postalCode":"10171","PO_NAME":"New York","STATE":"NY","borough":"Manhattan","ST_FIPS":"36","CTY_FIPS":"061","BLDGpostal":1,"@id":"http://nyc.pediacities.com/Resource/PostalCode/10171","longitude":-73.974178701,"latitude":40.756033206},"arcs":[[595]]},{"type":"Polygon","properties":{"OBJECTID":219,"postalCode":"10154","PO_NAME":"New York","STATE":"NY","borough":"Manhattan","ST_FIPS":"36","CTY_FIPS":"061","BLDGpostal":1,"@id":"http://nyc.pediacities.com/Resource/PostalCode/10154","longitude":-73.972431161,"latitude":40.757766481},"arcs":[[596]]},{"type":"Polygon","properties":{"OBJECTID":220,"postalCode":"10152","PO_NAME":"New York","STATE":"NY","borough":"Manhattan","ST_FIPS":"36","CTY_FIPS":"061","BLDGpostal":1,"@id":"http://nyc.pediacities.com/Resource/PostalCode/10152","longitude":-73.97212977,"latitude":40.758451076},"arcs":[[597]]},{"type":"Polygon","properties":{"OBJECTID":221,"postalCode":"10270","PO_NAME":"New York","STATE":"NY","borough":"Manhattan","ST_FIPS":"36","CTY_FIPS":"061","BLDGpostal":1,"@id":"http://nyc.pediacities.com/Resource/PostalCode/10270","longitude":-74.007725934,"latitude":40.706470778},"arcs":[[598]]},{"type":"Polygon","properties":{"OBJECTID":222,"postalCode":"10104","PO_NAME":"New York","STATE":"NY","borough":"Manhattan","ST_FIPS":"36","CTY_FIPS":"061","BLDGpostal":1,"@id":"http://nyc.pediacities.com/Resource/PostalCode/10104","longitude":-73.978877572,"latitude":40.76047041},"arcs":[[599]]},{"type":"Polygon","properties":{"OBJECTID":223,"postalCode":"10271","PO_NAME":"New York","STATE":"NY","borough":"Manhattan","ST_FIPS":"36","CTY_FIPS":"061","BLDGpostal":1,"@id":"http://nyc.pediacities.com/Resource/PostalCode/10271","longitude":-74.010534275,"latitude":40.708232442},"arcs":[[600]]},{"type":"Polygon","properties":{"OBJECTID":224,"postalCode":"10110","PO_NAME":"New York","STATE":"NY","borough":"Manhattan","ST_FIPS":"36","CTY_FIPS":"061","BLDGpostal":1,"@id":"http://nyc.pediacities.com/Resource/PostalCode/10110","longitude":-73.98119869,"latitude":40.753927396},"arcs":[[601]]},{"type":"Polygon","properties":{"OBJECTID":225,"postalCode":"10175","PO_NAME":"New York","STATE":"NY","borough":"Manhattan","ST_FIPS":"36","CTY_FIPS":"061","BLDGpostal":1,"@id":"http://nyc.pediacities.com/Resource/PostalCode/10175","longitude":-73.979809638,"latitude":40.754163533},"arcs":[[602]]},{"type":"Polygon","properties":{"OBJECTID":226,"postalCode":"10151","PO_NAME":"New York","STATE":"NY","borough":"Manhattan","ST_FIPS":"36","CTY_FIPS":"061","BLDGpostal":1,"@id":"http://nyc.pediacities.com/Resource/PostalCode/10151","longitude":-73.973172867,"latitude":40.763239196},"arcs":[[603]]},{"type":"Polygon","properties":{"OBJECTID":227,"postalCode":"10173","PO_NAME":"New York","STATE":"NY","borough":"Manhattan","ST_FIPS":"36","CTY_FIPS":"061","BLDGpostal":1,"@id":"http://nyc.pediacities.com/Resource/PostalCode/10173","longitude":-73.978949008,"latitude":40.753955291},"arcs":[[604]]},{"type":"Polygon","properties":{"OBJECTID":228,"postalCode":"10178","PO_NAME":"New York","STATE":"NY","borough":"Manhattan","ST_FIPS":"36","CTY_FIPS":"061","BLDGpostal":1,"@id":"http://nyc.pediacities.com/Resource/PostalCode/10178","longitude":-73.977741131,"latitude":40.750882076},"arcs":[[605]]},{"type":"Polygon","properties":{"OBJECTID":229,"postalCode":"10119","PO_NAME":"New York","STATE":"NY","borough":"Manhattan","ST_FIPS":"36","CTY_FIPS":"061","BLDGpostal":1,"@id":"http://nyc.pediacities.com/Resource/PostalCode/10119","longitude":-73.992349518,"latitude":40.751268949},"arcs":[[606]]},{"type":"Polygon","properties":{"OBJECTID":230,"postalCode":"10121","PO_NAME":"New York","STATE":"NY","borough":"Manhattan","ST_FIPS":"36","CTY_FIPS":"061","BLDGpostal":1,"@id":"http://nyc.pediacities.com/Resource/PostalCode/10121","longitude":-73.992124314,"latitude":40.749955286},"arcs":[[607]]},{"type":"Polygon","properties":{"OBJECTID":231,"postalCode":"10115","PO_NAME":"New York","STATE":"NY","borough":"Manhattan","ST_FIPS":"36","CTY_FIPS":"061","BLDGpostal":0,"@id":"http://nyc.pediacities.com/Resource/PostalCode/10115","longitude":-73.963743846,"latitude":40.81085198},"arcs":[[-252,-235]]},{"type":"Polygon","properties":{"OBJECTID":232,"postalCode":"10123","PO_NAME":"New York","STATE":"NY","borough":"Manhattan","ST_FIPS":"36","CTY_FIPS":"061","BLDGpostal":1,"@id":"http://nyc.pediacities.com/Resource/PostalCode/10123","longitude":-73.990752464,"latitude":40.751466605},"arcs":[[608]]},{"type":"Polygon","properties":{"OBJECTID":233,"postalCode":"10106","PO_NAME":"New York","STATE":"NY","borough":"Manhattan","ST_FIPS":"36","CTY_FIPS":"061","BLDGpostal":1,"@id":"http://nyc.pediacities.com/Resource/PostalCode/10106","longitude":-73.980872987,"latitude":40.76537756},"arcs":[[609]]},{"type":"Polygon","properties":{"OBJECTID":234,"postalCode":"10158","PO_NAME":"New York","STATE":"NY","borough":"Manhattan","ST_FIPS":"36","CTY_FIPS":"061","BLDGpostal":1,"@id":"http://nyc.pediacities.com/Resource/PostalCode/10158","longitude":-73.975077797,"latitude":40.748951527},"arcs":[[610]]},{"type":"Polygon","properties":{"OBJECTID":235,"postalCode":"10041","PO_NAME":"New York","STATE":"NY","borough":"Manhattan","ST_FIPS":"36","CTY_FIPS":"061","BLDGpostal":1,"@id":"http://nyc.pediacities.com/Resource/PostalCode/10041","longitude":-74.009181969,"latitude":40.703189625},"arcs":[[611]]},{"type":"Polygon","properties":{"OBJECTID":236,"postalCode":"10120","PO_NAME":"New York","STATE":"NY","borough":"Manhattan","ST_FIPS":"36","CTY_FIPS":"061","BLDGpostal":1,"@id":"http://nyc.pediacities.com/Resource/PostalCode/10120","longitude":-73.988998493,"latitude":40.749805423},"arcs":[[612]]},{"type":"Polygon","properties":{"OBJECTID":237,"postalCode":"10278","PO_NAME":"New York","STATE":"NY","borough":"Manhattan","ST_FIPS":"36","CTY_FIPS":"061","BLDGpostal":1,"@id":"http://nyc.pediacities.com/Resource/PostalCode/10278","longitude":-74.004158242,"latitude":40.715367268},"arcs":[[613]]},{"type":"Polygon","properties":{"OBJECTID":238,"postalCode":"10155","PO_NAME":"New York","STATE":"NY","borough":"Manhattan","ST_FIPS":"36","CTY_FIPS":"061","BLDGpostal":1,"@id":"http://nyc.pediacities.com/Resource/PostalCode/10155","longitude":-73.967925557,"latitude":40.761002133},"arcs":[[614]]},{"type":"Polygon","properties":{"OBJECTID":239,"postalCode":"10022","PO_NAME":"New York","STATE":"NY","borough":"Manhattan","ST_FIPS":"36","CTY_FIPS":"061","BLDGpostal":0,"@id":"http://nyc.pediacities.com/Resource/PostalCode/10022","longitude":-73.968165199,"latitude":40.758526445},"arcs":[[615,616,-368,-363,-583,-579,-276]]},{"type":"Polygon","properties":{"OBJECTID":240,"postalCode":"10043","PO_NAME":"New York","STATE":"NY","borough":"Manhattan","ST_FIPS":"36","CTY_FIPS":"061","BLDGpostal":1,"@id":"http://nyc.pediacities.com/Resource/PostalCode/10043","longitude":-74.006994399,"latitude":40.704249734},"arcs":[[617]]},{"type":"Polygon","properties":{"OBJECTID":241,"postalCode":"10081","PO_NAME":"New York","STATE":"NY","borough":"Manhattan","ST_FIPS":"36","CTY_FIPS":"061","BLDGpostal":1,"@id":"http://nyc.pediacities.com/Resource/PostalCode/10081","longitude":-74.008976848,"latitude":40.707852887},"arcs":[[618]]},{"type":"Polygon","properties":{"OBJECTID":242,"postalCode":"10096","PO_NAME":"New York","STATE":"NY","borough":"Manhattan","ST_FIPS":"36","CTY_FIPS":"061","BLDGpostal":1,"@id":"http://nyc.pediacities.com/Resource/PostalCode/10096","longitude":-73.982679153,"latitude":40.754705943},"arcs":[[619]]},{"type":"Polygon","properties":{"OBJECTID":243,"postalCode":"10097","PO_NAME":"New York","STATE":"NY","borough":"Manhattan","ST_FIPS":"36","CTY_FIPS":"061","BLDGpostal":1,"@id":"http://nyc.pediacities.com/Resource/PostalCode/10097","longitude":-73.984853689,"latitude":40.762175226},"arcs":[[620]]},{"type":"Polygon","properties":{"OBJECTID":244,"postalCode":"10196","PO_NAME":"New York","STATE":"NY","borough":"Manhattan","ST_FIPS":"36","CTY_FIPS":"061","BLDGpostal":1,"@id":"http://nyc.pediacities.com/Resource/PostalCode/10196","longitude":-73.981996054,"latitude":40.756882233},"arcs":[[621]]},{"type":"Polygon","properties":{"OBJECTID":245,"postalCode":"10196","PO_NAME":"New York","STATE":"NY","borough":"Manhattan","ST_FIPS":"36","CTY_FIPS":"061","BLDGpostal":1,"@id":"http://nyc.pediacities.com/Resource/PostalCode/10196","longitude":-73.981297622,"latitude":40.756747051},"arcs":[[622]]},{"type":"Polygon","properties":{"OBJECTID":246,"postalCode":"10275","PO_NAME":"New York","STATE":"NY","borough":"Manhattan","ST_FIPS":"36","CTY_FIPS":"061","BLDGpostal":1,"@id":"http://nyc.pediacities.com/Resource/PostalCode/10275","longitude":-74.014005535,"latitude":40.70576367},"arcs":[[623]]},{"type":"Polygon","properties":{"OBJECTID":247,"postalCode":"10265","PO_NAME":"New York","STATE":"NY","borough":"Manhattan","ST_FIPS":"36","CTY_FIPS":"061","BLDGpostal":1,"@id":"http://nyc.pediacities.com/Resource/PostalCode/10265","longitude":-74.007972162,"latitude":40.70514196},"arcs":[[624]]},{"type":"Polygon","properties":{"OBJECTID":248,"postalCode":"10045","PO_NAME":"New York","STATE":"NY","borough":"Manhattan","ST_FIPS":"36","CTY_FIPS":"061","BLDGpostal":1,"@id":"http://nyc.pediacities.com/Resource/PostalCode/10045","longitude":-74.008682653,"latitude":40.708387093},"arcs":[[625]]},{"type":"Polygon","properties":{"OBJECTID":249,"postalCode":"10047","PO_NAME":"New York","STATE":"NY","borough":"Manhattan","ST_FIPS":"36","CTY_FIPS":"061","BLDGpostal":1,"@id":"http://nyc.pediacities.com/Resource/PostalCode/10047","longitude":-73.986318302,"latitude":40.739502983},"arcs":[[626]]},{"type":"Polygon","properties":{"OBJECTID":250,"postalCode":"10047","PO_NAME":"New York","STATE":"NY","borough":"Manhattan","ST_FIPS":"36","CTY_FIPS":"061","BLDGpostal":1,"@id":"http://nyc.pediacities.com/Resource/PostalCode/10047","longitude":-73.986318302,"latitude":40.739502983},"arcs":[[626]]},{"type":"Polygon","properties":{"OBJECTID":251,"postalCode":"10080","PO_NAME":"New York","STATE":"NY","borough":"Manhattan","ST_FIPS":"36","CTY_FIPS":"061","BLDGpostal":1,"@id":"http://nyc.pediacities.com/Resource/PostalCode/10080","longitude":-74.012107245,"latitude":40.71064549},"arcs":[[627]]},{"type":"Polygon","properties":{"OBJECTID":252,"postalCode":"10203","PO_NAME":"New York","STATE":"NY","borough":"Manhattan","ST_FIPS":"36","CTY_FIPS":"061","BLDGpostal":1,"@id":"http://nyc.pediacities.com/Resource/PostalCode/10203","longitude":-74.011798592,"latitude":40.707123309},"arcs":[[628]]},{"type":"Polygon","properties":{"OBJECTID":253,"postalCode":"10259","PO_NAME":"New York","STATE":"NY","borough":"Manhattan","ST_FIPS":"36","CTY_FIPS":"061","BLDGpostal":1,"@id":"http://nyc.pediacities.com/Resource/PostalCode/10259","longitude":-74.010018078,"latitude":40.708618214},"arcs":[[629]]},{"type":"Polygon","properties":{"OBJECTID":254,"postalCode":"10260","PO_NAME":"New York","STATE":"NY","borough":"Manhattan","ST_FIPS":"36","CTY_FIPS":"061","BLDGpostal":1,"@id":"http://nyc.pediacities.com/Resource/PostalCode/10260","longitude":-74.008496671,"latitude":40.706238558},"arcs":[[630,631]]},{"type":"Polygon","properties":{"OBJECTID":255,"postalCode":"10285","PO_NAME":"New York","STATE":"NY","borough":"Manhattan","ST_FIPS":"36","CTY_FIPS":"061","BLDGpostal":1,"@id":"http://nyc.pediacities.com/Resource/PostalCode/10285","longitude":-74.014854901,"latitude":40.713564478},"arcs":[[632]]},{"type":"Polygon","properties":{"OBJECTID":256,"postalCode":"10286","PO_NAME":"New York","STATE":"NY","borough":"Manhattan","ST_FIPS":"36","CTY_FIPS":"061","BLDGpostal":1,"@id":"http://nyc.pediacities.com/Resource/PostalCode/10286","longitude":-74.009100429,"latitude":40.706474304},"arcs":[[-631,633]]},{"type":"Polygon","properties":{"OBJECTID":257,"postalCode":"11370","PO_NAME":"Bronx","STATE":"NY","borough":"Bronx","ST_FIPS":"36","CTY_FIPS":"005","BLDGpostal":0,"@id":"http://nyc.pediacities.com/Resource/PostalCode/11370","longitude":-73.882647969,"latitude":40.791120161},"arcs":[[634]]},{"type":"Polygon","properties":{"OBJECTID":258,"postalCode":"10065","PO_NAME":"New York","STATE":"NY","borough":"Manhattan","ST_FIPS":"36","CTY_FIPS":"061","BLDGpostal":0,"@id":"http://nyc.pediacities.com/Resource/PostalCode/10065","longitude":-73.962753305,"latitude":40.764538662},"arcs":[[635,-616,-275,-321]]},{"type":"Polygon","properties":{"OBJECTID":259,"postalCode":"10075","PO_NAME":"New York","STATE":"NY","borough":"Manhattan","ST_FIPS":"36","CTY_FIPS":"061","BLDGpostal":0,"@id":"http://nyc.pediacities.com/Resource/PostalCode/10075","longitude":-73.95532943,"latitude":40.773149267},"arcs":[[-322,-273,-307,636]]},{"type":"Polygon","properties":{"OBJECTID":260,"postalCode":"10069","PO_NAME":"New York","STATE":"NY","borough":"Manhattan","ST_FIPS":"36","CTY_FIPS":"061","BLDGpostal":0,"@id":"http://nyc.pediacities.com/Resource/PostalCode/10069","longitude":-73.989544273,"latitude":40.776592818},"arcs":[[-299,637]]},{"type":"Polygon","properties":{"OBJECTID":261,"postalCode":"10281","PO_NAME":"New York","STATE":"NY","borough":"Manhattan","ST_FIPS":"36","CTY_FIPS":"061","BLDGpostal":0,"@id":"http://nyc.pediacities.com/Resource/PostalCode/10281","longitude":-74.015293244,"latitude":40.712376802},"arcs":[[-568,638,639,-419,-570,-433]]},{"type":"Polygon","properties":{"OBJECTID":262,"postalCode":"10282","PO_NAME":"New York","STATE":"NY","borough":"Manhattan","ST_FIPS":"36","CTY_FIPS":"061","BLDGpostal":0,"@id":"http://nyc.pediacities.com/Resource/PostalCode/10282","longitude":-74.015450156,"latitude":40.716314633},"arcs":[[-407,-415,-640,640]]}]}},"arcs":[[[6946,6040],[-396,-55]],[[6550,5985],[-65,-9],[-20,49],[6,1],[10,-6],[-23,53],[14,2],[-13,90]],[[6459,6165],[267,37]],[[6726,6202],[170,24]],[[6896,6226],[9,-70],[-7,-3],[48,-113]],[[9800,6061],[36,-30],[28,20],[52,14],[37,-130],[-17,-4],[38,-135]],[[9974,5796],[-229,-65]],[[9745,5731],[-18,39],[-17,43],[-54,160],[-18,62],[-21,54],[-6,27],[-24,25],[-3,9]],[[9584,6150],[15,27],[14,33],[60,-22],[8,15],[35,-11],[-3,-11],[2,-1],[5,-76],[68,-56],[12,13]],[[9800,6061],[57,64],[49,61]],[[9906,6186],[69,-58],[21,-249],[3,-45],[0,-22]],[[9999,5812],[-13,-11],[-12,-5]],[[9745,5731],[41,-88],[13,-45],[4,-77],[26,-17]],[[9829,5504],[-119,-20],[-29,-9],[-160,-56],[-12,-14],[-14,-6]],[[9495,5399],[-6,21],[-3,-1],[-4,12],[-28,-8],[-30,104],[0,8],[6,24]],[[9430,5559],[9,31],[-36,2],[-3,14],[18,0],[14,42],[-77,18],[11,41],[5,6],[14,83],[-35,-19],[-108,-31]],[[9242,5746],[46,71],[22,20],[61,42]],[[9371,5879],[28,25],[31,34],[32,52],[16,46],[13,39],[23,32],[38,29],[26,27]],[[9578,6163],[6,-13]],[[7998,5516],[-5,23],[5,55],[9,188],[-82,6],[-2,16]],[[7923,5804],[34,-6],[51,-3],[4,82],[-75,16],[7,29],[4,33],[-9,13],[120,96]],[[8059,6064],[83,-9],[1,-16],[87,-9],[0,6],[28,21],[29,-29],[0,-5],[45,-2],[0,3],[225,82]],[[8557,6106],[76,-208],[49,-165]],[[8682,5733],[-120,-47],[-158,-71],[-217,-70],[-189,-29]],[[6626,5525],[0,29],[-6,34],[-9,-2],[-9,106]],[[6602,5692],[-14,30],[-37,5],[48,13],[-26,63],[8,-2],[1,11],[-2,7],[-5,9],[-3,4],[-1,8],[-2,0],[-9,56],[3,1],[-13,88]],[[6946,6040],[16,-35],[19,-106],[-2,-54],[20,-66],[17,6],[11,-37],[-16,-6],[23,-61]],[[7034,5681],[-67,-29],[7,-4],[-6,-3],[-9,-9],[-21,-43],[-24,-18],[-6,-2],[2,-9],[-3,-2]],[[6907,5562],[-47,23],[3,7],[-9,6],[-89,-43],[-103,-17],[-36,-13]],[[9999,5812],[-5,-29],[-17,-59],[-103,-201],[-45,-19]],[[7183,5744],[75,23],[4,-10],[32,13],[81,49]],[[7375,5819],[10,-98],[10,-36],[13,-29],[19,-33],[39,-48],[24,-38],[42,-106],[44,-77],[52,-68],[26,-17],[54,-20],[17,-14]],[[7725,5235],[-85,-28],[-5,4],[-9,-4],[-81,-57],[4,-4],[-17,-21],[-13,-1],[-47,-24],[-26,-18]],[[7446,5082],[-24,-14],[-34,-7],[-75,-5],[-22,-8],[-15,-13],[-32,9],[-60,-25],[-9,27],[-11,96]],[[7164,5142],[-18,194],[29,6],[-10,38],[59,126],[8,10],[31,13],[2,16],[-42,102],[-6,7],[-6,-3],[-32,82],[4,11]],[[9430,5559],[-33,9],[-10,-34],[-86,26],[-3,-9],[-158,-130],[-23,-14],[-58,-51],[-97,-55]],[[8962,5301],[-58,98],[-20,19],[-48,31],[-19,19],[-86,158]],[[8731,5626],[403,90],[108,30]],[[7034,5681],[104,41],[-1,4],[46,18]],[[7164,5142],[-86,17]],[[7078,5159],[43,29],[0,17],[-6,19],[-75,95],[-92,132],[-31,84],[-14,-28],[-26,27],[30,28]],[[8731,5626],[-89,-22],[-109,-39]],[[8533,5565],[-211,-90],[-291,-132]],[[8031,5343],[-27,104],[-2,58],[-4,11]],[[8682,5733],[19,-49],[30,-58]],[[8962,5301],[58,-102]],[[9020,5199],[29,-85]],[[9049,5114],[-218,-69],[-50,-18],[2,-8],[-119,-26],[-6,-3],[-16,3]],[[8642,4993],[-13,3],[-18,57],[-23,-8],[-5,15],[-18,-5],[-6,18]],[[8559,5073],[-37,109],[147,47],[-58,160],[-16,21],[-29,64],[-33,91]],[[9495,5399],[-14,-3],[-1,-33]],[[9480,5363],[-66,-17],[-2,8],[-19,-21],[-56,-34],[-232,-70],[-85,-30]],[[8559,5073],[-58,-15],[-63,-1],[-44,-12],[-69,-27],[-138,-72],[-73,-27]],[[8114,4919],[-57,157],[-23,45],[-3,14],[-20,57],[-1,51],[-4,16],[-9,8],[4,4],[-19,16],[-5,36]],[[7977,5323],[54,20]],[[7078,5159],[-50,-33],[-85,-32],[-53,-30],[-42,-29],[-24,-3],[-6,13],[-16,-5],[-6,-8],[-148,-14],[-257,153],[-6,0]],[[6385,5171],[-10,46],[279,176],[-26,44],[-2,88]],[[9480,5363],[10,-37],[38,-212],[20,-46],[1,-19],[0,-42]],[[9549,5007],[-59,0],[4,-101],[-240,10],[-2,-5],[-41,17],[-8,7],[-86,-29]],[[9117,4906],[-68,208]],[[7725,5235],[54,18],[35,6],[33,18],[130,46]],[[8114,4919],[10,-29],[20,-43],[9,-34],[18,-50],[8,-36],[20,-17],[23,-29],[23,-42],[22,-30],[37,-67]],[[8304,4542],[-215,-81]],[[8089,4461],[-38,99]],[[8051,4560],[-104,241]],[[7947,4801],[-62,163],[-7,0],[-5,17],[-11,22]],[[7862,5003],[-17,35],[-33,75],[7,-5],[-47,55],[-47,72]],[[7862,5003],[-29,-15],[-10,20],[-25,-15],[21,-23],[20,-10],[-53,-5],[-159,-54],[-13,-12],[-49,149],[10,16],[9,5],[-7,23],[-9,16],[-31,-23],[-11,-17]],[[7526,5058],[-23,12],[-57,12]],[[7947,4801],[-128,-44],[-4,12],[-73,-28],[-54,-15],[-169,-64]],[[7519,4662],[-122,-45]],[[7397,4617],[-55,151],[-33,59]],[[7309,4827],[76,26],[42,32],[20,9],[45,46],[37,29],[-20,45],[2,14],[15,30]],[[8642,4993],[73,-161],[31,-44],[-11,-8]],[[8735,4780],[-133,-97],[0,-3],[-40,-13],[-128,-68],[-67,-23],[-63,-34]],[[8166,4897],[48,22],[24,-46],[-21,-12],[-51,36]],[[5709,4484],[-102,-15],[-31,209]],[[5576,4678],[206,32],[-11,80],[-8,6],[53,8],[-18,13],[45,25],[4,-3],[53,71]],[[5900,4910],[81,-61],[26,35],[14,-10],[-26,-35],[81,-61],[26,35],[135,-102]],[[6237,4711],[-129,-175]],[[6108,4536],[-36,27],[3,-23],[-366,-56]],[[7397,4617],[-395,-150]],[[7002,4467],[-5,50],[-16,76],[-20,129],[-10,15]],[[6951,4737],[210,58],[84,15],[1,15],[-6,18],[-27,39],[6,4],[34,-7],[19,4],[32,-58],[5,2]],[[8051,4560],[-45,-21],[-60,-37],[-323,-122]],[[7623,4380],[-36,99],[4,3],[-13,36]],[[7578,4518],[-18,48],[-5,-2],[-36,98]],[[8735,4780],[69,-99],[-4,1],[28,-70],[7,6]],[[8835,4618],[4,-10],[16,-43]],[[8855,4565],[5,-30],[41,-81]],[[8901,4454],[48,-81],[30,-58],[-111,-62],[-21,13],[-7,-45],[33,-22],[-13,-3],[6,-26],[-18,-85],[-56,7],[-7,-18],[65,-10],[-48,-148],[-6,2],[-8,-40],[15,2],[5,-54],[-27,-3]],[[8781,3823],[-124,89],[-100,55],[-102,41],[-35,27],[-16,5],[-33,-2],[6,5],[4,8],[3,27]],[[8384,4078],[25,152],[-25,32],[-22,50],[-22,73],[-14,66],[2,36],[-4,17],[-20,38]],[[5709,4484],[15,-99]],[[5724,4385],[-69,5],[-7,-103],[-100,8],[-10,-151]],[[5538,4144],[-132,11],[-52,14]],[[5354,4169],[50,188],[-35,236]],[[5369,4593],[104,16],[-7,53]],[[5466,4662],[110,16]],[[7578,4518],[-225,-83],[-128,-51],[-152,-13]],[[7073,4371],[-17,1],[-14,76],[-35,-11],[-5,30]],[[6108,4536],[226,-171],[3,-24],[-3,-45],[19,-3],[-19,-9]],[[6334,4284],[-17,-8],[-382,-223]],[[5935,4053],[-3,15],[15,198],[-50,3],[1,19],[-49,4],[4,53],[21,29],[-150,11]],[[8384,4078],[-65,5],[-78,-3],[-30,-10],[-47,6]],[[8164,4076],[5,29],[2,28],[1,25],[-1,50],[-3,28],[-7,25],[-72,200]],[[5935,4053],[-90,-52]],[[5845,4001],[-119,-10],[2,13],[-100,7]],[[5628,4011],[4,43],[-100,7],[6,83]],[[6399,3850],[-11,-1],[-15,-19],[-34,-28],[-139,-27],[-188,7],[-7,-2]],[[6005,3780],[-176,212],[12,6],[4,3]],[[6334,4284],[4,-50],[-7,-1],[25,-120],[6,1],[21,-109],[-3,-2],[26,-120],[-7,-33]],[[5628,4011],[-2,-29],[4,-53],[-91,-7],[7,-92]],[[5546,3830],[-226,-20],[-5,27],[-20,-4],[-5,-37],[-7,-4]],[[5283,3792],[-21,174],[4,12],[9,10],[-2,2]],[[5273,3990],[27,3],[-30,199],[84,-23]],[[5100,3690],[12,-56],[63,32],[38,-266],[16,10],[7,-51]],[[5236,3359],[-245,-153]],[[4991,3206],[-13,97],[-35,28]],[[4943,3331],[-200,159],[52,46]],[[4795,3536],[14,11],[116,61],[28,4],[-27,189]],[[4926,3801],[41,53],[39,-31],[39,61],[11,-8],[6,-11],[34,-155],[-6,-4],[-1,-8],[4,-6],[7,-2]],[[5546,3830],[34,-421]],[[5580,3409],[-106,-9],[-42,0],[-2,3],[-84,-53]],[[5346,3350],[-84,-54],[-5,35],[-15,-10],[-6,38]],[[5100,3690],[5,2],[3,4],[0,6],[175,90]],[[4943,3331],[-296,-377]],[[4647,2954],[-277,222]],[[4370,3176],[75,95],[-40,32],[11,13],[39,-31],[179,228]],[[4634,3513],[73,93],[88,-70]],[[5580,3409],[120,9],[4,-55],[52,4],[4,-54],[18,1]],[[5778,3314],[17,-217],[-36,-42],[-11,-29],[-13,-10],[-50,-22],[-14,-11],[-9,-13],[-14,-5],[-2,-4],[2,-13],[-42,-63],[-16,-19]],[[5590,2866],[-48,-45],[-50,-5],[9,-61],[-17,-3],[1,0],[-34,-6],[0,3],[-11,-3],[-8,-1]],[[5432,2745],[-86,605]],[[5432,2745],[-157,-23]],[[5275,2722],[-191,-28]],[[5084,2694],[-9,61],[-19,-3],[-6,46],[-11,75],[19,2],[-17,116],[-8,55],[-18,-2],[-5,35],[15,22],[-6,40],[-3,-1],[-56,46],[31,20]],[[5084,2694],[-257,-38]],[[4827,2656],[-21,-3],[20,26],[-227,181]],[[4599,2860],[-16,13],[64,81]],[[6793,9770],[-18,-145],[-14,-60],[-7,-42]],[[6754,9523],[-6,-49],[4,-24],[19,-46],[19,-56],[1,-19],[-58,-104],[-25,16],[-29,-4],[-47,28],[-3,0]],[[6629,9265],[-11,-3],[-122,33],[-5,-4],[-7,4],[-85,21],[36,95],[-11,0],[-40,-36],[-8,-2],[-12,5],[-17,0],[-3,4],[0,18],[9,17],[1,7],[-9,1],[-9,-3],[-20,-19],[2,-10],[-18,-57],[-37,11],[-12,28],[-17,12],[-113,10],[-9,-61],[-19,6],[2,-13],[3,-4],[47,-13],[-34,-36],[-52,17],[2,12],[0,55],[12,47],[18,39],[9,28],[-31,-9],[-39,-134],[-5,2]],[[6025,9333],[50,168],[-2,11],[6,7],[16,58],[26,90],[1,8],[-4,5],[7,27],[8,28],[10,8],[20,70],[-3,11],[9,11],[19,96],[-2,27],[21,41],[250,-88],[86,-32],[127,-61],[13,4],[23,-10],[15,-16],[72,-26]],[[7392,9751],[-18,0],[3,-12],[-11,-3],[1,-23],[-10,0],[-4,-39],[-3,0],[-8,12],[-39,24],[-48,-81],[-14,8],[-23,-37],[-87,45],[-43,-76],[1,-10],[-10,-22],[-3,-21]],[[7076,9516],[-49,20],[-100,21],[-74,-21],[-99,-13]],[[6793,9770],[1,8],[89,-34],[91,-35],[41,-21],[31,-17],[20,2],[21,-10],[17,7],[19,-12],[2,14],[7,2],[-5,9],[9,10],[7,-4],[21,17],[2,24],[8,16],[8,28],[3,7],[10,8],[6,-2],[5,7],[11,28],[-8,5],[7,16],[20,27],[4,-1],[31,10],[-3,-14],[-5,-8],[-23,-20],[-11,-25],[20,-11],[20,-3],[5,-9],[13,26],[33,-14],[26,-19],[42,-19],[4,-12]],[[7392,9751],[3,-13],[20,-6],[17,6],[18,0],[6,-24],[4,-37],[27,-48],[2,-7],[1,-6],[-1,-9],[-9,-25],[24,-86],[37,-13],[20,-5],[28,-17],[18,0],[14,-12],[16,-7],[16,-1],[32,-17],[20,-3]],[[7705,9421],[-4,-19],[-13,-37],[11,-7],[47,-10],[8,-12],[-109,-59],[-50,-14],[-29,-20],[-32,-33],[-37,-19]],[[7497,9191],[-45,-23],[-35,-29],[-124,70],[-104,44]],[[7189,9253],[-170,72],[67,160],[5,25],[-15,6]],[[7189,9253],[-93,-224],[-3,0],[-10,-408]],[[7083,8621],[-105,-3],[1,14],[-14,0],[-9,-14],[-25,-7],[-13,2],[-12,11],[-9,14],[-4,16],[10,68],[2,30],[0,16],[-9,36],[-8,17],[-7,11],[-11,12],[-14,5]],[[6856,8849],[-10,4],[-16,29],[-11,12],[-10,4],[-13,0],[-11,-6],[-21,-24],[-21,52],[-4,14],[0,28],[-30,110],[-11,5],[-18,53],[-10,-8],[-1,2]],[[6669,9124],[-9,17],[-6,-7],[-5,37],[-19,48]],[[6630,9219],[-1,46]],[[6630,9219],[-14,0],[-12,-7],[-25,-1],[-49,-9],[0,-2],[-2,-1],[-1,3],[-35,-7],[-14,25],[-12,-9],[-7,-13],[-4,-35],[-4,-10],[-9,-17],[-14,-16],[-17,-32],[-27,-31],[-10,-15],[-16,-60],[-6,-36],[-6,-14],[-17,-20],[-3,3],[-54,-39],[-10,-16],[-8,-31],[-10,-18],[1,37],[7,32],[41,117],[-26,8]],[[6267,9005],[-5,70],[-13,23],[-20,16],[-6,18],[-36,9],[-14,-26],[-48,-38],[-6,-22]],[[6119,9055],[-21,5],[-20,-3],[-19,6],[-23,16],[-38,48],[-15,7],[-36,1],[24,40],[54,158]],[[7705,9421],[37,-7],[27,-22],[8,10],[3,20],[123,-40],[14,2]],[[7917,9384],[3,-33],[-2,-32]],[[7918,9319],[-82,-25],[-3,9],[2,8],[-11,17],[-4,-2],[-25,8],[-26,14],[-6,-5],[7,-10],[27,-6],[10,-7],[14,-26],[5,-34],[-5,-48],[-9,-39],[-5,-8],[1,-7],[-4,-16],[-3,-1],[3,-15],[-2,-4],[-5,-1],[-27,-87],[-2,-54],[2,-56],[12,-16],[5,0],[28,-24],[13,-15],[6,-27],[3,-31],[-4,-51],[25,-20],[-12,-15],[-1,-7],[-19,-10],[4,-6],[-4,-11],[10,-11],[-12,-3],[-8,7],[2,-17],[-10,1],[2,5],[-6,16],[6,13],[-26,-16],[15,1],[1,-5],[-3,2],[-6,-6],[14,-1],[0,-5],[-10,-2],[4,-5],[27,-4],[5,3],[-2,4],[4,1],[13,-1],[13,3],[1,10],[-3,7],[5,18],[8,2],[16,-4],[5,8],[8,0]],[[7899,8712],[-14,-26],[-10,-12],[-19,-19],[-24,-16],[-55,-24],[-60,-11]],[[7717,8604],[-7,42],[-13,41],[-26,34],[-10,16],[-65,148],[-6,41],[-18,61],[-12,58],[-18,36],[-45,110]],[[7917,9384],[112,-38],[68,-32],[8,7],[1,-12],[17,4],[93,-45],[29,-1],[14,9],[36,-39],[25,2],[-5,-14],[-4,0],[-4,-7],[-4,-16],[-12,-12],[-2,-12],[-6,-3],[-11,9],[0,-11],[7,-8],[2,-12],[-14,-51],[-11,-18],[-9,-5],[-2,-21],[-14,-26],[-12,-5],[-5,4],[-13,-13],[-3,-13],[-12,-22],[-6,-25],[-18,-10],[-7,-9],[1,-8],[-10,-6],[-1,-10],[2,-8],[-3,-12],[-5,-2],[-6,4],[-4,-4],[-6,5],[-2,-6],[-8,-1],[-12,10],[-4,-9],[-10,5],[-2,4],[7,5],[-1,5],[-13,13],[-18,0],[-4,-4],[10,3],[7,-6],[1,-16],[4,-6],[-2,-3],[5,-7],[25,-4],[5,-23],[5,-9],[9,11],[16,-8],[-1,-26],[11,-9],[9,7],[3,13],[18,41],[13,18],[16,39],[17,28],[11,14],[26,11],[15,2],[13,10],[12,28],[1,21],[7,22],[-4,11],[10,7],[-21,11],[-3,5],[13,24],[10,2],[2,7],[4,1],[0,8],[10,-1],[11,10],[12,4],[8,9],[-3,10],[13,7],[10,0],[2,-5],[-3,-7],[5,-11],[-6,-7],[-9,-1],[-2,-6],[9,-13],[20,-4],[43,4],[16,-10],[7,0],[-1,-6],[-1,-5],[4,0],[-1,3],[-2,2],[3,3],[3,1],[4,-5],[-3,-2],[-1,-1],[7,-1],[-1,-3],[-2,-1],[2,-4],[-2,-8],[-2,-7],[-5,-6],[-2,0],[-8,12],[-4,1],[5,-3],[4,-10],[-1,1],[0,2],[-2,-3],[6,-6],[-1,-12],[-4,-2],[-1,-6],[-6,-2],[3,-5],[-11,-2],[0,-6],[-9,-15],[6,-5],[-7,2],[-3,-3],[0,-5],[-8,-5],[-1,-28],[7,-3],[0,-2],[-8,2],[-5,-13],[-8,-8],[-8,-2],[1,-5],[-1,-17],[11,0],[12,7],[0,4],[15,26],[-7,5],[0,2],[8,-4],[8,5],[2,-1],[1,-8],[-1,-5],[4,-9],[-8,-3],[-1,-8],[2,-5],[11,-1],[2,9],[-4,5],[6,3],[3,13],[6,11],[2,-1],[8,24],[8,4],[3,-11],[-6,-4],[-5,1],[-5,-7],[6,-6],[1,-4],[11,-8],[2,-3],[-1,-8],[-1,-10],[-2,-5],[-2,-1],[3,0],[1,-2],[-3,-8],[-9,-4],[-3,1],[-5,-11],[-10,-3],[-12,-34],[5,20],[-4,6],[-18,9],[-36,-1],[-26,-13],[-22,-21],[-14,-24],[-18,-40],[-5,2],[-6,-7],[-1,-16],[3,-33],[8,-26],[11,-14],[11,2],[4,8],[-6,-19],[1,-5],[-17,-2],[-14,-10],[-23,-46],[-4,-25],[7,-15],[7,-8],[-1,-5],[-11,3],[-33,-10],[-15,-17],[-6,-17],[-5,0],[-5,6],[-5,-8],[-6,-25],[8,-16],[9,-1],[5,-14],[0,-8],[3,-3],[-5,-1],[1,-7],[-3,-3],[-4,-17],[-22,-22],[-6,-25],[-9,-16],[-5,1],[-12,20],[-3,21],[-11,28],[-12,12],[-17,27],[-10,17],[-7,24],[0,16],[14,4],[6,9],[-5,18],[-6,2],[4,2],[0,6],[-7,42],[2,7],[-7,22],[0,32],[-6,14],[-7,-1],[-4,4],[-7,-14],[1,-10],[5,-11],[0,-12],[-11,-3],[-3,-7],[-8,9],[-9,3],[-10,-10],[1,-4],[7,5],[-2,-9],[4,-9],[-2,-8],[-6,-1],[-13,28],[-25,32],[-12,23],[-8,11],[-25,6],[-6,8],[-11,2],[-7,19],[-17,-34],[-4,-5],[-4,2],[3,16],[-4,8],[6,11],[-5,18],[3,19],[-3,8],[-23,-33],[-5,-1],[-5,5],[24,33],[23,47],[0,7],[-13,0],[-4,3],[1,14],[-6,9],[4,10],[-6,14],[2,2],[-7,0],[-7,-22],[-9,-3],[-14,-16],[-11,7],[6,4],[-9,8],[4,12],[-9,-9],[2,-16],[13,-12],[12,0],[3,-10],[-4,-13],[-7,14],[-16,10],[-6,16],[-10,3],[-12,-5],[-2,6],[-6,3],[3,8],[-9,1],[-3,15],[-8,-7],[-10,10],[3,16],[-1,17],[6,8],[7,3],[0,5],[2,2],[3,0],[2,-1],[1,-4],[1,0],[-1,4],[-4,2],[-3,1],[1,5],[-4,-2],[-2,-7],[-7,3],[-1,5],[5,7],[8,-1],[13,13],[-15,13],[-4,-1],[-7,-9],[-4,24],[21,-9],[4,-4],[0,7],[6,-2],[8,-23],[12,-1],[7,7],[-6,4],[-8,-5],[-5,4],[2,5],[12,2],[0,9],[-13,-7],[-7,15],[-18,-1],[-6,8],[5,4],[8,-4],[9,5],[11,24],[-4,5],[0,7],[-12,9],[-1,0],[4,-11],[2,-18],[-3,0],[-11,17],[4,8],[-1,12],[5,9],[9,5],[-6,9],[1,16],[2,1],[4,-7],[3,3],[-7,11],[7,6],[-6,4],[3,4],[-2,8],[2,10],[2,4],[17,7],[-13,8],[2,6],[9,4],[-10,2],[3,8],[-3,6],[8,19],[-7,24],[8,5],[1,7],[7,5],[9,0],[7,-5],[1,-9],[-7,-15],[10,15],[-2,10],[-4,4],[-15,2],[-11,-6],[-7,12],[82,25]],[[7717,8604],[-106,-14],[-206,41],[-59,7],[-45,0],[-116,-13],[-102,-4]],[[6669,9124],[-47,-139],[-14,-21],[-50,-38],[-16,-20],[-94,-164],[-51,-120]],[[6397,8622],[-67,31],[-4,-8],[-52,24],[-8,-1],[-34,23],[-18,-5],[-16,12],[-23,-10],[-23,-18],[-33,-17],[-5,-6],[-3,-11],[-19,7],[12,22],[14,15],[-7,7],[43,47],[-14,9]],[[6140,8743],[15,21],[11,-8],[4,3],[5,11],[-6,5],[0,6],[41,62],[15,49],[1,6],[-2,2],[4,1],[6,48],[6,5],[-1,8]],[[6239,8962],[10,21],[17,10],[1,12]],[[6239,8962],[-14,32],[-23,26],[-16,9],[-67,26]],[[6856,8849],[-9,-12],[-8,-12],[1,-8],[24,-52],[-15,-33],[-14,-18],[-5,-15],[-13,-17],[-1,-6],[5,-16],[-12,-35],[-3,-26],[6,-25]],[[6812,8574],[-24,5],[-47,34],[2,-6],[-17,-82],[-19,7],[-20,-51]],[[6687,8481],[-105,40],[1,11],[-14,25],[-9,-14],[-27,20],[-54,30],[-3,1],[-3,-6],[-76,34]],[[6065,8686],[-17,10],[-9,-15],[-32,21],[-23,-45],[-79,159],[-38,5],[-28,25],[-19,-4],[-17,-37],[-14,-48]],[[5789,8757],[-14,3],[59,134],[-16,15]],[[5818,8909],[-1,16],[6,28],[50,105],[18,21],[12,5],[17,19],[4,-2],[-2,-8],[9,-3],[18,10],[19,-6],[14,0],[11,-12],[1,-23],[-5,-13],[2,-22],[7,-14],[8,-9],[7,0],[3,-6],[9,-1],[11,6],[2,10],[-12,12],[-11,22],[6,8],[36,-20],[-6,-11],[-1,-11],[7,-10],[7,-3],[-3,6],[8,9],[32,17],[21,0],[61,-24],[12,-12],[12,-24],[2,-14],[-6,-10],[-2,-32],[-2,-5],[-7,3],[-2,-3],[7,-6],[-1,-5],[-4,-4],[-9,-27],[-15,-25],[2,-2],[-24,-42],[-36,-11],[1,-4],[12,-5],[-5,-19],[-15,-19],[-16,-12],[-22,-41]],[[5789,8757],[-19,-39],[-5,-25],[-4,-10],[-6,-8],[-16,-13],[-20,-34],[20,-8],[-25,-42],[3,-5],[76,-29],[97,-54],[8,14],[10,-5],[3,-6],[-2,-17],[-10,-20],[-22,-25],[-15,-29],[-16,7],[-5,-9],[43,-27]],[[5884,8373],[-24,-46]],[[5860,8327],[-30,16],[1,-8],[-2,-3],[-15,-10],[-10,-15],[-6,-2],[-8,3],[-17,-31],[-143,78],[10,50],[12,13],[-2,10],[-20,8],[1,3],[-78,20]],[[5553,8459],[7,9],[4,-1],[3,6],[9,2],[17,16],[6,-2],[16,11],[26,34],[31,70],[34,63],[15,22],[18,38],[45,75],[29,61],[6,23],[-3,1],[-1,9],[-4,3],[7,10]],[[7490,8103],[4,-36],[-3,-18],[-5,-8],[-40,-48],[-7,-12],[-8,-29]],[[7431,7952],[6,-30],[-10,-2]],[[7427,7920],[-20,-1],[-13,2],[-23,7],[-22,-8]],[[7349,7920],[-3,18],[-29,19],[-209,81],[1,4],[-45,18]],[[7064,8060],[-5,40],[-18,-2],[-7,55],[17,3],[-7,52],[-9,25],[16,4],[-26,22],[-16,24],[-28,23],[-6,17],[-16,-8],[-41,-34],[-27,-43],[10,57],[-48,-52],[-64,26],[14,31],[36,100],[5,47],[-4,23],[21,43],[-4,10],[-6,4],[-2,10],[-11,-4],[-34,22],[8,17],[0,2]],[[7083,8621],[-2,-14],[17,0],[0,-8],[23,-61],[137,-233],[2,-19],[-42,-16],[9,-6],[8,2],[4,-34],[4,0],[127,-116],[7,-30],[97,17],[16,0]],[[6065,8686],[-20,-31],[-20,11],[-12,24],[-3,-1],[-7,-25],[11,-7],[4,-13],[5,-5],[-1,-4],[-13,-16],[-1,-6],[-6,-3],[-1,-5],[-5,-3],[-2,-13],[2,-9],[-37,-63],[-75,-144]],[[6397,8622],[-25,-51],[-98,-161],[-29,-33],[-38,-36],[-14,-20]],[[6193,8321],[-17,-2],[-46,25],[7,17],[-15,8],[-75,-18],[-21,5],[-8,6],[-20,-20],[-5,-11],[-33,7],[-9,-17],[-6,1],[-2,9],[-7,7],[1,3],[-32,20]],[[5905,8361],[17,32],[28,41],[18,44],[24,45],[13,23],[4,-3],[3,4],[-3,6],[8,13],[5,7],[8,-4],[-3,11],[15,24],[32,46],[13,8],[14,27],[9,8],[10,20],[20,30]],[[7490,8103],[8,1],[1,-13],[41,16],[19,-46],[55,33],[47,-14],[14,-16],[12,-25],[39,25],[-3,8],[11,17],[3,12],[-7,33],[-3,88],[-5,45],[0,11],[8,-3],[-1,55],[-5,25],[-19,52],[-4,26],[3,32],[16,70],[-3,69]],[[7899,8712],[9,-4],[4,2],[4,-4],[4,4],[8,1],[-1,-6],[19,-8],[19,-41],[8,-111],[-74,-2],[-8,-14],[-6,-41],[5,-3],[-4,-7],[4,-10],[22,-3],[-10,-15],[14,-22],[7,-2],[-4,-8],[0,-6],[-11,-14],[1,-6],[4,-2],[-8,-4],[0,-26],[8,-3],[9,6],[7,-10],[5,2],[-3,-7],[-9,-8],[2,-2],[15,12],[6,-3],[16,12],[1,-2],[-20,-17],[5,-7],[20,-8],[-18,2],[-10,-6],[5,-7],[8,-1],[3,-16],[-15,-7],[-5,-10],[-14,10],[-5,9],[-6,3],[4,4],[-2,5],[-6,0],[2,-2],[-1,-6],[-6,-3],[-13,4],[-1,4],[-7,3],[-14,0],[1,-6],[10,3],[8,-8],[10,1],[8,-22],[9,-13],[6,-3],[-4,-14],[6,-13],[5,-27],[5,-8],[-2,-16],[-22,-13],[-8,-20],[6,-35],[5,-8],[6,1],[-10,-6],[1,-5],[8,0],[-9,-4],[0,-19],[7,-1],[-6,-2],[0,-8],[2,-9],[4,-5],[-1,-13],[5,-16],[4,-1],[-2,-2],[6,-11],[3,-15],[12,-19],[9,-7],[-3,-5],[5,-3],[0,-6],[4,1],[-3,-4],[2,-5],[9,-1],[-5,-4],[6,-4],[2,-10],[43,1],[10,-5],[-3,-5],[-10,5],[-28,-1],[-10,-4],[-2,-3],[1,-4],[-21,-18],[3,-11],[-6,-10],[3,-13],[14,-9],[-18,-16],[4,-6],[10,-1],[2,5],[7,1],[1,12],[9,-10],[9,-1],[1,8],[9,-2],[-1,5],[4,-2],[3,11],[8,-4],[2,4],[6,0],[8,10],[4,0],[3,9],[23,-5],[3,4],[8,-8],[5,-5],[4,-17],[3,-1],[-4,-5],[5,-5],[-4,-2],[-1,-4],[6,-4],[-5,-2],[1,-7],[1,-3],[7,1],[-5,-6],[3,-5],[7,1],[-5,-3],[0,-5],[7,-9],[-2,-3],[4,1],[-3,-5],[5,-8],[-3,-4],[-2,-1],[2,-4],[-3,-1],[1,-5],[5,-1],[31,4],[1,-1],[-33,-4],[-2,-5],[1,-7],[2,-6],[-5,-2],[11,-15],[-1,-8],[19,-17],[29,-2],[3,7],[8,0],[3,-4],[19,-7],[11,-13],[38,-17],[3,-5],[6,-3],[4,-11],[-4,-12],[-10,3],[-13,-7],[-21,-26],[-1,-6],[-16,-7],[-8,-19],[-30,-12],[-10,4],[7,14],[1,10],[-20,24],[-14,24],[-15,10],[-12,15],[-8,-3],[9,-22],[15,-9],[8,-12],[4,-43],[12,-16],[12,-5],[17,-33],[8,-8],[7,-1],[11,9],[3,-3],[-2,-4],[9,-10],[15,-6],[27,-3],[110,-66],[18,1],[3,6],[-6,8],[10,-3],[2,-18],[7,-8],[5,-11],[-3,-20],[-8,-11],[-11,-6],[-16,-1],[-20,4],[-1,-6],[-9,0],[0,17],[-10,5],[-1,8],[-14,15],[-18,10],[-13,-1],[-24,13],[-37,32],[-28,19],[-17,1],[-14,-13],[-4,0],[-2,6],[-16,15],[-38,29],[-21,30],[-29,24],[-10,2],[-6,-5],[-11,6],[-9,-2],[-27,11],[-5,-5],[0,5],[-5,4],[-31,-1],[-4,6],[-10,2],[-61,-16],[-6,-8],[-9,4],[-32,-9],[-16,-6],[-3,-5],[-12,-1],[-8,-5],[-2,-5],[-7,3],[-20,-14],[-33,6],[-22,-6],[-19,-11],[-14,-15],[-13,-20],[-5,-20],[-1,-24],[3,-10],[7,-10],[3,-34],[-4,-7],[-8,-3],[-41,6],[-24,12],[-28,8],[-13,24],[-5,26],[-44,86],[4,16],[0,21],[14,20],[2,11],[-2,28],[2,9],[-11,29],[4,20],[17,22],[5,15],[-5,7],[1,49],[1,4],[-4,4],[-1,11],[-7,5],[0,2],[3,4],[-3,5],[-17,35],[-11,29],[-2,15],[-15,31],[-6,31]],[[8697,8615],[0,43],[-7,18],[2,4],[17,4],[9,-1],[24,-17],[19,-23],[2,-18],[57,-55],[-5,-7],[-11,0],[-28,-11],[-8,-6],[-9,-20],[-9,0],[-7,-12],[2,-20],[12,-32],[-19,-72],[6,-15],[27,-39],[1,-5],[-14,-1],[-6,-6],[-13,14],[-3,-4],[3,5],[-17,27],[-16,18],[1,8],[5,10],[6,38],[-20,42],[-9,3],[0,16],[12,3],[2,7],[-2,7],[-8,-1],[1,12],[-3,7],[11,20],[3,19],[-5,14],[3,21],[-5,16],[0,-13],[-1,2]],[[8332,8590],[5,-2],[1,9],[6,12],[-4,3],[5,9],[6,-3],[6,6],[-1,0],[4,6],[9,5],[-1,1],[5,10],[1,2],[8,1],[10,-2],[5,-34],[-4,-10],[3,-8],[2,0],[4,-12],[1,-4],[-1,-7],[0,-3],[-2,-1],[3,-3],[1,-5],[-3,-9],[2,-4],[1,-4],[2,1],[1,-2],[8,3],[8,0],[2,-2],[0,-3],[-15,-6],[0,-5],[14,-17],[8,-6],[16,-18],[4,0],[3,-3],[0,-3],[1,-1],[19,7],[7,-5],[0,-2],[7,1],[3,-4],[-20,-9],[1,-6],[3,0],[5,-3],[0,-3],[-4,-6],[1,-5],[13,-21],[6,1],[2,-3],[11,6],[9,-9],[2,0],[6,-6],[0,-3],[-22,-10],[4,-6],[14,3],[3,-1],[2,-11],[-2,-5],[-8,-7],[-2,0],[0,-3],[-2,0],[1,-8],[-3,0],[1,-2],[-4,-1],[2,-10],[-4,-1],[1,-7],[-11,-4],[-2,-11],[4,-8],[-6,-7],[1,-2],[4,1],[2,-5],[-12,-3],[4,-5],[-2,-4],[9,-25],[12,-15],[3,-8],[6,2],[1,-11],[2,-3],[5,-10],[-1,-5],[-2,-3],[2,-6],[2,-8],[1,-1],[2,0],[0,-1],[-2,-1],[1,-3],[1,0],[0,-1],[-1,0],[0,-3],[2,0],[-3,-1],[-1,-4],[-2,-14],[-4,-8],[-6,-6],[2,-7],[0,-2],[-7,-6],[-2,-1],[-5,4],[-4,-4],[4,-12],[1,-7],[-2,-4],[-5,-1],[-6,14],[-11,-4],[-6,2],[-6,10],[-9,5],[-2,7],[-6,4],[3,10],[-7,25],[-12,8],[-15,-1],[-3,8],[-2,12],[4,2],[-4,8],[-3,-1],[-2,4],[5,2],[-5,9],[-4,-1],[-3,1],[1,4],[4,1],[-1,3],[-8,13],[-10,20],[-10,-3],[-4,11],[9,2],[-2,7],[2,0],[-5,14],[-8,9],[-16,31],[1,1],[-2,2],[-1,0],[-3,5],[-1,0],[-3,7],[1,0],[0,3],[-1,0],[-2,13],[5,2],[-1,13],[0,3],[2,7],[4,5],[4,4],[11,4],[3,-1],[5,-7],[3,2],[-4,8],[2,3],[-2,10],[3,1],[-2,2],[-2,0],[-2,6],[1,2],[2,0],[-1,2],[-3,0],[-1,4],[3,0],[0,4],[-3,4],[-1,5],[1,0],[-1,4],[11,3],[-1,5],[-2,-1],[-1,6],[-8,-3],[0,2],[-2,7],[3,1],[-1,6],[-18,-5],[-5,17],[18,6],[-1,4],[-5,-1],[-1,4],[-5,-1],[-2,6],[1,0],[-1,3],[-1,5],[0,1],[4,1],[-1,1],[-3,-1],[-6,0],[-3,1],[-2,5],[3,3],[11,4],[0,1],[-2,0],[-15,28],[-8,2],[3,7]],[[6687,8481],[-16,-50],[-103,-159],[-31,-40],[49,-39],[16,-8],[2,-14],[-5,-12],[-37,-28],[-44,-6],[-11,-4],[-12,-8],[-11,-15]],[[6484,8098],[-5,5],[-5,14],[-7,5],[-21,3],[-18,-4],[-12,3],[-12,21],[-7,6],[-11,-26],[-97,46],[10,30],[-4,2],[-21,-38],[-21,-26],[-20,-4],[-4,-1],[-3,2],[10,32],[-33,15],[-12,-27],[-23,12],[11,26],[-19,8]],[[6160,8202],[4,13],[29,106]],[[7064,8060],[0,-4],[-6,1],[-65,27],[5,2],[-21,9],[-36,12],[-39,8],[-101,10],[-47,16]],[[6754,8141],[-4,1],[-12,-28],[-7,-23],[-15,7]],[[6716,8098],[-16,-22],[-4,-7],[-6,-14],[-19,-31],[-17,-41],[-107,50],[-2,-1],[-23,71],[-5,-2],[-6,-4],[-21,-26],[-27,-18]],[[6463,8053],[-12,19],[24,16],[9,10]],[[5860,8327],[-19,-61],[-63,-152]],[[5778,8114],[0,8],[-9,-15],[-59,-60],[-7,-9],[-5,-9],[-10,-25],[-10,-15],[-3,-12]],[[5675,7977],[-1,0],[-16,-31],[-156,86],[22,88],[-12,7],[-30,-130],[-6,-17],[-7,-17],[-11,-20],[-23,-34]],[[5435,7909],[-19,8],[60,114],[5,16],[13,26],[11,53],[7,2],[-7,4],[13,49],[26,72],[23,48],[-2,34],[-6,14],[4,6],[-9,20],[3,26],[0,19],[-6,20],[-1,11],[1,4],[2,4]],[[6160,8202],[-13,-30],[-13,-20],[-80,-110],[-15,-27],[-24,-56]],[[6015,7959],[-22,10],[-29,-67],[-56,24],[-50,41],[-20,-7],[24,-23],[-23,-8],[-38,-5]],[[5801,7924],[-2,51],[-3,2],[-4,55],[9,66],[10,31],[36,77],[2,13],[13,32],[2,12],[8,11],[-1,8],[10,34],[8,9],[2,8],[14,28]],[[6463,8053],[-7,-38],[-39,-5],[4,-30],[-87,-275],[1,-4]],[[6335,7701],[-34,-21],[-92,30],[-4,1]],[[6205,7711],[20,74],[-2,7],[17,35],[-47,18]],[[6193,7845],[-1,4],[-8,34]],[[6184,7883],[2,32],[25,24],[-18,8],[-12,-30],[-3,1],[-45,-38],[-100,43],[10,24],[-28,12]],[[7349,7920],[-228,-41],[3,-9],[-181,-29],[-5,6],[-39,-6],[-28,-6],[3,-8]],[[6874,7827],[-191,-34],[-4,9],[2,4],[-4,43],[1,22],[18,77],[-3,11],[-8,7],[-1,6],[11,45],[15,2],[21,34],[4,36],[3,14],[4,11],[9,23],[3,4]],[[5675,7977],[8,-16],[-1,-9],[-74,-135]],[[5608,7817],[-17,9],[-2,-4],[-56,-161]],[[5533,7661],[-52,30],[-14,-10],[-11,-18],[-118,67],[12,20],[13,6],[24,28],[7,14],[-28,8],[-15,-4]],[[5351,7802],[-25,15],[41,82],[5,-3],[12,23],[23,-13],[6,13],[22,-10]],[[5778,8114],[-10,-22],[-4,-58],[13,-136],[8,-175],[3,0],[0,-5]],[[5788,7718],[-43,22]],[[5745,7740],[-137,77]],[[6716,8098],[16,-7],[-3,-31],[-3,-8],[-13,-19],[-5,-5],[-4,-2],[-13,2],[-13,-52],[-1,-7],[8,-7],[4,-12],[-4,-26],[-12,-11],[0,-21],[-4,-13],[-4,-63],[11,-24]],[[6676,7792],[-54,-11],[-53,-51],[-45,-57],[-8,6],[-38,-48]],[[6478,7631],[-112,88],[1,3],[-32,-21]],[[6184,7883],[9,-38]],[[6205,7711],[-43,22],[-79,27],[-53,-158],[-15,-11]],[[6015,7591],[-94,-64],[-14,-11],[0,-4],[-17,-30],[-12,7],[-32,-33],[-21,-14]],[[5825,7442],[-12,22],[-2,18],[6,8],[-10,2],[-2,7],[5,14],[-1,19],[3,2],[2,35],[1,4],[4,-3],[2,3],[-8,8],[2,21],[12,2],[-1,5],[-10,1],[-2,10],[3,47],[3,16],[-3,1],[-3,29],[4,17],[-3,30],[12,5],[-2,3],[-10,-1],[0,14],[12,3],[1,4],[-1,2],[-12,0],[-2,3],[-1,34],[12,2],[-1,9],[-13,0],[-1,14],[13,1],[0,8],[-10,-1],[-1,13],[2,22],[-4,0],[2,18],[-7,1],[-3,10]],[[7427,7920],[0,-1],[8,-21],[9,-31],[16,-39],[7,-18],[3,-12],[9,-31],[-1,-14],[-4,-14],[2,-9],[-4,-11],[-20,-16],[-12,-3],[-4,-9],[0,-10],[-16,-33],[-3,-13],[-9,-17],[-27,-82],[-10,-7],[-7,-22],[-13,-3],[-6,2],[-18,45],[-9,9],[-31,16],[-6,11],[-6,0],[-10,6],[-14,0],[-2,6],[-6,0],[1,-4],[4,0],[0,-9],[-6,-4],[2,-3],[-12,-2],[-33,19],[0,-5],[11,-8],[19,-8],[22,6],[25,-6],[25,-18],[11,-14],[0,-8],[-6,-13],[4,-9],[-10,-20],[-5,-17],[0,-18],[10,-17],[16,-10],[5,-10],[0,-17],[11,-5],[4,-7],[-4,-16],[-17,-11],[-3,5],[-4,-3],[-4,4],[-10,3],[-4,-2],[-3,-11],[-7,-2],[-88,1],[-20,8],[1,2],[16,-5],[0,10],[-10,6],[-16,-2],[6,-9],[-20,9],[-20,15],[-7,15],[-1,26],[4,0],[1,-19],[9,1],[3,8],[-2,7],[2,18],[-3,7],[-6,40],[-3,-8],[-17,-8],[10,-13],[3,-1],[-1,-3],[2,-20],[-2,-2],[-4,20],[-7,12],[-11,9],[-56,13],[-71,10],[-10,12],[-27,55],[-18,25],[-18,11],[-107,37],[-22,16],[-42,40],[-22,23],[-5,19],[-16,42],[-8,7],[192,34]],[[5745,7740],[-100,-182]],[[5645,7558],[-124,69],[12,34]],[[5211,7463],[4,5],[23,41]],[[5238,7509],[17,-9],[7,14],[-17,9]],[[5245,7523],[5,13],[32,48],[24,44],[3,14],[-6,20],[2,8],[-24,15]],[[5281,7685],[36,54],[4,-2],[18,29],[-3,1],[5,8],[3,-1],[10,22],[-5,3],[2,3]],[[5645,7558],[-25,-44],[58,-33]],[[5678,7481],[-51,-91],[29,-16],[-33,-60],[-29,16]],[[5594,7330],[-211,118],[25,45],[-51,28],[-9,-15],[18,-11],[3,-14],[-15,-36],[-25,-46]],[[5329,7399],[-31,16],[-17,-31],[-51,29],[17,31],[-36,19]],[[6676,7792],[26,-74],[10,-15],[51,-51],[5,-9],[50,-26],[44,-16],[28,-16],[18,-18],[10,-25],[9,-1],[0,-24],[42,-103],[-9,-27],[-56,-97],[-32,-17],[-20,3],[-2,7],[-4,-2],[-4,5],[-50,7],[-3,20],[-4,3],[-31,2],[-64,-14],[-6,-6],[-19,6],[-4,6],[-9,6],[-8,14],[-19,16],[-11,25],[-15,-3],[-12,11],[2,14],[-9,0],[-4,-4],[-27,5],[-4,11],[-58,-4],[-2,15],[-14,-1],[-8,-2],[2,-13],[-19,-4],[-2,12],[-16,-3],[0,-13],[4,-3],[-7,-6],[-55,31]],[[6370,7414],[-2,23],[31,60],[46,58],[17,-9],[19,30],[-21,15],[26,33],[-8,7]],[[6370,7414],[54,-33],[-45,-12],[-20,-2],[-3,3],[-15,118]],[[6341,7488],[-34,-32],[-97,27],[14,51],[-12,3],[-13,41],[-36,15],[-27,-62],[-63,27],[-58,33]],[[5788,7718],[0,-92],[-2,-2],[-1,-25],[2,-7],[-8,-110],[4,-24],[15,-33]],[[5798,7425],[-9,-5],[-11,13],[-13,0],[-87,48]],[[5211,7463],[-18,-25],[-34,-80],[-46,-84],[-25,-28],[-20,-30],[-5,-17],[1,-21],[-3,-7],[-26,-23],[-6,-9],[-4,-12],[-2,-25],[-13,-23],[181,-101]],[[5191,6978],[-118,-215]],[[5073,6763],[-51,28],[-9,-15],[-51,28],[9,16],[-28,15],[-4,-17],[-61,34],[32,42],[-28,16],[-9,-1],[0,-13],[-8,-25],[-25,-46],[-20,2]],[[4820,6827],[131,254],[149,279],[63,108],[80,162],[38,55]],[[5245,7523],[-7,-14]],[[6341,7488],[16,-121],[-5,-9],[-14,-12],[-10,-4],[-13,-14],[-55,-76],[-11,-14],[-5,3],[-3,-4],[7,-6],[-1,-3],[-47,-46],[-14,-9],[-41,4],[-112,63],[-10,16],[-12,30],[-28,25],[-24,2],[-43,-4],[-13,6],[-5,-1],[8,16],[-3,1],[2,5],[-4,9],[-3,4],[-10,-1],[-4,5],[-4,-2],[-33,57],[1,5],[-23,29]],[[5594,7330],[-33,-61]],[[5561,7269],[-50,-90]],[[5511,7179],[-161,87]],[[5350,7266],[-52,30],[22,86],[9,17]],[[5798,7425],[36,-49],[17,-33],[7,-14],[-2,-3],[15,-46],[3,-1],[3,-30],[-2,-37],[-1,-36],[-4,-22],[-17,-30],[-13,-10]],[[5840,7114],[-279,155]],[[5350,7266],[-159,-288]],[[5903,7215],[9,32],[8,15],[-4,2],[19,34],[24,2],[32,-3],[16,-13],[25,-46],[64,-35],[23,-17],[29,-61],[1,-12],[-3,-12],[-22,-39],[-36,-37],[-25,-17],[1,-7],[-61,-89],[-2,1],[-19,-57],[-26,-25],[-21,-3],[-28,-26],[-15,-4],[-11,4],[-36,28],[-78,17],[-17,21],[-2,15],[6,28],[54,83],[5,13],[3,0],[26,31],[20,9],[30,-13],[38,-1],[-4,23],[-8,4],[19,-2],[-22,3],[7,-8],[-2,-14],[-24,-2],[-1,4],[13,19],[-12,2],[-8,9],[-1,17],[17,32],[6,17],[2,24],[-1,17],[-8,22],[0,15]],[[8306,6992],[-3,2],[-9,-5],[-6,-7],[-2,-7],[-2,-7],[5,-23],[-6,-29],[17,5],[13,-89],[17,3],[6,-43],[14,2],[5,-41],[-47,-7],[8,-61],[37,9],[15,-48]],[[8368,6646],[-43,-18]],[[8325,6628],[-1,5],[-200,21]],[[8124,6654],[-183,19],[-84,21],[-53,7],[-74,-5],[-48,2]],[[7682,6698],[50,118],[-17,0],[-7,71],[-64,1],[-12,82],[0,2],[9,3],[-4,21],[-2,4],[-3,1],[-8,-3]],[[7624,6998],[-1,0],[-2,1],[-5,17],[7,22],[8,10],[12,6],[12,-2],[15,7],[15,13],[7,13],[2,11],[-4,36],[-7,16],[-6,7],[-1,7],[-6,2],[-6,13],[8,-6],[29,5],[8,8],[-4,12],[9,4],[10,-9],[11,1],[13,-7],[10,5],[7,10],[-3,10],[6,0],[10,12],[15,5],[12,26],[28,19],[12,-6],[23,-32],[3,2],[16,-9],[2,4],[59,-37],[0,-11],[15,3],[6,21],[5,1],[8,-2],[3,-16],[94,-23],[10,2],[17,-10],[22,8],[6,7],[7,0],[-1,-12],[2,-1],[31,3],[3,6],[2,-5],[5,3],[16,-7],[2,4],[26,-16],[17,-5],[-1,-2],[14,-6],[32,-6],[6,-14],[-4,-8],[-2,-30],[-4,-5],[0,-22],[21,-59]],[[5840,7114],[-43,-31],[-45,-42],[-22,-41],[-19,-53],[-31,-46],[-47,-32],[-13,-12],[-8,-14]],[[5612,6843],[-219,121]],[[5393,6964],[118,215]],[[5393,6964],[-74,-135]],[[5319,6829],[-60,-108]],[[5259,6721],[-26,-48]],[[5233,6673],[-67,-123]],[[5166,6550],[-74,-134]],[[5092,6416],[-9,-15]],[[5083,6401],[-150,85]],[[4933,6486],[1,2],[1,4],[-2,4],[-5,4],[145,263]],[[7682,6698],[-20,-42],[-15,-25],[-22,-26],[-33,-29],[-41,135],[-12,32],[-44,0],[-1,-41],[-4,-7],[-15,-2],[-110,3],[-3,1],[1,5],[-32,1],[-19,-5]],[[7312,6698],[2,30],[-10,7],[1,9],[-6,2],[0,8],[4,3],[0,5],[-4,2],[-1,6],[5,3],[1,5],[-2,11],[-4,2],[0,22],[12,2],[-7,5],[5,10],[-18,5],[-52,-4],[-3,-7],[-34,-1],[-3,3],[-1,25],[-5,1],[-2,4],[-8,1],[-3,-2],[0,-4],[-4,0],[-3,6],[-9,-1],[-4,7],[-9,1],[-2,8],[6,11],[-12,17],[-9,0],[-1,8],[2,1],[-3,3],[3,7],[7,4],[-2,8],[5,7],[7,6],[18,-10],[5,2],[10,11],[0,7],[4,5],[45,4],[11,9],[0,3],[-32,2],[-3,4],[3,20],[3,20],[32,20],[-3,10],[-17,21],[3,16],[-2,20],[17,11],[3,13],[3,-8],[15,-12],[47,-17],[3,5],[-4,13],[5,10],[-1,16],[16,13],[31,9],[11,-3],[0,-4],[6,-10],[12,-13],[16,0],[7,3],[0,12],[8,-8],[0,5],[14,6],[11,-5],[3,7],[-3,7],[16,19],[29,5],[11,-7],[18,-59],[5,-9],[0,-5],[8,-28],[3,-18],[-17,-8],[-4,-9],[9,-38],[-2,-8],[3,11],[13,-3],[13,3],[6,-8],[21,-4],[4,-11],[8,-3],[24,7],[10,12],[-2,1]],[[8640,6950],[-118,73],[4,12],[-4,6]],[[8522,7041],[9,9],[5,10],[5,39],[-5,20],[-14,11],[-27,1],[26,2],[4,16],[32,13],[8,12],[34,-1],[23,-13],[33,-43],[13,-39],[21,-29],[5,-31],[25,-36],[1,-9],[-19,-17],[-36,-15],[-25,13],[-17,26],[-4,-1],[21,-29]],[[8640,6950],[60,-97],[38,-49],[21,-32],[7,-5],[-1,-3],[11,-27],[2,-16],[9,-23],[11,-19]],[[8798,6679],[-27,-9],[3,-10],[-51,-16],[6,-18],[-38,-11],[1,-17],[-21,-6],[-14,78],[-17,-6],[7,-39],[-71,-20],[-190,-75]],[[8386,6530],[-42,109]],[[8344,6639],[24,7]],[[8306,6992],[21,-6],[42,36],[65,0],[50,7],[24,16],[-33,10],[38,-9],[9,-5]],[[6542,6696],[-8,-20],[-8,-46],[-4,-1],[-13,9],[-142,-154]],[[6367,6484],[-43,10],[-11,9],[-127,26]],[[6186,6529],[-197,185]],[[5989,6714],[-20,-20],[13,-28],[-17,-19],[-77,55]],[[5888,6702],[36,32],[26,10],[22,24],[8,16],[25,17],[15,22],[7,4],[25,29],[19,15],[15,4],[6,22],[19,24],[7,1],[2,3],[-4,4],[44,58],[13,5],[20,16],[6,0],[1,7],[21,21],[115,-31],[22,-2],[32,-12],[55,-53],[8,-3],[16,-24],[6,-11],[-56,-58],[-43,-1],[-19,-22],[-9,-28],[0,-8],[7,-1],[5,23],[13,15],[17,8],[30,-5],[35,23],[10,7],[25,-23],[-12,-13],[3,-4],[21,22],[44,-38],[1,-7],[-15,-17],[-2,-8],[15,0],[9,-15],[0,-8],[-23,-28],[7,-8],[4,-10]],[[5612,6843],[-5,-37],[12,-47],[5,8],[4,-2],[0,-8],[3,-1],[-6,-13],[7,-23]],[[5632,6720],[-9,-4],[-23,-45],[-9,5],[-9,-16],[-33,19],[9,16],[-239,134]],[[7044,6472],[-29,36],[-41,38],[-6,-6]],[[6968,6540],[-41,26],[-44,11],[-47,-3],[-30,-9],[-19,-9],[-72,-51],[-38,-22],[-15,-7],[-3,5],[-9,0],[-35,-10]],[[6615,6471],[-8,35],[-8,6],[-13,97]],[[6586,6609],[-4,15],[3,-3],[54,11],[46,4],[-11,5],[-5,14],[1,9],[9,4],[-3,2],[-12,69],[-3,4],[4,3],[2,27],[6,5],[15,4],[18,-1],[25,9],[10,-2],[29,6],[9,-4],[-6,27],[-5,3],[18,28],[57,-36],[5,4],[65,104],[28,-18],[-3,-5],[8,-36],[-19,-30],[-18,-5],[-19,-31],[60,-44],[75,-45],[6,-8],[16,-11],[151,-93],[6,-4],[0,-7],[-25,-38],[-17,6],[-2,-4],[-12,-2],[35,-27],[0,-7],[-15,6],[-11,-21],[-7,-4],[-13,-18],[-21,-9],[-17,0],[-4,7],[-3,-8],[-17,-3],[-31,11]],[[4723,6641],[62,-33],[46,87],[-21,13],[19,51],[8,31],[-27,15]],[[4810,6805],[10,22]],[[4933,6486],[-5,-5],[-7,0],[-3,2],[-5,9],[1,4],[4,4],[0,12],[-38,22],[-8,-15]],[[4872,6519],[-163,91],[1,9],[13,22]],[[9391,6611],[-63,-100],[-65,-69],[-26,-11],[-47,-6],[-52,-22],[-80,-24]],[[9058,6379],[-3,9],[-29,30]],[[9026,6418],[-1,7],[41,30],[34,38],[-2,3],[-31,-23],[-29,44],[-25,-11],[0,7],[8,11],[-4,5],[-9,3],[-14,42],[28,11],[13,20],[-18,60],[-15,26],[4,10],[2,16],[-2,2],[6,6],[-3,3],[5,2],[5,32],[19,32],[1,13],[19,23],[23,9],[10,-9],[12,-33],[17,-1],[8,-8],[0,-9],[-5,-10],[11,-3],[6,-5],[-17,-10],[5,-4],[10,5],[5,-4],[7,2],[16,-17],[9,-22],[-4,-6],[4,-11],[0,-11],[10,-17],[0,-7],[4,-1],[-9,39],[1,17],[8,7],[-1,-5],[6,-2],[0,16],[5,0],[2,12],[16,4],[174,-135]],[[5632,6720],[2,-11],[6,-7],[2,-12],[-3,-11],[-6,-4],[-6,-20],[-14,-24],[-70,-90]],[[5543,6541],[-4,2],[21,29],[-11,6],[-8,-15],[-43,24],[9,15],[-83,46],[-9,-15],[-156,88]],[[8124,6654],[-7,-67],[-34,3],[-2,-24],[17,-2],[-2,-18],[-2,-19],[-17,2],[-18,-174]],[[8059,6355],[-32,4],[-1,9],[-59,6],[-25,-9],[2,-4],[-217,-78],[-62,-17],[-4,-2],[3,-8],[-75,-45],[-3,9],[-73,-53]],[[7513,6167],[-6,20],[-3,19]],[[7504,6206],[2,12],[4,7],[-3,11],[7,24],[9,9],[6,15],[13,45],[-3,43],[-17,37],[-15,25],[-24,11],[-3,13],[4,7],[-2,4],[-6,0],[1,-7],[-8,-13],[-42,-11],[-3,8],[-1,-5],[-19,-11],[-17,1],[-26,17],[-16,2],[-11,13],[-13,29],[7,7],[-1,4],[-11,5],[-3,11],[9,13],[-4,7],[2,15],[-16,15],[-8,16],[17,37],[-3,22],[5,23],[-4,11],[1,20]],[[5989,6714],[150,-140]],[[6139,6574],[-27,-30],[-17,5],[-9,7],[-16,-18],[24,-6],[-91,-148]],[[6003,6384],[-146,91],[-94,51],[13,20],[5,18],[-4,2]],[[5777,6566],[1,3],[-8,6],[1,4],[-48,19],[-7,30],[3,30],[22,43],[24,26],[18,4],[41,-6],[13,-10],[0,-6],[8,-14],[13,-10],[25,9],[5,8]],[[6615,6471],[5,-21],[53,16],[6,-44],[17,3],[12,-88],[-17,-2],[6,-47],[17,2],[12,-88]],[[6459,6165],[-19,135],[-16,-3],[39,75],[21,22],[13,30],[14,12],[10,2],[-161,38]],[[6360,6476],[7,8]],[[6542,6696],[4,-2],[3,-3],[1,-2],[1,-7],[-2,-4],[-1,-7],[-4,-6],[0,-6],[-1,-5],[2,4],[0,4],[5,11],[1,9],[1,6],[-2,5],[6,15],[10,6],[2,8],[4,3],[14,-53],[-7,-36],[-7,-12],[10,1],[4,-16]],[[5514,6497],[-59,-90]],[[5455,6407],[-42,24],[-9,-15],[-238,134]],[[5233,6673],[260,-146],[3,-1],[-8,-15],[26,-14]],[[8798,6679],[12,-32],[16,-25],[67,-78],[26,-36],[11,-7],[4,-23],[4,-6],[13,-8],[16,-2],[11,-8],[-2,-4],[9,3],[19,-8],[16,-19],[5,0],[1,-8]],[[9058,6379],[-92,-26]],[[8966,6353],[-26,-6],[9,-39],[-79,-21],[11,-53],[-1,-18],[-135,-31],[-56,-20],[-36,-19],[-32,-9],[1,-7],[-65,-24]],[[8557,6106],[-13,34],[-29,48],[-35,88],[-19,57],[-3,23],[-12,17],[-60,157]],[[8325,6628],[19,11]],[[8059,6064],[-29,3],[29,288]],[[9391,6611],[378,-314]],[[9769,6297],[-24,1],[-25,-2],[-29,-6],[-29,-11],[-21,-14],[-16,-15],[-17,-23],[-19,-45],[-11,-19]],[[9371,5879],[-7,11],[-2,37],[-8,27],[-10,20],[-36,42],[-64,56],[-26,33],[-63,101],[-34,46],[-38,32],[-85,39],[-32,30]],[[5313,6099],[17,40],[15,15],[79,121],[35,44],[9,20],[26,43],[20,19],[57,94],[13,13],[0,8],[9,17],[45,53],[24,9],[10,12],[4,0],[-4,-15],[1,-35],[-17,-34],[-30,-26],[-119,-185],[-42,-51],[-20,-40],[-41,-47],[-50,-64],[-19,-16],[-40,-46],[-6,-2],[1,11],[6,8],[3,14],[14,20]],[[6968,6540],[34,-30],[48,-56],[75,-118],[18,-17],[58,-40],[13,-21],[-20,1],[-53,-10],[-118,-5],[-127,-18]],[[6139,6574],[47,-45]],[[6360,6476],[-25,-35],[-115,-189],[-16,7],[-35,-56],[8,-5],[5,-10],[22,-56]],[[6204,6132],[-72,16],[0,3],[-140,87]],[[5992,6238],[68,110],[-57,36]],[[5992,6238],[-72,-120],[-202,148],[-100,49],[15,32],[-39,19]],[[5594,6366],[3,5],[-2,3],[16,29],[42,61],[28,26],[8,3],[6,-4],[13,17],[8,-2],[-2,4],[4,3],[17,1],[2,7],[5,7],[12,-1],[7,4],[9,16],[0,3],[-6,3],[3,14],[9,-2],[-8,2],[9,1]],[[7513,6167],[50,-98],[7,-19],[1,-18],[-4,-33],[-41,-69],[-8,-31]],[[7518,5899],[-23,-7],[-42,-24],[-78,-49]],[[7044,6472],[24,-9],[-2,-5],[10,-11],[44,-79],[6,-9],[9,-3],[-1,-5],[2,-3],[25,-18],[39,-16],[11,-11],[19,1],[19,-7],[18,-13],[25,5],[18,17],[10,-3],[70,62],[30,20],[1,19],[12,10],[32,13],[11,0],[8,-4],[21,-18],[18,-38],[2,-11],[-4,-8],[6,-21],[-9,-5],[2,-2],[-1,-5],[-8,-14],[-6,4],[5,-8],[-2,-6],[-4,-2],[3,-4],[-18,-51],[-5,-6],[5,-2],[3,-6],[-8,-6],[-5,-12],[-16,-17],[-1,-26],[-2,-5],[3,-4],[13,5],[4,9],[6,2],[13,34],[5,6]],[[6602,5692],[-58,-1],[-6,-20],[-69,-4],[-74,4],[1,16],[-13,1],[-79,-127],[-11,-13],[-50,32],[-56,2],[-115,42],[-31,19],[-54,55],[-26,17]],[[5961,5715],[0,3],[3,-1],[1,5],[17,110],[37,23],[34,-5],[6,43],[34,-3],[18,7],[21,141],[79,-13],[2,-2],[13,55],[-7,21]],[[6219,6099],[-10,32],[-5,1]],[[4934,6267],[58,-33]],[[4992,6234],[-50,-90]],[[4942,6144],[-58,32],[-9,-16],[-146,82],[-22,15],[-139,75]],[[4568,6332],[9,15]],[[4577,6347],[32,33],[8,11],[22,41],[295,-165]],[[7923,5804],[-30,10],[-156,70],[1,-10],[-39,10],[-137,18],[-44,-3]],[[6219,6099],[-45,-8],[-6,-9],[-47,-8],[-179,-46],[-43,-287],[-9,2],[-32,20],[-30,-17],[102,-26],[21,-9],[8,-7]],[[5959,5704],[3,-7],[-1,-10],[-55,-104],[-11,-9],[-15,-6],[-33,0],[-13,-5],[-1,-10]],[[5833,5553],[-60,10],[-33,13],[-28,20],[-19,21],[-14,45],[-3,-1],[-2,6],[3,1],[-1,5],[-7,16],[-8,16],[-16,21],[-33,18],[-149,66],[-34,8],[-60,-5],[-53,-27],[-12,-10],[-26,5],[1,4],[-9,9],[6,26],[12,3],[6,9],[0,3],[-11,7],[4,6],[10,2],[0,14],[-6,5],[13,33],[6,4],[11,0],[6,14],[32,1]],[[5359,5921],[27,-7],[4,17]],[[5390,5931],[-41,10],[-19,10],[3,7],[13,3],[-13,4],[10,20],[5,3],[-4,2],[26,45],[39,-21],[31,-8],[3,9],[-32,8],[-27,16],[13,14],[9,-1],[11,22],[-4,7],[3,10],[28,35],[82,131],[4,-3],[-3,5],[63,106],[4,1]],[[4942,6144],[-17,-31]],[[4925,6113],[-8,-15],[29,-16],[-8,-15],[-29,16],[-24,-44]],[[4885,6039],[-367,205],[-25,-45],[-9,5]],[[4484,6204],[17,32],[5,3],[2,10],[32,58]],[[4540,6307],[11,-4]],[[4551,6303],[17,29]],[[5008,6264],[-8,-15]],[[5000,6249],[-8,-15]],[[4934,6267],[24,45],[36,-20]],[[4994,6292],[-8,-15],[22,-13]],[[9769,6297],[137,-111]],[[5000,6249],[200,-112],[35,-18],[20,25],[5,-3]],[[5260,6141],[-50,-73],[-43,-68],[2,-2],[-3,-6]],[[5166,5992],[-6,4],[2,4],[-29,16],[-9,-14],[-199,111]],[[4450,6122],[11,41],[23,41]],[[4885,6039],[-66,-120]],[[4819,5919],[-9,-15],[-57,33],[-17,-30]],[[4736,5907],[-102,57],[8,15],[-4,2],[-47,26],[-8,-15],[-137,77],[14,50],[-10,3]],[[4736,5907],[-33,-60],[58,-33]],[[4761,5814],[-108,-197],[25,-16],[-18,-28]],[[4660,5573],[-79,51]],[[4581,5624],[32,58],[-9,-1],[-56,127],[5,8],[-113,63],[1,7]],[[4441,5886],[-16,6],[3,25],[10,-1],[3,24],[-15,3],[11,80],[-20,3],[10,36],[6,-2],[17,62]],[[5166,5992],[-43,-65],[-2,2],[-14,-35]],[[5107,5894],[-8,4],[-5,-6],[-7,-24],[-10,-65],[-7,-20],[-19,-31],[-1,-1],[-49,27],[8,15],[-141,79],[8,15],[-57,32]],[[5961,5715],[-2,-11]],[[5359,5921],[-32,-1],[2,5],[7,1],[3,15],[6,3],[45,-13]],[[5107,5894],[-3,-7],[2,-1],[-4,-8],[-6,-39],[3,-1],[-3,-15],[-2,0],[-4,-19],[3,-82],[-8,0],[-27,15]],[[5058,5737],[-5,2],[-1,-10],[0,-19],[16,-79],[3,-10],[6,-12],[-2,-8]],[[5075,5601],[-6,10],[-3,7],[-4,31],[-20,7],[-82,46]],[[4960,5702],[-83,48],[7,14],[-57,32],[-8,-14],[-58,32]],[[4581,5624],[-21,-45],[-12,-34],[12,-8],[-18,-28]],[[4542,5509],[-103,14],[5,35],[-14,1],[-10,-69],[-30,4]],[[4390,5494],[3,47],[-62,7],[1,4],[8,-1],[6,49],[51,-6],[14,207],[-22,4],[3,36],[32,-1],[7,49],[10,-3]],[[4960,5702],[-158,-287]],[[4802,5415],[-71,29]],[[4731,5444],[19,70],[-90,59]],[[5897,5463],[-30,0],[4,-7],[-115,-40],[10,-30],[-26,-11],[16,-48],[-30,-11],[-4,16],[-54,-18],[-2,12],[-140,-18],[-2,17],[-30,-3],[-8,64],[-38,-30],[-13,-16],[-46,39],[19,23],[14,6],[-6,14],[-55,45],[-3,-20],[-6,4]],[[5352,5451],[3,12],[-9,7],[0,4],[-30,-2],[-2,15],[-26,-2],[10,80],[-15,83],[-6,-1],[0,3],[-2,23],[5,18],[41,61],[27,26],[25,18],[42,5],[29,-4],[42,-14],[112,-50],[36,-20],[12,-11],[11,-19],[2,-9],[-3,-1],[11,-16],[-2,-1],[16,-45],[30,-34],[21,-15],[36,-13],[53,-10],[43,-12],[7,-5],[24,-37],[2,-22]],[[5058,5737],[-1,-8],[0,-11],[5,0],[16,-9],[0,-5],[-4,-3],[-9,5],[4,-21],[-7,1],[5,-22],[5,-5],[-4,-3],[8,-42],[8,-11],[18,-19],[7,-13],[3,-13],[-2,-29],[2,-1],[-1,-1],[-3,1],[0,-6],[3,0],[-5,-38],[-31,-166],[-25,-88],[-29,-80],[-11,-16],[-15,-13],[-6,-2],[-37,-4],[0,-1],[-17,-2],[1,-9],[-129,-17],[-2,1],[-2,18],[-2,1],[-154,-29],[-24,-10],[1,-2],[-1,-3],[-11,-6],[-7,8]],[[4605,5064],[21,15],[43,9],[-24,111],[-2,4]],[[4643,5203],[24,48],[19,43],[13,38]],[[4699,5332],[32,112]],[[4802,5415],[176,-70],[30,-16],[41,-8],[8,78],[41,93],[6,38],[-2,31],[-3,11],[-6,11],[-18,18]],[[6385,5171],[-117,6],[-101,9],[-96,8],[-101,8],[-2,0],[-5,-1]],[[5963,5201],[-1,4]],[[5962,5205],[8,-1],[-6,19],[-1,7],[3,5],[5,4],[2,1],[16,7],[-7,25],[9,3],[-5,11],[-12,15],[-8,21],[-1,19],[3,8],[-7,17],[-1,13],[-12,13],[-4,9],[12,30],[42,3],[25,-10],[7,9],[-35,12],[-42,5],[-34,30],[-38,53],[-13,10],[-33,8],[-2,2]],[[4699,5332],[-95,54],[-88,59],[15,49],[11,15]],[[4643,5203],[-2,-4],[-6,-5],[-10,-5]],[[4625,5189],[-139,86],[-31,-51],[-97,60]],[[4358,5284],[3,21],[-1,0]],[[4360,5305],[30,189]],[[5897,5463],[38,-116],[15,4],[5,-14],[0,-9],[-4,-17],[3,-15],[8,-6],[10,-10],[4,-7],[5,-15],[-9,-8],[-13,-4],[-9,-13],[-1,-1],[6,-12],[3,-11],[0,-4],[4,0]],[[5963,5201],[-2,0],[-3,0],[-68,6],[-6,19],[-114,-39]],[[5770,5187],[-108,-34],[-185,-23],[15,-132],[-129,-110],[8,-44]],[[5371,4844],[-105,-23]],[[5266,4821],[12,53],[-93,99],[-18,59]],[[5167,5032],[-17,4],[-10,23],[-1,31],[6,24],[-1,1],[-7,2],[0,1],[1,1],[5,0],[1,4],[-2,1],[-1,1],[1,1],[7,4],[-10,5],[0,2],[5,-1],[5,-3],[2,1],[0,3],[-2,2],[-2,1],[1,2],[1,1],[3,-1],[7,22],[-2,1],[2,7],[2,3],[4,-1],[0,3],[-1,0],[1,4],[-7,2],[27,78],[2,-1],[2,11],[-2,2],[16,32],[2,-2],[7,13],[3,4],[3,-2],[6,10],[-12,11],[6,-1],[7,18],[0,-3],[12,-6],[2,2],[-2,2],[3,3],[-8,7],[8,-3],[4,5],[-17,15],[2,2],[16,-13],[17,26],[7,17],[-14,12],[15,-9],[3,4],[-17,15],[4,3],[14,-12],[7,17],[2,0],[-1,6],[7,17],[-8,7],[2,2],[23,-4],[46,-17]],[[4343,5199],[15,85]],[[4625,5189],[-7,-4],[-59,-14],[-24,-18],[-18,20],[-18,-14],[-56,-20],[-24,-37]],[[4419,5102],[-23,13]],[[4396,5115],[20,41],[-65,39]],[[4351,5195],[-8,4]],[[5963,5201],[1,-1],[2,-9],[26,-18],[26,-50],[5,-4],[-21,-27],[182,-142],[-20,-25],[40,-32],[-20,-26],[136,-101],[-28,-38],[66,-49],[0,-1]],[[6358,4678],[0,-2],[-1,-2],[-26,-34],[-94,71]],[[5900,4910],[-64,48],[-20,95],[-46,134]],[[6951,4737],[-4,9],[-90,-21],[-95,-68],[-80,-79],[-67,-46],[-11,-19],[-27,-25]],[[6577,4488],[-8,13],[-43,-33],[-29,45],[-24,-35],[-14,-30],[-3,0],[-81,125],[12,4],[-25,72],[7,15],[-10,13],[-1,1]],[[4494,4968],[-3,3]],[[4491,4971],[23,20],[-84,83],[-21,13]],[[4409,5087],[10,15]],[[4605,5064],[7,-8],[-10,-4],[-2,-5],[-5,-4],[-14,-8],[-22,-12],[-65,-55]],[[5466,4662],[-29,192],[-66,-10]],[[4409,5087],[-35,-56]],[[4374,5031],[-14,-23],[-19,9],[-12,-34],[-12,3],[10,35],[-1,2],[-14,4]],[[4312,5027],[22,75]],[[4334,5102],[4,14],[1,14]],[[4339,5130],[49,-31],[8,16]],[[9117,4906],[61,-178],[-32,-62],[-6,-1],[0,-5],[-13,-27]],[[9127,4633],[-29,-55],[-97,-57],[-18,32],[-83,-40],[6,-41],[-5,-18]],[[8855,4565],[-20,53]],[[4491,4971],[-33,-27],[-3,0],[-32,39],[-5,8],[3,15],[-47,25]],[[5266,4821],[-45,-9],[-219,11]],[[5002,4823],[-54,3],[2,61],[-11,23],[32,70],[9,12],[1,6]],[[4981,4998],[3,10],[4,0],[-5,-21],[2,-2],[1,-1],[5,-8],[0,-1],[2,-4],[12,-3],[1,1],[2,0],[-4,-21],[-1,-2],[3,-2],[21,-25],[3,-4],[3,-1],[4,-2],[2,-2],[1,4],[1,0],[14,-7],[1,-1],[-5,-10],[0,1],[-18,-35],[5,-5],[3,1],[17,35],[2,3],[0,1],[3,2],[1,0],[4,-5],[2,0],[16,-19],[6,-5],[2,3],[-3,6],[-17,19],[0,2],[-4,4],[1,1],[9,3],[6,-6],[31,-36],[6,5],[-31,36],[-14,18],[0,1],[8,7],[7,-7],[7,7],[-13,15],[0,1],[2,2],[1,1],[5,-5],[7,8],[-6,4],[0,2],[2,2],[1,0],[12,-11],[6,-1],[3,4],[-2,5],[-64,53],[1,4],[4,2],[18,-15],[15,12],[-37,36],[6,7],[55,-53],[2,2],[1,26],[-31,45],[8,6],[30,-44],[2,2],[5,-10],[-2,-23],[-2,-13],[5,-1],[0,-9],[46,-39],[2,2],[1,13],[-33,27],[1,39],[0,5],[0,2],[16,-4]],[[4494,4968],[-34,-31],[-26,-21],[-8,-3],[-29,-10],[1,-3],[-1,-1],[-2,-1],[2,-5],[1,1],[1,-4],[-1,0],[6,-17],[0,-1],[-7,18],[-3,-1],[1,-6],[-1,-1],[-1,0],[-2,6],[-4,-1],[1,-4],[0,-1],[-1,0],[-2,4],[-4,-1],[4,-13],[0,-2],[-1,-1],[-2,0],[-1,1],[-7,15],[-2,-1],[1,-11],[0,-2],[-3,0],[-2,5],[-2,5],[-3,-1],[2,-16],[-1,-1],[-1,-1],[-1,1],[-3,17],[-3,0],[0,-5],[-1,-3],[-1,-2],[-2,1],[1,3],[1,9],[1,1],[0,7],[-8,1],[-2,-11],[-15,10],[-4,-3],[-20,22],[-11,16],[-11,17],[-3,8],[-1,6],[0,4],[8,-1],[10,10]],[[4298,4970],[4,1],[-1,10],[2,12],[9,34]],[[9549,5007],[0,-437],[-17,-14]],[[9532,4556],[-9,-17],[-12,-65],[-98,39]],[[9413,4513],[-269,109],[-17,11]],[[5002,4823],[3,-46],[-17,1],[5,-33],[-2,-6],[6,-27],[71,-4],[13,-87]],[[5081,4621],[-114,6],[4,-39],[-30,16],[2,-4],[-10,-19],[-39,20],[-8,-15],[-39,20],[-69,-135]],[[4778,4471],[-82,42],[3,8],[-164,71],[-24,-65],[-46,17]],[[4465,4544],[7,3],[21,-7],[4,13],[4,11],[17,28],[11,13],[15,35],[19,-7],[3,6],[15,-6],[4,11],[-30,11],[26,72],[-36,17],[11,21],[38,-15],[14,31],[-3,4],[4,9],[7,-2],[3,8],[-38,18],[9,21],[37,-17],[6,17],[-35,16],[10,21],[36,-16],[4,12],[-25,21],[43,55],[20,-9],[8,11],[-6,5],[4,11],[8,8],[16,5],[23,0],[6,-12],[13,-3],[4,1],[1,5],[5,3],[7,13],[9,-1],[12,-8],[12,0],[1,12],[26,3],[4,-2],[-1,-10],[4,0],[1,17],[53,6],[0,-4],[13,2],[8,0],[3,-1],[11,4],[6,0],[2,-8],[1,0],[0,8],[-1,2],[-22,-1],[0,2],[25,2],[2,-1],[28,2],[3,0],[4,-1],[-2,-10],[4,-1]],[[3849,4784],[-36,37],[17,19],[-4,4],[33,36],[6,-5],[15,14],[40,-37],[-7,-7],[-2,-16],[-14,0],[-6,-6],[-34,34],[-9,-9],[33,-34],[-32,-30]],[[5369,4593],[-3,18],[-277,-43]],[[5089,4568],[-8,53]],[[7073,4371],[19,-98]],[[7092,4273],[16,-90],[50,9],[6,-33],[4,-44],[11,-33],[14,-75],[-8,-2],[-40,-62],[-12,-2],[0,-13],[-13,-3],[-10,-11],[-10,3],[-7,-3],[0,-7],[8,-6],[0,-7],[-18,-6],[-30,-20],[8,-15],[23,15],[1,-2],[1,-3],[-1,-28],[29,-26],[13,-15],[3,-12],[12,-18],[4,-16],[10,-7],[14,2],[6,-3],[1,-11],[3,-2],[1,-17],[2,-2],[4,-1],[1,-1],[-1,-1],[1,-2],[1,0]],[[7189,3703],[-19,-12]],[[7170,3691],[-4,3],[-1,2],[-1,8],[0,1],[0,1],[-18,11],[-2,11],[-10,17],[-26,23],[-17,30],[-18,4],[-21,13],[-9,9],[-35,63],[-177,-100],[-20,-3],[-43,12],[-8,13]],[[6760,3809],[30,16],[-19,34],[44,25],[-104,185],[2,1],[-52,268],[3,2],[-25,131],[-31,-19],[-14,13],[-17,23]],[[6760,3809],[-117,-67],[26,-48],[-25,-15],[-26,-22],[-42,46],[-23,-26]],[[6553,3677],[-35,42],[-36,64],[-43,-25],[-7,5],[-9,52],[-4,0],[-8,36],[-12,-1]],[[4163,4485],[-20,3],[-9,5],[-13,20],[-1,18],[114,147],[10,27],[50,5],[14,-2],[34,-9],[15,-19],[15,5],[1,1],[3,4],[0,1],[5,1],[1,0],[3,-2],[1,-1],[1,-4],[0,-1],[-2,-4],[-1,0],[-4,-2],[-1,1],[-4,2],[-1,2],[-16,-5],[13,-15],[2,-6],[6,0],[-2,-44],[-16,-28],[-30,-21],[-24,0],[-119,-72],[-25,-7]],[[3753,4633],[-4,7],[0,14],[27,3],[34,-22],[9,-19],[-6,-18],[-14,-5],[-33,20],[-13,20]],[[9413,4513],[-33,-113],[-53,-133],[-89,-189],[20,0],[-6,-11],[46,0],[-17,-27],[-59,1],[-138,-275],[32,-26],[39,-3],[2,-25],[11,-31],[-1,-38],[18,-37],[4,-17],[4,-57],[24,-46],[-1,-18],[-4,-15],[-24,32]],[[9188,3485],[-49,64],[-16,17],[-342,257]],[[5089,4568],[-17,-3],[5,-33],[20,-11],[9,-67],[21,-5],[-33,-125],[25,-47],[-6,-12],[-2,-10],[1,-14],[2,-8],[4,-8],[2,-4],[7,-7]],[[5127,4214],[-322,167]],[[4805,4381],[8,14],[-58,30],[23,46]],[[5273,3990],[-122,228],[-7,-5],[0,5],[-7,-1],[0,-5],[-5,0],[-5,2]],[[4805,4381],[-15,-29],[-1,-24],[-24,-37],[-44,9],[-15,0],[-13,-4],[-12,-10],[-11,-15],[-49,-76]],[[4621,4195],[-27,-72],[-15,6],[-6,-15],[-15,5],[-10,-28],[-7,-3],[-27,13],[-25,5],[24,64],[-10,5],[-23,-56],[-5,-1],[-13,-34],[-3,1],[12,33],[-50,-1],[-30,-81],[-81,-10],[3,17],[64,8],[25,68],[9,6],[0,3],[-9,7],[1,12],[-12,0],[-3,12],[1,1],[-5,13],[-25,1],[-2,1],[2,5],[-4,2],[-7,-2],[-8,7],[8,10],[-7,8],[23,28],[-6,5],[-31,-35],[-24,19],[32,36],[-5,6],[-58,-65],[-13,7],[29,32],[-17,23],[4,7],[-4,3],[7,7],[-6,5],[-19,-19],[14,21],[-4,7],[11,6],[0,11],[-30,1],[-5,11],[15,3],[-1,13],[-6,2],[21,2],[0,18],[-5,8],[-16,0],[4,15],[6,7],[21,17],[7,1],[15,16],[67,54],[2,0],[11,-15],[0,-1],[-36,-29],[10,-12],[-5,-4],[15,-15],[60,69],[-20,25],[-17,-14],[-1,0],[-6,8],[0,1],[68,54],[6,0],[5,-3],[6,3]],[[9532,4556],[15,13],[2,-1],[2,-131],[3,-58],[-15,-72],[-20,-65],[-3,-31],[0,-131],[-11,-16],[-19,1],[0,-21],[6,-18],[1,-17],[-6,-36],[8,-33],[15,-30],[29,-16],[1,-29],[18,-46],[11,-36],[6,-40],[-6,-13],[-14,-11],[-19,3],[-100,-40],[-80,-14],[-100,-57],[-17,-111],[-7,-15],[6,-20],[-12,-31],[25,-41],[23,-70],[-27,-7],[-16,0],[-7,5],[3,15],[22,33],[1,9],[-3,6],[-17,7],[-10,0],[-25,-17],[-4,5],[-5,-8],[-9,-2],[-16,-17],[-8,4],[-2,6],[6,10],[23,18],[-2,7],[-7,-4],[2,-5],[-15,-11],[-10,-13],[-9,-1],[5,29],[21,17],[14,15],[9,61]],[[8164,4076],[-9,-36],[-71,-8],[-24,-99],[-2,-4],[-5,-1],[-32,7],[-11,-2],[-8,-8],[-7,11],[-19,5],[8,35],[9,14],[-23,-10],[-47,-7],[-43,11],[-142,20],[-33,18],[-91,19]],[[7614,4041],[-12,32],[-8,3]],[[7594,4076],[-70,187],[17,7],[11,29],[66,-25],[17,73],[-12,33]],[[7594,4076],[-31,10],[-42,5],[-59,20],[-85,35],[-81,41],[-124,49],[-25,16],[-55,21]],[[4926,3801],[-120,96],[-32,-40],[-78,63],[41,53],[-79,64],[7,32],[-1,33],[-39,86]],[[4625,4188],[-4,7]],[[7614,4041],[28,-73],[1,-21],[25,-74],[46,-222]],[[7714,3651],[-31,8],[-13,13],[-4,9],[-4,1],[-5,5],[-5,15],[-10,6],[-4,7],[-7,24],[0,7],[0,7],[1,4],[-1,1],[-5,-1],[0,2],[4,1],[-2,8],[-10,5],[-2,20],[-11,40],[-2,16],[0,5],[2,2],[12,-34],[3,1],[-8,20],[-4,14],[0,6],[0,1],[3,1],[1,0],[1,-4],[0,5],[1,0],[6,2],[1,0],[3,-6],[-1,6],[2,1],[10,3],[-1,4],[-40,-8],[16,-80],[5,-23],[17,-87],[-2,0],[3,-18],[-4,-27],[-40,-2],[-28,5],[-5,7],[-2,12],[-8,7],[-3,6],[2,3],[-9,45],[-16,84],[-14,78],[-10,58],[1,2],[3,2],[-1,1],[-3,0],[-1,2],[0,5],[3,1],[11,3],[-1,12],[-6,7],[-22,-3],[1,-6],[-6,-2],[12,-60],[16,-83],[14,-78],[16,-81],[15,-89],[-75,-6],[-10,-5],[-114,-15],[-36,0],[-22,9],[-27,26],[-11,23],[0,10],[6,22],[-2,6],[2,6],[8,10],[12,1],[2,15],[4,2],[0,11],[3,-1],[-1,4],[21,14],[-2,9],[-12,1],[-11,-11],[-13,0],[-20,-13],[-61,16]],[[4300,4028],[-12,8],[-11,17],[-16,128],[-7,10],[28,-13],[4,-48],[2,-2],[9,-72],[-2,0],[0,-12],[3,-11],[3,-2],[-1,-3]],[[4634,3513],[-277,222],[-94,-121],[-105,84]],[[4158,3698],[11,13],[15,-12],[6,9],[21,-16],[9,9],[1,6],[-55,47],[3,2],[37,-26],[12,13],[-43,38],[29,-20],[11,10],[2,6],[-19,16],[2,5],[22,-16],[15,11],[-9,-12],[3,-4],[20,-3],[5,5],[-40,38],[61,-41],[11,14],[1,10],[5,6],[-2,2],[20,25],[5,-4],[9,14],[14,-10],[2,2],[-15,13],[11,9],[-53,44],[33,31],[29,-22],[6,5],[31,-26],[7,10],[-55,44],[32,24],[78,-62],[14,20],[0,5],[-47,40],[-2,5],[11,14],[20,5],[44,-34],[10,9],[22,-18],[3,3],[-36,28],[6,7],[39,-29],[5,6],[-43,35],[5,7],[36,-28],[4,6],[-21,17],[4,6],[3,0],[-18,15],[1,7],[5,4],[67,-52],[8,12],[-72,59],[15,7],[68,-55],[10,13],[-61,50],[11,8],[12,-1],[7,6],[-4,3],[14,9],[10,-3],[14,17],[5,8],[0,15],[7,10],[-4,4],[6,38],[-1,3],[2,2]],[[9188,3485],[-8,-54],[-21,17],[-2,7],[0,18],[-7,19],[-14,28],[-22,25],[-2,4],[3,9],[-5,2],[-5,-7],[-45,40],[-40,26],[-1,3],[-7,5],[-4,-3],[-3,-6],[5,-7],[61,-50],[45,-42],[21,-40],[2,-10],[0,-39],[-12,-67],[-5,-6],[-1,-32],[-41,-18],[-12,-10],[-17,-7],[-7,-7],[-15,-4],[-18,-10],[6,2],[-3,-3],[-18,-6],[-68,-32],[-16,-10],[0,-4],[-33,-11],[-20,-13],[-26,-11],[-10,4],[6,-6],[-29,-17],[-7,-9],[-20,-51],[-9,-14],[-8,-30],[5,-27],[-6,-10],[-14,-16],[-1,-16],[-6,-6],[-12,-29],[-8,1],[-14,9],[-1,6],[8,29],[12,31],[-1,8],[-3,0],[-4,-8],[-34,46],[-51,54],[-2,6],[-19,6],[-40,-8],[-22,-32],[-18,-33],[-5,-15],[-46,-80],[-12,-2],[-75,60],[30,29],[29,37],[12,22],[-4,3],[9,-6],[11,12],[27,54],[3,17],[-4,6],[-13,3],[-12,23],[-18,13],[-33,12],[-21,24],[-19,15],[0,5],[-5,-5],[-20,-4],[2,8],[-10,2],[0,15],[-18,23],[-21,5],[-23,12],[-44,32],[-27,10],[-11,1],[-47,33],[-48,26],[-20,18],[-18,4],[-39,26],[-37,15],[-32,29],[-14,-3],[-53,34],[-8,2],[-6,-2],[-20,9],[-16,15],[-9,19],[-35,41],[-32,127],[1,32],[18,74],[15,15],[51,26],[105,-22],[22,1],[6,4],[1,5],[-2,2],[-11,6],[-120,29],[-76,-38],[-11,-9],[-27,-111],[26,-120],[1,-21],[6,-24],[-5,-3],[-4,5],[-4,12],[-15,8],[2,6],[-3,7],[-2,0],[-2,-9],[-5,0],[-4,4],[-2,-7],[-5,-1],[-7,15],[-1,-13],[-4,-4],[4,-18],[1,-7],[-2,-1],[-3,2],[-3,13]],[[6005,3780],[2,-2],[4,-42],[12,1],[18,-235]],[[6041,3502],[-69,-68],[-67,-55],[-89,-62],[-38,-3]],[[7170,3691],[0,-1],[-9,-11],[-6,-42],[-6,-9],[-6,-24],[6,-26],[7,-7],[7,-21],[3,-22],[-6,-5],[-90,-21],[-14,-10],[-27,-29],[-42,-29],[-11,6],[-17,20],[-4,16],[-7,11],[0,6],[-11,20],[-2,22],[-10,17],[-11,10],[-25,9],[-11,-4],[-2,-9],[1,-26],[6,-2],[5,-13],[8,-10],[5,-10],[-1,-6],[4,2],[17,-32],[2,-12],[3,1],[7,-7],[8,-26],[1,-20],[0,-6],[-7,8],[-49,-45],[-13,-4],[-10,3],[-22,15],[-8,13],[-23,24],[-16,8],[-8,-5],[-4,3],[-2,11],[-11,17],[-11,7],[-5,9],[-2,6],[10,11],[-5,11],[-5,5],[-5,-1],[-15,7],[-16,26],[2,7],[-21,16],[-13,-2],[-11,-9],[-18,2],[-32,45],[-5,13],[-1,16],[4,6],[-2,2],[0,8],[-18,5],[-3,7],[-23,24],[-4,1],[-4,-5],[-1,1]],[[6565,3657],[-12,20]],[[6565,3657],[0,1],[-6,4],[-6,-10],[7,-11],[28,-36],[8,5],[5,-3],[2,6],[5,-5],[0,-9],[-5,0],[0,4],[-3,-4],[10,-4],[1,-9],[-4,-4],[5,-1],[10,-16],[-11,-5],[2,-3],[11,5],[7,-18],[7,-4],[9,-14],[20,-11],[18,-14],[59,-72],[2,-12],[18,-22],[9,6],[6,-2],[5,-8],[-4,-14],[18,-24],[5,-16],[-10,-17],[-5,-1],[-34,-30],[-22,-23],[-3,-8],[-29,-20],[-15,-21],[0,-9],[8,-11],[-10,-8],[25,-31],[-20,-16],[-25,30],[-10,-10],[-28,-5],[-55,-48],[-5,-27],[-23,-25],[0,-4],[6,-1],[-13,-9],[-24,-6],[-41,-22],[-9,0],[-11,23],[-314,184],[-31,27],[-12,-3],[-6,-6]],[[6087,3240],[-19,14],[-6,-5],[-21,253]],[[4370,3176],[-60,48],[-6,-18]],[[4304,3206],[-17,10],[6,22],[-161,97],[-180,74],[-18,-2]],[[3934,3407],[21,46],[-18,18],[0,6],[49,63],[21,-17],[4,5],[7,-4],[34,43],[38,-31],[8,10],[-66,53],[4,8],[68,-53],[10,13],[-65,52],[4,8],[67,-53],[9,9],[-2,1],[19,24],[6,-5],[4,5],[-6,5],[4,6],[6,-5],[4,5],[-21,17],[7,7],[-11,27],[19,28]],[[2993,3612],[30,24],[37,15],[14,0],[37,-13],[28,4],[11,-5],[13,1],[15,-3],[37,-25],[4,0],[41,-49],[11,-3],[21,-15],[14,-22],[4,1],[3,-17],[-12,-3],[1,-6],[-21,-5],[8,-41],[-4,-1],[-1,-45],[4,-11],[5,0],[0,-6],[-16,-2],[6,-47]],[[3283,3338],[-4,-1],[1,-22],[-15,-11],[1,-35],[-13,-38],[2,-37],[-33,-4],[-2,0],[-2,14],[4,18],[11,24],[-57,22],[2,7],[-16,5],[20,85],[-15,-19],[-12,-7],[-3,-9],[-34,-44],[-32,27],[-20,-24],[-9,4],[-42,-68],[22,-18],[-30,-34],[-7,-28],[7,-114],[-3,-47],[-13,-16],[12,-11],[1,-6],[21,-13],[-2,-13],[15,-2],[2,13],[11,-3],[-2,-18],[-8,-23],[-14,-28],[-65,29],[-32,26],[-11,1],[-12,-14],[-4,-25],[75,-44],[-4,-15],[30,-12],[-19,-33],[0,-5],[-8,-3],[-8,-15],[12,-7],[-16,-32],[-36,18],[-26,9],[-29,4],[-40,-1],[13,-17],[5,-24],[30,7],[8,-2],[1,-3],[-23,-11],[4,-8],[-12,-6],[0,-6],[7,-12],[-12,-13],[-9,-30],[8,2],[7,14],[22,18],[9,-11],[-5,-21],[5,-4],[6,2],[5,-22],[6,-1],[1,-6],[7,0],[0,-9],[-24,4],[-3,-17],[-14,-3],[-14,2],[-26,-10],[-21,0],[-1,18],[-6,4],[-14,0],[-4,-5],[2,-13],[4,-6],[12,-3],[-10,-14],[-9,-7],[2,-12],[-25,-11],[-115,16],[-28,-5],[-63,-23]],[[2560,2497],[-27,38],[65,103],[5,19],[-15,87],[-25,13],[-18,5],[-29,0],[-18,-6],[-2,18],[48,4],[24,9],[-4,4],[-4,22],[-14,-2],[-9,103],[-6,3],[-52,-7],[-23,55],[-9,37]],[[2447,3002],[7,3],[13,14],[5,18],[-2,9],[2,6],[22,17],[67,-36],[32,-34],[27,-22],[61,28],[44,31],[-29,167],[1,15],[-14,93],[46,0],[-15,102],[85,28],[-13,110],[52,-2],[27,2],[30,6],[91,31],[-2,10],[12,9],[-3,5]],[[2447,3002],[-8,-2],[-27,33],[-8,27],[-48,-12],[0,7],[-132,-14]],[[2224,3041],[0,19]],[[2224,3060],[34,138],[-8,34],[13,39],[17,34],[2,56],[3,11],[-9,34],[-12,20],[-21,19],[-10,1],[8,16]],[[2241,3462],[18,-6],[14,-10],[2,3],[6,-2],[2,-4],[29,0],[7,6],[24,-8],[9,3],[1,9],[2,-8],[9,-4],[11,6],[16,23],[24,4],[14,-12],[19,10],[24,2],[9,8],[4,-6],[7,2],[-1,4],[33,14],[5,8],[23,20],[4,-1],[43,34],[41,16],[76,-2],[10,4],[3,-3],[28,-1],[32,-11],[32,-2],[8,8],[33,-1],[34,6],[22,6],[63,33],[12,2]],[[2095,3455],[0,-6],[3,-17],[0,-1],[-18,1],[-14,-3],[-50,-27],[-23,-76],[-11,-54],[-3,-65],[4,-78],[-12,-51]],[[1971,3078],[-47,4],[-10,-48],[-30,-36],[-48,-40],[-12,-14],[-20,18],[-172,37],[-6,-33],[-120,67],[-88,57],[-30,-18],[-18,24],[-21,21],[-77,59],[-19,7],[-11,19],[3,2],[-169,119]],[[1076,3323],[6,10],[6,0],[11,16],[1,16],[-4,4],[3,6],[21,4],[7,8],[-3,2],[112,120],[3,-3],[13,18],[1,8],[4,3],[16,6],[14,-14],[4,-10],[4,0],[3,2],[0,6],[-6,18],[4,8],[14,3],[29,-4],[8,4],[1,-4],[5,-1],[0,-7],[12,-2],[9,1],[0,17],[3,2],[4,-54],[9,-8],[12,2],[1,8],[9,4],[7,-5],[0,13],[16,0],[6,-4],[1,19],[-3,13],[4,0],[3,12],[7,2],[16,-3],[22,-20],[1,-6],[-4,-10],[11,-5],[-2,-12],[20,5],[1,-6],[-8,-10],[2,-11],[4,-6],[21,2],[3,7],[17,-5],[2,6],[23,-9],[3,3],[35,-16],[4,26],[2,0],[-1,-7],[4,0],[1,6],[2,0],[-4,-38],[22,-18],[10,0],[4,25],[10,1],[17,-9],[-10,-44],[22,-2],[0,-2],[5,1],[10,-6],[2,8],[6,1],[5,-18],[7,-1],[1,8],[22,-8],[31,-1],[-1,-9],[8,-1],[0,7],[15,-2],[3,31],[3,3],[-2,-18],[4,-6],[8,-2],[-1,-3],[0,3],[-4,0],[-5,-12],[5,-8],[19,3],[6,-3],[3,10],[27,2],[-1,18],[11,2],[12,-10],[5,-15],[5,-2],[0,21],[4,9],[7,1],[0,4],[50,5],[-1,3],[16,4],[8,-1],[16,-11],[0,7],[5,1],[4,12],[14,-5],[3,3],[2,16],[13,1],[2,-6],[6,8],[10,5],[23,4],[0,-1],[1,-1]],[[6087,3240],[-6,-7],[0,-4],[7,-5],[-1,-2],[261,-161],[-4,-8],[2,-8],[8,0],[6,-14],[19,-9],[4,-23],[33,6],[39,-4],[13,-25],[-2,-7],[6,-2],[5,-15],[-2,-12],[-15,-27],[-5,-17],[12,-48],[0,-24],[3,-6],[7,-11],[5,-2],[14,5],[30,1],[19,-6],[12,-10],[1,-19],[11,-3],[15,-13],[-1,-12],[-10,-16],[-13,-9],[-12,-1],[-12,-17],[1,-3],[-6,-2],[-1,-11],[5,-3],[-5,-22],[3,-5],[-11,-12],[-49,-25],[-47,-14],[-28,6],[-6,5],[-14,32],[6,10],[2,10],[0,29],[5,11],[0,11],[-21,28],[2,12],[-6,4],[-6,-3],[-22,21],[-69,83],[-17,24],[3,2],[0,2],[1,1],[-2,0],[-4,-3],[-4,4],[-3,0],[-1,-2],[-3,3],[-7,-5],[3,-4],[-8,-8],[-3,-2],[9,-15],[22,-18],[54,-57],[10,-10],[0,-9],[37,-38],[11,-111],[-65,-20],[-2,11],[-11,22],[-37,0],[-11,9],[-19,-11],[-3,-5],[10,-10],[-1,-2],[7,-8],[7,-17],[2,0],[2,-9],[-46,-14],[-48,11],[-57,68],[0,2],[0,18],[-2,1],[1,1],[2,-1],[7,23],[-9,3],[6,27],[7,13],[-2,2],[30,26],[-7,39],[0,17],[18,15],[-6,8],[-42,-36],[15,-38],[-42,-38],[7,-11],[-5,-21],[-27,-23],[0,-6],[92,-112],[9,-2],[-1,-5],[11,-10],[46,-4],[2,-3],[13,2],[13,-6],[26,12],[42,9],[42,1],[21,11],[43,7],[11,10],[10,-6],[43,-6],[12,-5],[3,5],[4,-2],[8,5],[9,-4],[12,4],[18,-2],[14,3],[14,12],[32,13],[2,6],[24,12],[48,-3],[15,7],[23,-31],[-5,-11],[2,-7],[-8,-10],[14,-36],[1,-16],[14,-25],[5,-19],[3,-34],[10,-23],[1,-53],[17,-73],[6,-13],[7,2],[1,-4],[-7,-2],[12,-77],[16,-30],[17,-22],[1,-10],[5,0],[-50,-107],[-4,2],[-4,-7],[-40,-14],[3,-9],[-6,-2],[-12,1],[-29,-12],[-56,-10],[-4,-4],[-20,2],[-14,-8],[-46,-1],[-13,-11],[-25,-10],[-27,-6],[-9,5],[13,-1],[-10,26],[-6,5],[-14,24],[-17,21],[0,3],[11,-1],[7,21],[15,21],[2,13],[-7,26],[-10,7],[-18,32],[-1,11],[3,7],[-6,11],[2,9],[-16,26],[-19,7],[-16,-2],[-18,-16],[-22,-4],[-3,-9],[-4,3],[-30,-5],[-23,5],[-16,-2],[-57,-24],[-11,3],[-7,8],[-18,-12]],[[6167,2144],[-4,5],[-5,3],[-38,6],[-31,-10],[-17,13],[0,-1]],[[6072,2160],[-3,2],[1,1],[-205,246],[25,23],[-97,116],[66,57],[-65,78],[-13,-11],[-33,39],[-27,-23],[-126,149],[-5,29]],[[2095,3455],[1,0],[-1,1],[1,2],[3,1],[26,2],[4,4],[-1,3],[52,14],[18,-4],[8,-5],[12,5],[20,-2],[-3,-7],[6,-7]],[[2224,3060],[0,-35]],[[2224,3025],[-5,0],[-4,5],[-13,-12],[-2,1],[-11,-7],[-58,42],[-6,-54],[-73,12],[-13,-132],[-50,8],[10,89],[-40,1],[-20,14],[18,20],[-3,2],[16,35],[7,30],[-6,-1]],[[7618,3322],[-7,8],[-9,41],[-4,2],[-5,24],[0,7],[4,5],[9,4],[8,-3],[18,-19],[16,-11],[31,-43],[7,-6],[15,-4],[13,5],[2,6],[14,-4],[14,4],[8,-2],[3,4],[4,69],[-6,8],[4,15],[7,-1],[8,-15],[13,-83],[9,-27],[15,-91],[21,-70],[-2,-10],[4,-4],[3,8],[22,1],[1,-3],[7,5],[0,-8],[5,0],[-2,-7],[4,-6],[0,-14],[4,-12],[14,-12],[16,-19],[-6,-1],[-3,5],[-9,0],[6,-4],[-1,-10],[-34,7],[0,13],[7,0],[-7,6],[-4,-15],[-6,-1],[-5,-7],[7,-28],[10,-7],[1,4],[4,-11],[4,-2],[2,-14],[30,-14],[-13,11],[17,-8],[-11,10],[5,6],[10,-12],[-2,9],[6,-6],[2,-11],[-3,-13],[-5,-1],[-19,7],[11,-8],[15,-1],[1,-4],[-26,-20],[-7,-1],[0,-5],[-4,-4],[-1,-9],[3,-8],[-1,-8],[4,-5],[-2,-2],[5,-10],[6,-27],[4,-5],[4,-21],[-1,-11],[7,-3],[6,4],[5,-2],[12,5],[4,8],[6,-6],[-1,-5],[-5,-5],[-8,1],[-10,-6],[5,-9],[11,-9],[-2,-4],[-4,-3],[-11,6],[-6,-7],[4,-7],[4,-24],[6,-17],[8,-2],[5,10],[2,-4],[-5,-9],[-10,-4],[-4,-8],[10,-34],[-2,-21],[-7,-21],[-11,-11],[-1,-20],[-9,-12],[-7,3],[5,12],[-13,0],[-12,-9],[-1,-1],[-2,3],[0,-4],[-2,-13],[10,-2],[-3,-24],[-16,7],[-3,4],[-2,-10],[10,-13],[-2,-16],[-1,-21],[-2,-17],[-3,-22],[-3,-23],[-10,-40],[-14,-19],[-4,-10],[2,-13],[-6,-4],[-9,-19],[-57,9],[-29,-8],[-3,9],[-17,-6],[-91,-7],[-45,16],[0,8],[6,21],[17,11],[4,10],[4,-2],[5,6],[12,0],[2,8],[15,-1],[6,-13],[14,-7],[-5,6],[-2,8],[2,6],[6,-1],[7,8],[65,27],[7,-15],[9,-10],[9,-1],[5,3],[4,10],[2,1],[0,2],[-5,6],[8,23],[26,-3],[7,-4],[6,5],[5,0],[0,1],[-55,8],[-1,11],[3,1],[19,-1],[30,-4],[2,2],[3,-1],[-2,1],[-6,1],[-24,2],[-12,4],[-5,3],[1,4],[11,3],[8,0],[33,-3],[1,1],[-44,7],[-3,8],[1,7],[22,-4],[26,-2],[0,1],[-35,5],[-2,2],[-5,7],[7,5],[7,0],[31,-5],[0,3],[-39,6],[0,4],[3,8],[38,-3],[0,1],[-39,7],[0,5],[2,5],[4,1],[35,-4],[0,3],[-41,5],[-2,9],[2,4],[2,1],[40,-5],[-1,4],[-29,3],[-6,2],[-1,6],[5,5],[35,-3],[0,2],[-47,7],[9,14],[21,17],[8,11],[-2,4],[8,10],[0,6],[10,12],[0,17],[5,10],[4,19],[-9,4],[-2,15],[-3,1],[-3,3],[-1,-1],[-2,4],[4,4],[-3,-1],[-1,3],[0,2],[-6,1],[-2,-8],[-2,-2],[1,-6],[-5,-12],[2,-10],[9,-5],[-5,-4],[-6,0],[0,6],[-3,3],[1,-5],[0,-7],[-5,-1],[-6,8],[-7,-2],[-4,9],[-2,-5],[3,-7],[-2,-1],[-6,5],[-1,10],[-3,1],[-12,15],[-8,21],[-3,0],[-2,12],[-8,12],[-7,16],[-8,6],[-7,-12],[-15,-11],[-6,1],[-7,6],[8,4],[9,-1],[-5,1],[1,5],[-5,13],[-10,1],[-4,6],[-11,0],[-4,9],[-6,-4],[8,-8],[-3,-5],[-9,3],[-13,10],[-14,1],[-37,-16],[-20,-20],[-4,10],[-17,12],[-6,11],[-17,1],[-24,11],[2,5],[-4,2],[8,0],[6,5],[-8,12],[7,-2],[4,-7],[6,5],[8,-2],[16,15],[10,20],[-4,6],[1,7],[-4,5],[2,2],[-8,12],[2,3],[-4,6],[1,7],[-5,17],[9,12],[4,-7],[5,-2],[2,13],[-3,7],[4,3],[2,8],[-8,17],[1,15],[5,-3],[6,-14],[9,-4],[4,5],[12,5],[-4,4],[3,0],[0,12],[-12,-1],[1,12],[4,4],[7,5],[11,0],[5,11],[10,-7],[-2,-8],[10,10],[4,-2],[5,11],[5,-2],[-2,6],[-16,-5],[9,11],[5,19],[-6,9],[5,3],[-15,9],[-9,-6],[1,-4],[-8,1],[3,6],[-6,19],[2,2],[6,-4],[-3,5],[1,5],[8,2],[-7,2],[-14,-10],[-2,2],[2,10],[4,2],[-2,8],[3,6],[8,2],[4,-3],[-3,9],[4,17],[4,6],[-2,7],[2,11],[5,10],[-1,8],[9,20],[-5,24],[-10,15],[-1,21]],[[4304,3206],[-60,-193],[-9,5],[-99,-149],[0,-3],[16,-10],[-31,-71],[3,-4],[-13,-53],[42,-13],[1,6],[7,-12],[52,-40],[-19,-26],[31,-24],[-10,-28],[48,-20]],[[4263,2571],[-13,-22]],[[4250,2549],[-13,11],[-19,6],[-153,28],[-27,16],[-32,28],[-25,30],[-6,11],[-14,10],[4,6],[-15,9],[-13,41],[-41,54],[-21,41],[-21,119],[-5,17],[2,16],[-6,70],[7,75],[8,69],[74,201]],[[3283,3338],[6,-51],[-9,-39],[6,-42],[4,-1],[-3,-7],[11,-67],[-7,-2],[10,-58],[43,-79],[64,-62],[11,13],[3,-1],[-23,-27],[5,-5],[7,8],[6,-6],[5,3],[5,-5],[0,-8],[17,-15],[7,-2],[4,-7]],[[3455,2878],[-7,-5],[-42,25],[-83,73],[-16,-44],[-27,-17],[5,-9],[-24,-14],[-19,-27],[-72,-172],[-36,-54],[-65,-113],[-39,-125],[-5,-8],[-3,1],[-14,-29],[-50,-61],[-6,4],[-12,-12],[-89,-86],[5,-4],[-88,-84]],[[2768,2117],[-4,4],[7,9],[17,47],[9,15],[-34,23],[-49,-58],[-85,-90],[-56,-36],[-54,-61],[-22,-5],[-13,-13],[-12,11],[-12,55]],[[2460,2018],[-78,111]],[[2382,2129],[141,263],[11,11],[63,22],[0,14],[-8,10],[-29,48]],[[2382,2129],[30,-43]],[[2412,2086],[-40,-11],[-28,-77],[-14,22],[-4,47],[-13,0],[-10,11],[-31,-27],[-18,22],[-20,-16],[-27,2],[-11,-7],[-29,-3],[-29,-85],[-116,-38],[-3,-3],[2,-13],[-39,-7],[-20,8],[-7,-6],[-17,-3],[21,-33],[-6,-17],[2,-7],[3,1],[4,-2],[1,-4],[-13,-38],[-11,-12],[-32,11],[-36,-14]],[[1871,1787],[-194,-95],[-31,-31],[-14,-94],[-16,-30]],[[1616,1537],[-71,19],[1,116],[-81,5],[-17,-77],[-22,6],[-30,20],[-59,29],[-24,6],[-21,-5],[-25,-18],[-74,-22],[-25,-23],[-15,-3],[-17,3],[-20,79],[-102,-132]],[[1014,1540],[-4,4],[-17,-18],[-17,-12],[-55,-9],[-33,-16],[-68,-15],[-25,-11],[-6,2],[-15,27],[-7,5]],[[767,1497],[0,2],[13,12],[3,13],[6,1],[3,9],[2,26],[7,18],[-6,35],[7,14],[6,31],[33,87],[1,15],[13,25],[20,17],[-11,52],[8,26],[-5,11],[9,16],[-2,13],[6,7],[1,6],[-3,7],[9,11],[6,27],[1,39],[5,15],[4,1],[5,8],[12,50],[0,12],[-3,6],[5,7],[-2,15],[5,24],[-1,28],[-5,18],[6,12],[0,12],[-3,1],[7,15],[4,0],[5,9],[14,16],[6,-3],[7,4],[-2,9],[3,13],[18,24],[4,1],[4,11],[15,14],[4,11],[14,14],[14,36],[8,8],[2,9],[-2,4],[0,8],[4,8],[-3,13],[1,3],[7,0],[-4,5],[3,7],[-2,23],[6,29],[6,3],[2,5],[-12,-2],[9,7],[1,6],[6,-3],[4,7],[-6,6],[5,9],[0,8],[-4,4],[5,1],[-14,42],[-16,13],[-4,10],[-7,10],[-5,12],[-3,25],[6,28],[6,12],[10,11],[0,10],[4,11],[5,6],[15,5],[5,11],[5,39],[-4,8],[0,12],[-6,5],[0,14],[-10,3],[-12,15],[-3,-1],[-10,10],[-16,7],[-33,5],[-1,24],[6,-2],[3,8],[-9,11],[3,9],[-7,29],[10,-2],[2,5],[-8,2],[-7,23],[-3,1],[3,11],[0,15],[-5,0],[-2,13],[1,6],[4,1],[-1,5],[6,8],[0,43],[-2,5],[-4,-1],[8,79],[9,8],[6,42],[12,18],[19,16],[1,6],[7,3],[7,-4],[5,5],[0,11],[15,9],[10,25]],[[2224,3025],[0,16]],[[7461,3089],[-41,61],[-21,48],[31,43],[112,44],[6,-6],[8,-17],[-73,-140],[-21,11],[-16,21],[-4,-2],[18,-33],[13,-5],[-12,-25]],[[4599,2860],[-4,-20],[-23,18],[-198,-252],[-37,-55],[-49,16],[-19,10],[-6,-6]],[[8780,2852],[-40,5],[-20,7],[3,18],[25,56],[17,26],[14,10],[6,-1],[19,-115],[-24,-6]],[[3455,2878],[40,-49],[13,-37],[3,-20],[21,-11],[7,-14],[-2,-6],[2,-7],[37,-47],[10,-31],[15,-17],[30,-15],[3,-14],[-3,-14],[15,-72],[-6,-27],[19,-20],[-7,0],[0,-4],[-20,-21],[-10,-1],[-19,-18],[-69,-83],[-8,-12],[0,-5],[-14,-8],[-31,-34],[-48,-66],[-2,-6],[7,-11],[-14,-7],[-15,-14],[-56,-74],[-17,-16],[-11,-17],[-9,-21],[7,-10],[-9,4],[-41,-40],[-31,-43],[-2,-7],[5,-4],[-1,-2],[-12,4],[-15,-14],[1,-3],[-11,-9],[-30,-36],[7,-9],[-11,11],[-32,-26],[-88,-101],[-16,-30],[6,-8],[-14,10],[-4,-1],[-21,-21],[-10,-27],[-13,8],[-16,-14]],[[2965,1691],[-33,31],[2,7],[68,96],[54,42],[-114,78],[35,44],[-119,79],[-17,-18],[-73,67]],[[6072,2160],[-18,-9],[-12,2],[-13,-2],[-12,-8],[-25,6],[-8,-3],[-11,2],[-21,-7],[-9,4],[-34,41],[-12,27],[-22,15],[-15,3],[-9,8],[-4,13],[1,31],[4,21],[9,15],[-3,16],[-10,14],[-36,13],[-4,-3],[0,-2],[-473,-69]],[[5335,2288],[-21,161],[-10,165],[-18,-3],[-3,51],[-8,60]],[[4827,2656],[82,-569]],[[4909,2087],[3,-23],[-15,13],[-10,-1],[-30,-36],[-3,2]],[[4854,2042],[-2,8],[-19,-15],[-11,-27],[-9,-11],[-27,20],[-4,-1],[-8,9],[-26,6],[0,11],[-7,0],[1,7],[5,2],[24,55],[2,11],[-68,-43],[-34,-17],[-80,25],[1,24],[8,9],[30,20],[-21,6],[-5,9],[3,7],[24,6],[90,52],[-21,-7],[-46,-27],[51,33],[-3,4],[-16,-9],[-2,4],[6,3],[-9,15],[-86,-57],[1,-11],[-5,-1],[0,15],[50,32],[-7,-2],[-12,19],[-10,-6],[-4,7],[17,11],[-5,15],[6,-2],[8,14],[16,11],[-1,6],[-7,9],[-31,-19],[-11,1],[-6,5],[3,8],[20,17],[-6,4],[-4,9],[17,14],[-46,-25],[-37,74],[-38,41],[-78,66],[-48,30],[-30,12],[-47,13],[-33,-1],[-17,9]],[[9149,2763],[6,-8],[31,16],[48,-106],[37,-43],[47,-83],[9,-145],[8,-41],[-20,-2],[-10,3],[-5,-4],[-11,5],[-4,-4],[-11,5],[-4,-3],[-9,5],[-4,-6],[0,3],[-8,5],[-5,-1],[-2,-3],[-9,6],[-4,-1],[1,-3],[-17,2],[-3,-5],[-20,1],[-36,-8],[-43,-22],[-22,-16],[-24,-31],[-36,-11],[-43,-2],[-34,11],[-37,7],[-26,2],[-28,-2],[-90,-21],[-16,3],[-37,-8],[-91,-8],[2,3],[-15,-6],[-15,0],[-31,-11],[-22,0],[-73,-27],[-52,-12],[-18,-8]],[[8403,2189],[-4,28],[47,19],[-5,59],[-5,0],[0,10],[40,-1],[-9,125],[-78,-5]],[[8389,2424],[0,9],[37,37],[5,11],[15,10],[11,29],[16,7],[15,14],[9,33],[-6,6],[-8,19],[5,12],[57,73],[28,26],[30,9],[17,-5],[17,2],[20,-19],[1,-8],[-11,-5],[11,-19],[-6,-4],[-1,-22],[-11,-47],[1,-3],[8,-2],[-4,-5],[-9,0],[-9,-16],[-2,-17],[6,7],[1,-4],[-8,-8],[-6,-1],[-1,-8],[-28,-32],[-3,-10],[-34,8],[-10,-10],[-3,-8],[-19,-18],[-2,-13],[2,-7],[9,-10],[1,-5],[20,-13],[2,-8],[7,12],[12,7],[3,7],[11,5],[15,15],[4,19],[22,43],[7,6],[11,2],[5,-26],[11,-18],[-3,-21],[9,-8],[1,-10],[9,-4],[2,-5],[25,2],[11,8],[13,-5],[16,4],[23,-10],[4,7],[-6,5],[-25,7],[-12,9],[-10,-4],[-4,13],[0,28],[7,25],[-1,6],[4,13],[-2,12],[9,5],[-7,41],[-2,1],[14,6],[-2,12],[4,15],[-4,22],[6,7],[0,13],[10,10],[3,21],[-3,8],[-11,10],[-27,7],[-9,9],[-8,18],[-10,-1],[-11,-7],[7,-24],[-14,26],[-4,21],[-4,-7],[14,43],[7,-1],[44,17],[-4,-6],[25,-2],[19,6],[26,2],[11,-3],[5,-7],[15,-3],[3,-7],[-3,-9],[1,-15],[3,-3],[-2,-7],[50,-16],[10,11],[27,-24],[-25,-37],[-2,-4],[3,-2],[28,44],[9,-1],[-3,-14],[5,4],[51,-6],[13,4],[4,-6],[-3,7],[8,-4],[9,2],[6,8],[-3,1],[3,14],[22,5],[76,8]],[[9110,2765],[10,-16],[29,14]],[[9110,2765],[32,7],[7,-9]],[[5335,2288],[-110,-16],[-24,-142]],[[5201,2130],[-47,-28],[-32,-4],[-14,-8],[-54,-14],[-36,-5],[-48,3],[-61,13]],[[7607,2684],[-5,11],[-10,7],[8,4],[11,10],[17,-13],[3,-9],[9,-3],[0,-4],[4,-2],[0,-7],[6,-10],[-3,-1],[2,-12],[6,-12],[-10,-7],[3,-7],[-2,-4],[-14,-10],[-24,-3],[-2,-4],[-10,4],[-6,-4],[-3,7],[-8,0],[-2,-1],[-1,-8],[-11,10],[-11,-2],[2,24],[4,5],[7,0],[9,8],[1,14],[2,0],[6,14],[-3,7],[11,4],[5,-9],[9,3]],[[8403,2189],[-7,-5],[-11,5],[-39,-8],[-80,-23],[-13,1],[-31,-13],[-22,-1],[-22,-9],[-9,0]],[[8169,2136],[-5,30],[-42,-4],[-11,81],[3,1],[-1,13],[-15,1],[2,27]],[[8100,2285],[16,-8],[3,12],[-66,37],[-4,7],[5,5],[-3,7],[15,26],[19,7],[21,-11],[14,-19],[0,-20],[6,-14],[3,1],[11,-8],[10,1],[-1,14],[2,2],[-4,25],[5,3],[-13,2],[-5,7],[2,0],[0,7],[-8,1],[-19,29],[-7,18],[8,12],[11,6],[3,7],[3,0],[14,17],[18,-2],[18,8],[114,8],[19,7],[4,4],[10,-1],[10,2],[77,76],[22,7],[10,-10],[-7,-11],[-11,-7],[-13,-31],[-30,-25],[-14,-17],[-14,-59],[4,-42],[5,-6],[13,-1],[9,5],[0,6],[4,0],[0,4],[1,15],[-3,11],[2,25]],[[6167,2144],[3,-6],[9,-40],[13,-18],[8,-21],[-4,-3],[-1,-12],[-37,-11],[-17,9],[-15,0],[-31,11],[-12,0],[-89,27],[-52,3],[-36,7],[-50,-4],[-10,-5],[-3,-8],[-3,-1],[-14,2],[-6,7],[-16,-4],[-23,0],[-3,5],[-24,3],[-12,-3],[-27,4],[-25,-4],[-9,4],[-30,0],[-2,7],[-18,-2],[10,-10],[-13,9],[-6,0],[9,-9],[-11,9],[-7,0],[8,-8],[-10,8],[-7,0],[8,-8],[-11,8],[-7,0],[8,-8],[-3,0],[-8,8],[-7,1],[8,-9],[-2,0],[-9,9],[-7,0],[8,-8],[-2,0],[-9,9],[-7,0],[9,-9],[-12,9],[-6,-1],[8,-8],[-10,8],[-7,0],[8,-8],[-11,8],[-109,-13],[4,-23],[65,7],[125,-31],[178,3],[5,3],[11,-38],[15,-83],[-8,-12],[-60,-3],[-1,-7],[-2,6],[-24,7],[-3,0],[-3,-9],[0,3],[-103,-5],[-11,8],[-20,1],[-6,-2],[-1,-9],[-12,3],[-10,-2],[-5,-5],[-107,-17],[-9,-4],[-62,-2],[-7,-2],[0,-6],[-1,4],[-44,-3],[-10,31]],[[5328,1891],[-113,-9],[-35,2],[-21,9],[42,237]],[[8169,2136],[-34,-13],[-9,3],[-33,-12],[-16,-1],[-24,-10],[-20,-1],[-29,-12],[-8,6],[-45,-6],[-145,-54]],[[7806,2036],[-1,9],[17,5],[-4,11],[43,16],[-43,88],[28,17],[-3,6],[3,6]],[[7846,2194],[9,10],[25,15],[5,11],[14,2],[21,14],[9,14],[13,0],[12,8],[4,7],[16,2],[12,9],[1,28],[5,-30],[6,3],[0,7],[19,6],[5,7],[1,9],[-4,13],[3,2],[48,-32],[30,-14]],[[2965,1691],[-13,-17],[-34,-55],[-10,-24],[-21,10],[-7,-7],[0,-4],[-8,-5],[-14,-24],[-1,-5],[3,-3],[-8,-4],[-9,-19],[2,-4],[-4,0],[-6,-11],[0,-7],[6,-5],[-17,6],[-11,-8],[-11,2],[-16,-17],[-8,-16],[-11,-34],[0,-7],[9,-9],[-20,12],[-10,-6],[-28,-45],[-7,-17],[2,-5],[-36,27],[-9,-3],[-17,-17],[-31,-40],[-47,-91],[-5,-2],[-8,8],[-25,-1],[-10,-13],[-29,-16],[-28,-34],[-4,5],[-2,-22],[-13,-2],[-3,3],[-6,-8],[-26,-3],[-8,-6],[0,-5],[-23,-8],[-12,-10],[-39,-60],[-26,-52],[-68,-109],[-23,-21],[-23,-33],[-20,-23],[-26,-25],[-11,-3],[-17,21],[-20,16],[-24,41],[-9,25],[6,34],[10,9],[40,-6],[50,2],[26,12],[100,117],[7,17],[3,14],[-4,34],[-19,30],[-29,33],[-41,16],[-50,-7]],[[2164,1207],[-17,23],[-38,30],[15,18],[55,43],[25,26],[-11,12],[-27,-23],[-23,25],[-13,-11],[-22,24],[-13,-11],[-21,23],[-1,8],[12,38],[-15,6],[4,9],[-3,7],[-6,6],[-4,-4],[-4,4],[15,17],[-16,17],[-26,-17],[-10,9],[6,7],[-9,11],[26,17],[-104,118],[-7,-6],[-72,73],[35,37],[-10,10],[-1,17],[-9,6],[-4,11]],[[2412,2086],[48,-68]],[[7806,2036],[-102,-43],[-76,-24],[-43,-18],[-70,-41],[-102,-46],[-158,-78],[-31,-10],[-57,-28],[-56,-29],[-42,-27],[-5,1],[3,-8],[-6,9],[-8,4],[-27,-10],[4,-8],[-4,8],[-10,-1],[-17,-11],[-36,-14],[4,-11],[-7,11],[-36,-17],[7,-16],[-7,16],[-6,-2],[-30,-16],[5,-12],[-7,13],[-8,-1],[-57,-24],[-56,-30]],[[6765,1573],[-58,137],[-30,-10],[21,29]],[[6698,1729],[9,0],[14,9],[59,-2],[19,5],[22,12],[195,126],[224,158],[47,21],[33,1],[52,-12],[114,4],[7,17],[6,4],[51,3],[131,48],[7,26],[14,9],[77,29],[30,-18],[37,25]],[[5328,1891],[9,-31],[-2,0],[1,-9],[-1,9],[-17,1],[-51,-13],[-102,-11],[-16,-6],[2,-7],[-3,7],[-30,-3],[-5,-3],[3,-9],[-3,8],[-21,-1],[-14,-6],[1,-9],[-2,11],[-16,-1],[-22,-7],[1,-9],[-2,9],[-11,0],[-24,-7],[-3,-7],[-4,0],[3,1],[0,5],[-6,4],[-19,1],[-7,-3],[-33,-3],[-5,-4],[-16,4],[-95,-13],[-89,-21],[-84,3],[-36,5],[-27,-1],[-20,-5],[1,-10],[-2,-1],[-6,39],[-6,11],[-34,17],[-91,29],[-34,18],[-12,21],[-12,43],[-7,19],[-4,2],[10,5],[14,34],[11,12],[30,12],[45,9],[29,22],[14,-4],[19,3],[92,-8],[11,-5],[7,-16],[8,-3],[98,-29],[25,5],[18,-8],[10,-8],[12,0],[17,6],[12,17],[-5,5],[11,19],[7,6],[0,5],[4,5]],[[2164,1207],[-16,-8],[-4,-6],[-10,2],[-8,-9],[-10,-1],[-20,-23],[-2,2],[2,-2],[-15,-17],[-5,5],[-4,-3],[-3,3],[-2,-3],[11,-10],[-7,-4],[-5,-9],[-7,4],[-3,-3],[6,-5],[-5,-1],[2,-2],[-8,-9],[-10,-3],[2,-3],[-4,-19],[4,-11],[7,-6],[-3,-2],[3,-9],[-1,-8],[-4,-3],[5,-7],[-10,-6],[-1,-3],[10,-10],[-8,-9],[3,-4],[-6,-6],[13,-14],[-4,3],[-31,0],[-10,-11],[-3,-17],[-5,-9],[-10,1],[-12,-11],[-20,-4]],[[1956,937],[-64,51],[-3,-4],[-22,17],[-131,177],[4,5],[-7,23],[7,9],[-13,24],[-37,-19],[-17,117],[-13,36],[-27,160],[-17,4]],[[6765,1573],[-14,-7],[-1,-3],[-2,2],[-16,-3],[-20,-10],[1,-4],[-2,3],[-13,-1],[-30,-16],[0,-3],[-2,3],[-17,-4],[-17,-10],[-2,-4],[-1,3],[-14,0],[-32,-18],[-11,1],[-10,-5],[-24,-14],[-9,2],[-15,-4],[-27,-16],[0,-5],[-4,8],[-6,0],[-27,-12],[-2,-6],[-4,8],[-12,3],[-20,-7],[0,-4],[-3,3],[-10,-1],[0,-5],[-2,4],[-9,-1],[-2,-5],[-2,4],[-16,5],[-39,0],[-64,-24],[-311,-156],[-191,-109],[-68,-51],[-28,-17],[-3,-38],[-3,-1],[6,86],[4,111],[-4,44],[1,34],[17,57],[19,38],[11,15],[38,17],[41,2],[36,16],[51,41],[34,38],[25,17],[7,-2],[30,7],[67,1],[44,17],[28,19],[18,18],[42,18],[27,2],[1,-5],[11,-1],[0,-7],[6,-10],[16,-5],[17,3],[6,-10],[-4,-1],[7,-2],[-1,-3],[19,-10],[25,-3],[37,14],[17,-11],[19,5],[11,7],[11,0],[54,34],[13,14],[10,17],[-4,18],[8,-2],[44,40],[37,-12],[10,2],[23,-5],[10,3],[9,-6],[18,9],[-1,3],[27,4],[19,2],[-7,-4],[5,-12],[13,5],[0,5],[5,2],[4,-3]],[[1956,937],[-24,-13],[-17,-17],[-27,-37],[-31,-9],[-27,-30],[0,-4],[-9,-6],[1,-5],[-9,2],[-12,-13],[2,-4],[-4,2],[-3,-3],[-8,-13],[4,-6],[-5,4],[-12,1],[-14,-8],[-6,-6],[4,-4],[-5,3],[7,-9],[-8,7],[-22,-19],[-10,1],[-5,5],[-23,-13],[-12,5],[-26,-20],[-19,-10],[1,-5],[-6,-8],[1,-5],[-12,5],[-6,-2],[-46,-39],[2,-4],[-3,-7],[-4,2],[-12,-11],[-14,-4],[-17,12],[-19,-4],[-55,-44],[-41,-45],[-8,5],[-6,-2],[-6,5],[-7,0],[-2,-3],[-5,8],[-18,16],[-17,-1],[-6,-4],[4,-10],[-9,9],[-14,-8],[0,-4],[-4,1],[-13,-6],[-1,-4],[3,-8],[-11,7],[-12,-7],[-16,-14],[3,-8],[-6,5],[-28,-32]],[[1226,504],[-101,216],[-44,76],[20,33],[-28,-17],[-25,60],[32,29],[48,17],[-10,25],[-35,-14],[-7,2],[-5,7],[-43,-17],[-81,234],[48,16],[-20,62],[8,6],[23,7],[-63,185],[-1,7],[25,-7],[23,5],[54,67],[-30,37]],[[1226,504],[-25,-33],[-3,-8],[6,-5],[-9,4],[-6,-4],[-27,-42],[7,-1],[-19,-19],[-30,-46],[-32,-18],[-15,0],[-11,4],[-29,24],[-26,11],[-4,6],[1,8],[-7,20],[-67,-14],[-24,-2],[-37,-10],[-26,-13],[-17,-15],[-12,-18],[-6,-26],[-13,-7],[-36,-48],[-7,1],[-10,-5],[-17,-14],[-33,-49],[-2,-10],[-8,1],[-6,-5],[-8,-1],[-18,-9],[-28,-2],[-7,-9],[-6,7],[-15,-2],[-11,-10],[-10,0],[-20,-13],[-8,6],[-25,10],[-24,-1]],[[496,147],[-54,212],[-26,118],[-4,13],[-20,17],[-7,12],[-14,79],[-144,17]],[[227,615],[7,15],[-4,39],[-8,20],[-9,3],[-2,5],[16,46],[2,30],[5,5],[3,13],[-13,2],[-13,26],[34,-2],[9,20],[-3,39],[-7,0],[-3,9],[1,9],[5,7],[-1,15],[-15,26],[-15,18],[-19,3],[13,5],[-3,6],[-8,4],[-4,-5],[-8,4],[0,6],[8,6],[7,12],[1,8],[-15,24],[-4,36],[-10,16],[-4,14],[-25,29],[-6,-1],[33,61],[46,48],[14,-13],[21,0],[35,26],[16,20],[7,2],[16,26],[20,6],[1,4],[-9,18],[10,-19],[3,20],[-7,12],[4,10],[26,15],[25,-13],[14,11],[11,20],[-1,2],[-8,-5],[4,15],[13,19],[14,9],[8,15],[8,-5],[13,3],[7,7],[12,4],[29,-5],[7,2],[54,-12],[9,-8],[14,-1],[7,5],[4,-7],[8,14],[6,-2],[7,-10],[0,-9],[4,-2],[6,2],[1,6],[5,2],[5,9],[12,4],[7,-4],[6,-16],[2,-1],[17,8],[1,15],[6,-1],[7,6],[10,0],[1,9],[7,10],[-3,10],[17,12],[3,16],[12,1],[1,-1]],[[496,147],[-18,0],[-20,-7],[-24,-1],[-15,-9],[-15,-13],[-9,-1],[3,-3],[-14,2],[-18,-4],[-16,-13],[-10,-2],[-14,-20],[-9,-2],[-32,-36],[-33,1],[-8,-4],[-11,4],[-28,-7],[-8,2],[0,-3],[-7,-8],[-9,-3],[-9,-14],[-16,-6],[-28,7],[-15,9],[-13,15],[-2,12],[3,10],[-5,9],[-18,13],[-6,-1],[-18,11],[-11,16],[-6,24],[-13,25],[-17,44],[-2,17],[2,46],[-7,26],[6,14],[20,14],[16,23],[5,30],[0,27],[18,14],[3,10],[-5,10],[6,13],[6,0],[3,6],[18,8],[7,9],[-3,4],[6,4],[9,-12],[2,2],[-7,11],[25,22],[3,-3],[26,1],[-1,4],[26,18],[-9,17],[4,3],[10,0],[11,11],[11,-7],[23,0],[8,6],[0,6],[13,8],[4,10],[5,-1],[4,-8],[12,20],[-3,5],[-9,2],[-9,8],[-1,5],[-10,-1],[-27,8],[1,11]],[[4299,5158],[17,-8],[-12,-41],[30,-7]],[[4298,4970],[-10,-10],[-8,1],[3,15],[1,4],[-11,-1],[0,-2],[-14,4],[-1,0],[0,1],[-8,32],[4,21],[1,0],[1,1],[3,-1],[0,-1],[1,0],[0,-2],[2,-1],[1,0],[2,2],[6,22],[-11,4],[-1,1],[18,103],[22,-5]],[[4339,5130],[12,65]],[[4443,5169],[2,4],[11,-6],[-5,-9],[-11,6],[3,5]],[[4972,6112],[-5,3],[1,2],[6,-3],[1,2],[1,-1],[2,4],[10,-5],[-6,-11],[-10,5],[2,3],[-2,1]],[[5011,6092],[3,-2],[4,7],[7,-4],[-6,-11],[-10,6],[2,4]],[[5064,6281],[4,6],[12,-7],[-6,-11],[-9,5],[3,5],[-4,2]],[[4971,6366],[-5,3],[5,10],[12,-7],[-5,-9],[-7,3]],[[4837,6026],[3,6],[4,-2],[3,6],[24,-14],[-6,-11],[-28,15]],[[4981,6192],[4,-3],[-3,-5],[-11,6],[2,4],[3,-1],[1,1],[4,-2]],[[5473,6521],[-6,3],[7,12],[6,-3],[-7,-12]],[[5083,6401],[-67,-122]],[[5016,6279],[-22,13]],[[4577,6347],[-26,-44]],[[4540,6307],[43,80],[2,1],[16,-9],[5,6],[18,35],[-2,1],[0,3],[5,3],[35,65],[-15,8],[26,50],[13,22],[3,0],[-1,4],[12,22],[3,-1],[6,13],[163,-91]],[[5016,6279],[-8,-15]],[[5024,6120],[-3,2],[7,13],[15,-9],[-7,-13],[-12,7]],[[5088,6229],[3,6],[9,-6],[-3,-5],[-9,5]],[[4740,6103],[3,6],[3,-2],[3,6],[5,-3],[-4,-6],[2,-1],[-3,-5],[-9,5]],[[4904,6449],[3,6],[14,-8],[0,-3],[-4,2],[-2,-3],[-11,6]],[[5007,6312],[5,6],[17,-9],[-6,-12],[-18,10],[2,5]],[[5086,6397],[22,-12],[-6,-11],[-23,12],[7,11]],[[5034,6100],[5,8],[12,-7],[-6,-11],[-12,7],[1,3]],[[5005,6141],[10,19],[17,-10],[-10,-18],[-1,1],[-2,-3],[-14,8],[1,3],[-1,0]],[[5017,6169],[4,7],[20,-10],[-7,-12],[-19,11],[2,4]],[[5054,6163],[-16,8],[6,12],[23,-13],[-6,-11],[-7,4]],[[5023,6180],[7,11],[7,-4],[-6,-11],[-8,4]],[[5068,6189],[7,-4],[-6,-12],[-23,13],[6,11],[16,-8]],[[5064,6198],[-8,4],[5,9],[8,-4],[-5,-9]],[[5095,6238],[-16,8],[6,11],[24,-12],[-7,-11],[-7,4]],[[5111,6263],[-6,-11],[-17,9],[6,11],[17,-9]],[[4450,5024],[6,7],[12,-11],[-4,-6],[-14,10]],[[4989,6300],[-2,-3],[-25,15],[6,11],[26,-14],[-5,-9]],[[4415,5066],[5,-4],[-6,-8],[-16,12],[6,9],[11,-9]],[[4929,6155],[3,5],[12,-6],[-4,-6],[-11,7]],[[4958,6166],[10,-6],[-3,-6],[-11,6],[4,6]],[[5073,6376],[4,6],[11,-6],[-3,-5],[-12,5]],[[4971,6157],[3,-2],[2,4],[-1,1],[1,3],[9,-5],[-4,-6],[-5,3],[-1,-1],[6,-3],[-1,-2],[-5,3],[0,1],[-1,-2],[5,-3],[-1,-2],[-10,6],[3,5]],[[5007,6077],[-3,-5],[-16,8],[6,11],[14,-7],[-1,-7]],[[4714,6095],[7,11],[36,-20],[-6,-11],[-37,20]],[[4740,6076],[14,-8],[-14,-25],[-15,8],[15,25]],[[4767,6103],[2,-1],[-1,-3],[2,-2],[-3,-6],[-4,2],[-1,-2],[-4,2],[3,6],[3,-2],[3,6]],[[4936,6431],[4,6],[6,-4],[-2,-5],[0,-1],[6,-3],[-3,-6],[-12,6],[4,6],[-3,1]],[[5038,6033],[7,11],[9,-6],[-6,-11],[-10,6]],[[4414,4944],[23,18],[16,-17],[-24,-19],[-15,18]],[[4789,6061],[5,-3],[4,6],[7,-4],[-6,-12],[-13,7],[3,6]],[[4513,5228],[-10,6],[13,22],[24,-15],[-6,-30],[-21,17]],[[5166,6325],[2,6],[17,-13],[-1,-3],[-18,10]],[[5092,6416],[177,-100],[19,-15],[2,3],[54,-30],[-12,-22],[2,-1]],[[5334,6251],[-30,-54],[-16,-14],[-28,-42]],[[4471,4961],[-8,8],[11,10],[8,-9],[-11,-9]],[[4442,5047],[-14,12],[4,5],[14,-12],[-4,-5]],[[4904,6176],[3,6],[12,-8],[-6,-10],[-12,6],[3,6]],[[4864,6362],[7,-4],[-1,-1],[14,-7],[-2,-3],[1,-1],[-1,-1],[0,1],[-1,-2],[0,-1],[-1,0],[-2,-3],[-13,8],[-1,-1],[-7,4],[7,11]],[[4914,6223],[6,10],[10,-6],[-6,-10],[-10,6]],[[4933,6217],[-1,1],[2,3],[-1,1],[2,3],[2,-1],[-4,-7]],[[4337,5001],[5,14],[15,-6],[-7,-12],[-13,4]],[[4453,4985],[-4,5],[8,7],[4,-5],[-8,-7]],[[4435,5077],[4,4],[14,-23],[-4,-4],[-17,20],[3,3]],[[4844,5812],[6,0],[-3,-6],[-9,5],[2,3],[4,-2]],[[4367,5119],[5,11],[7,-4],[4,8],[9,-4],[-5,-9],[4,-2],[-5,-8],[-19,8]],[[4384,5040],[5,10],[5,-3],[-10,-20],[-6,4],[6,9]],[[4411,5076],[3,4],[12,-7],[-5,-6],[-10,9]],[[4435,5018],[4,6]],[[4439,5024],[3,4],[13,-10],[-4,-5],[3,-2],[-4,-5],[-15,12]],[[4333,5180],[-13,9],[9,15],[12,-8],[-2,-10],[-6,-6]],[[4435,5018],[-5,3],[4,7],[5,-4]],[[6529,7073],[-2,10],[1,17],[4,8],[-2,3],[1,9],[12,56],[21,23],[9,5],[18,-4],[14,11],[20,2],[14,-9],[49,-54],[2,0],[0,7],[8,-10],[20,-10],[42,-6],[31,-12],[40,-30],[17,-21],[47,-28],[19,-25],[7,-50],[-9,-13],[-6,-16],[-25,-20],[-21,-3],[-19,4],[-26,-2],[-32,-12],[-33,9],[-14,0],[-40,15],[-11,-1],[-26,9],[-50,7],[-16,9],[-6,10],[-13,45],[-5,8],[-8,6],[-14,-2],[-10,4],[-8,51]],[[5455,6407],[-37,-56],[-84,-100]],[[5543,6541],[-29,-44]],[[4723,6641],[8,15],[6,4],[-2,10],[26,48],[10,2],[28,50],[-2,11],[13,24]],[[4299,5158],[0,15],[6,15]],[[4305,5188],[-8,14],[10,18],[36,-21]],[[4305,5188],[-24,5],[17,120],[32,-2],[30,-6]]],"transform":{"scale":[0.000055620815443452745,0.000041936911656156795],"translate":[-74.25575705177238,40.49584008834934]}}